type,layers,gamename,startdate,enddate,parenthivedb,parentdbname,parenttablename,parentcolumnname,orihivedb,oridbname,oritablename,oricolumnname,hivedb,dbname,tablename,columnname,logstartdate,logenddate,dtbeforeday,dtafterday,logfilename,log,sql,memo,memo2
all,1,bnb,2019-12-01,,,,,,all,Userdynamic,fxabusecount,,extract,Userdynamic,fxabusecount,,,,,,,,,尚未確定(0M),
all,1,bnb,2019-12-01,,,,,,all,Userdynamic,fxbattlepoint,,extract,Userdynamic,fxbattlepoint,,,,,,,,,尚未確定(大於10M),
all,1,bnb,2019-12-01,,,,,,all,Userdynamic,fxbookmarkmaplist,,extract,Userdynamic,fxbookmarkmaplist,,,,,,,,,尚未確定(大於1M),
all,1,bnb,2019-12-01,,,,,,all,Userdynamic,fxcajjangmatchlog,,extract,Userdynamic,fxcajjangmatchlog,,,,,,,,,尚未確定(0M),
all,1,bnb,2019-12-01,,,,,,all,Userdynamic,fxcajjangmatchuserinfo,,extract,Userdynamic,fxcajjangmatchuserinfo,,,,,,,,,尚未確定(0M),
all,1,bnb,2019-12-01,,,,,,all,Userdynamic,fxcajjangplacement,,extract,Userdynamic,fxcajjangplacement,,,,,,,,,尚未確定(0M),
all,1,bnb,2019-12-01,,,,,,all,Userdynamic,fxcouple,,extract,Userdynamic,fxcouple,,,,,,,,,紀錄歷史結婚資料(大於10M),
all,1,bnb,2019-12-01,,,,,,all,Userdynamic,fxcoupleringname,,extract,Userdynamic,fxcoupleringname,,,,,,,,,尚未確定(小於500K),
all,1,bnb,2019-12-01,,,,,,all,Userdynamic,fxcpbonusrewardlimit,,extract,Userdynamic,fxcpbonusrewardlimit,,,,,,,,,尚未確定(大於1M),
all,1,bnb,2019-12-01,,,,,,all,Userdynamic,fxdynamicresetlog,,extract,Userdynamic,fxdynamicresetlog,,,,,,,,,尚未確定(大於1M),
all,1,bnb,2019-12-01,,,,,,all,Userdynamic,fxelecdisplayinfo,,extract,Userdynamic,fxelecdisplayinfo,,,,,,,,,尚未確定(小於500K),
all,1,bnb,2019-12-01,,,,,,all,Userdynamic,fxeventitemrecord,,extract,Userdynamic,fxeventitemrecord,,,,,,,,,尚未確定(大於1M),
all,1,bnb,2019-12-01,,,,,,all,Userdynamic,fxgameresultlog,,extract,Userdynamic,fxgameresultlog,,,,,,,,,尚未確定(大於10M),
all,1,bnb,2019-12-01,,,,,,all,Userdynamic,fxhcsinglestageinfo,,extract,Userdynamic,fxhcsinglestageinfo,,,,,,,,,尚未確定(大於10M),
all,1,bnb,2019-12-01,,,,,,all,Userdynamic,fxhiddencatchcoin,,extract,Userdynamic,fxhiddencatchcoin,,,,,,,,,尚未確定(大於10M),
all,1,bnb,2019-12-01,,,,,,all,Userdynamic,fxhiddencatchsingledata,,extract,Userdynamic,fxhiddencatchsingledata,,,,,,,,,尚未確定(大於1M),
all,1,bnb,2019-12-01,,,,,,all,Userdynamic,fxhiddencatchsingledatasu,,extract,Userdynamic,fxhiddencatchsingledatasu,,,,,,,,,尚未確定(0M),
all,1,bnb,2019-12-01,,,,,,all,Userdynamic,fxleveluprewardlog,,extract,Userdynamic,fxleveluprewardlog,,,,,,,,,尚未確定(大於10M),
all,1,bnb,2019-12-01,,,,,,all,Userdynamic,fxmatchinglog,,extract,Userdynamic,fxmatchinglog,,,,,,,,,尚未確定(0M),
all,1,bnb,2019-12-01,,,,,,all,Userdynamic,fxmatchinguserinfo,,extract,Userdynamic,fxmatchinguserinfo,,,,,,,,,尚未確定(0M),
all,1,bnb,2019-12-01,,,,,,all,Userdynamic,fxmonrank,,extract,Userdynamic,fxmonrank,,,,,,,,,尚未確定(大於10M),
all,1,bnb,2019-12-01,,,,,,all,Userdynamic,fxnormalmatchuserinfo,,extract,Userdynamic,fxnormalmatchuserinfo,,,,,,,,,尚未確定(大於1M),
all,1,bnb,2019-12-01,,,,,,all,Userdynamic,fxrewardlimit,,extract,Userdynamic,fxrewardlimit,,,,,,,,,尚未確定(0M),
all,1,bnb,2019-12-01,,,,,,all,Userdynamic,fxspecialmark,,extract,Userdynamic,fxspecialmark,,,,,,,,,尚未確定(小於500K),
all,1,bnb,2019-12-01,,,,,,all,Userdynamic,fxtournamentdynamic,,extract,Userdynamic,fxtournamentdynamic,,,,,,,,,尚未確定(大於1M),
all,1,bnb,2019-12-01,,,,,,all,Userdynamic,fxuserbasket,,extract,Userdynamic,fxuserbasket,,,,,,,,,尚未確定(大於10M),
all,1,bnb,2019-12-01,,,,,,all,Userdynamic,fxuserdttinfo,,extract,Userdynamic,fxuserdttinfo,,,,,,,,,尚未確定(小於500K),
all,1,bnb,2019-12-01,,,,,,all,Userdynamic,fxuserdttlog,,extract,Userdynamic,fxuserdttlog,,,,,,,,,尚未確定(大於1M),
all,1,bnb,2019-12-01,,,,,,all,Userdynamic,fxusergachaponbonusgauge,,extract,Userdynamic,fxusergachaponbonusgauge,,,,,,,,,尚未確定(大於1M),
all,1,bnb,2019-12-01,,,,,,all,Userdynamic,fxusergachaponcoupon,,extract,Userdynamic,fxusergachaponcoupon,,,,,,,,,尚未確定(0M),
all,1,bnb,2019-12-01,,,,,,all,Userdynamic,fxusergachaponcoupon0113,,extract,Userdynamic,fxusergachaponcoupon0113,,,,,,,,,尚未確定(小於500K),
all,1,bnb,2019-12-01,,,,,,all,Userdynamic,fxusergachaponcoupon20110908,,extract,Userdynamic,fxusergachaponcoupon20110908,,,,,,,,,尚未確定(小於500K),
all,1,bnb,2019-12-01,,,,,,all,Userdynamic,fxusergachaponcoupon20121220,,extract,Userdynamic,fxusergachaponcoupon20121220,,,,,,,,,尚未確定(小於500K),
all,1,bnb,2019-12-01,,,,,,all,Userdynamic,fxusergachaponusedcount,,extract,Userdynamic,fxusergachaponusedcount,,,,,,,,,尚未確定(小於500K),
all,1,bnb,2019-12-01,,,,,,all,Userdynamic,fxuserheartpoint,,extract,Userdynamic,fxuserheartpoint,,,,,,,,,尚未確定(小於500K),
all,1,bnb,2019-12-01,,,,,,all,Userdynamic,fxuserheartpointlog,,extract,Userdynamic,fxuserheartpointlog,,,,,,,,,尚未確定(大於10M),
all,1,bnb,2019-12-01,,,,,,all,Userdynamic,fxusermarblecoinusedcount,,extract,Userdynamic,fxusermarblecoinusedcount,,,,,,,,,尚未確定(大於1M),
all,1,bnb,2019-12-01,,,,,,all,Userdynamic,fxusermisclog,,extract,Userdynamic,fxusermisclog,,,,,,,,,尚未確定(大於1M),
all,1,bnb,2019-12-01,,,,,,all,Userdynamic,fxuserspendmoney,,extract,Userdynamic,fxuserspendmoney,,,,,,,,,尚未確定(小於500K),
all,1,bnb,2019-12-01,,,,,,all,Userdynamic,fxusertitle,,extract,Userdynamic,fxusertitle,,,,,,,,,尚未確定(小於500K),
all,1,bnb,2019-12-01,,,,,,all,Userdynamic,fxusertitleword,,extract,Userdynamic,fxusertitleword,,,,,,,,,尚未確定(大於1M),
all,1,bnb,2019-12-01,,,,,,all,Userdynamic,fxusertlshopinfo,,extract,Userdynamic,fxusertlshopinfo,,,,,,,,,尚未確定(大於1M),
all,1,bnb,2019-12-01,,,,,,all,Userdynamic,fxusertlshopstock,,extract,Userdynamic,fxusertlshopstock,,,,,,,,,尚未確定(大於10M),
all,1,bnb,2019-12-01,,,,,,all,Userdynamic,gmlog_userdynamic,,extract,Userdynamic,gmlog_userdynamic,,,,,,,,,尚未確定(0M),
all,1,bnb,2019-12-01,,,,,,all,Userdynamic,gxsync,,extract,Userdynamic,gxsync,,,,,,,,,尚未確定(0M),
all,1,bnb,2019-12-01,,,,,,all,Userdynamic,level,,extract,Userdynamic,level,,,,,,,,,尚未確定(小於500K),
all,1,bnb,2019-12-01,,,,,,all,Userdynamic,log_dynamic,,extract,Userdynamic,log_dynamic,,,,,,,,,尚未確定(0M),
all,1,bnb,2019-12-01,,,,,,all,Userdynamic,snowmission,,extract,Userdynamic,snowmission,,,,,,,,,尚未確定(小於500K),
grammar,1,bnb,2019-12-01,,extract,init,activeaccount,user_name,all,Userdynamic,fxplaymaprecord,userid,extract,Userdynamic,fxplaymaprecord,,,,,,,,,尚未確定(大於100M),
grammar,1,bnb,2019-12-01,,extract,init,activeaccount,user_name,all,Userdynamic,fxquestlog,userid,extract,Userdynamic,fxquestlog,,,,,,,,,記錄玩家進行任務狀況的資料(大於1G),
grammar,1,bnb,2019-12-01,,extract,init,activeaccount,id,all,Userdynamic,fxuserdynamic,id,extract,Userdynamic,fxuserdynamic,,,,,,,,,紀錄玩家角色資料(大於100M),
grammar,1,bnb,2019-12-01,,extract,init,activeaccount,user_name,all,Userdynamic,fxusermaprank,userid,extract,Userdynamic,fxusermaprank,,,,,,,,,尚未確定(大於100M),
grammar,1,bnb,2019-12-01,,extract,init,activeaccount,user_name,all,Userdynamic,fxusertitlelist,userid,extract,Userdynamic,fxusertitlelist,,,,,,,,,尚未確定(大於100M),
log,1,bnb,2019-12-01,,,,,,all,Userdynamic,fxnormalmatchlog,,extract,Userdynamic,fxnormalmatchlog,,logtime,logtime,0,1,,,,尚未確定(大於100M),
