type,layers,gamename,startdate,enddate,parenthivedb,parentdbname,parenttablename,parentcolumnname,orihivedb,oridbname,oritablename,oricolumnname,hivedb,dbname,tablename,columnname,logstartdate,logenddate,dtbeforeday,dtafterday,logfilename,log,sql,memo,memo2
all,1,cso,2019-12-01,,,,,,all,cso,account,,extract,cso,account,,,,,,,,,尚未確定(0M),
all,1,cso,2019-12-01,,,,,,all,cso,auction_changedpriceitem,,extract,cso,auction_changedpriceitem,,,,,,,,,尚未確定(小於500K),
all,1,cso,2019-12-01,,,,,,all,cso,auction_character_attr,,extract,cso,auction_character_attr,,,,,,,,,尚未確定(大於10M),
all,1,cso,2019-12-01,,,,,,all,cso,auction_item,,extract,cso,auction_item,,,,,,,,,拍賣道具?(大於100M),
all,1,cso,2019-12-01,,,,,,all,cso,auction_itemvalue,,extract,cso,auction_itemvalue,,,,,,,,,尚未確定(小於500K),
all,1,cso,2019-12-01,,,,,,all,cso,auction_restricteditem,,extract,cso,auction_restricteditem,,,,,,,,,尚未確定(0M),
all,1,cso,2019-12-01,,,,,,all,cso,bestteam_for_league,,extract,cso,bestteam_for_league,,,,,,,,,尚未確定(小於500K),
all,1,cso,2019-12-01,,,,,,all,cso,bingo_prized_item,,extract,cso,bingo_prized_item,,,,,,,,,尚未確定(大於1M),
all,1,cso,2019-12-01,,,,,,all,cso,bulletin,,extract,cso,bulletin,,,,,,,,,尚未確定(小於500K),
all,1,cso,2019-12-01,,,,,,all,cso,cafe,,extract,cso,cafe,,,,,,,,,尚未確定(小於500K),
all,1,cso,2019-12-01,,,,,,all,cso,challenge_record,,extract,cso,challenge_record,,,,,,,,,尚未確定(大於10M),
all,1,cso,2019-12-01,,,,,,all,cso,char_levelup,,extract,cso,char_levelup,,,,,,,,,尚未確定(0M),
all,1,cso,2019-12-01,,,,,,all,cso,character00,,extract,cso,character00,,,,,,,,,尚未確定(小於500K),
all,1,cso,2019-12-01,,,,,,all,cso,character01,,extract,cso,character01,,,,,,,,,尚未確定(小於500K),
all,1,cso,2019-12-01,,,,,,all,cso,character02,,extract,cso,character02,,,,,,,,,尚未確定(小於500K),
all,1,cso,2019-12-01,,,,,,all,cso,character_mode_soccer,,extract,cso,character_mode_soccer,,,,,,,,,尚未確定(大於10M),
all,1,cso,2019-12-01,,,,,,all,cso,character_rival,,extract,cso,character_rival,,,,,,,,,尚未確定(0M),
all,1,cso,2019-12-01,,,,,,all,cso,character_sandbox_event,,extract,cso,character_sandbox_event,,,,,,,,,尚未確定(大於10M),
all,1,cso,2019-12-01,,,,,,all,cso,character_second_password,,extract,cso,character_second_password,,,,,,,,,尚未確定(大於10M),
all,1,cso,2019-12-01,,,,,,all,cso,clan_added,,extract,cso,clan_added,,,,,,,,,尚未確定(小於500K),
all,1,cso,2019-12-01,,,,,,all,cso,clan_applier,,extract,cso,clan_applier,,,,,,,,,尚未確定(大於1M),
all,1,cso,2019-12-01,,,,,,all,cso,clan_invite,,extract,cso,clan_invite,,,,,,,,,尚未確定(0M),
all,1,cso,2019-12-01,,,,,,all,cso,clan_rank,,extract,cso,clan_rank,,,,,,,,,尚未確定(大於1M),
all,1,cso,2019-12-01,,,,,,all,cso,clan_rank_prev,,extract,cso,clan_rank_prev,,,,,,,,,尚未確定(大於1M),
all,1,cso,2019-12-01,,,,,,all,cso,clan_refused_applier,,extract,cso,clan_refused_applier,,,,,,,,,尚未確定(大於1M),
all,1,cso,2019-12-01,,,,,,all,cso,clan_weekly_bonus,,extract,cso,clan_weekly_bonus,,,,,,,,,尚未確定(大於1M),
all,1,cso,2019-12-01,,,,,,all,cso,class_use,,extract,cso,class_use,,,,,,,,,尚未確定(0M),
all,1,cso,2019-12-01,,,,,,all,cso,codis_game,,extract,cso,codis_game,,,,,,,,,尚未確定(小於500K),
all,1,cso,2019-12-01,,,,,,all,cso,codis_user,,extract,cso,codis_user,,,,,,,,,尚未確定(大於10M),
all,1,cso,2019-12-01,,,,,,all,cso,dic_unit_preview_info,,extract,cso,dic_unit_preview_info,,,,,,,,,尚未確定(小於500K),
all,1,cso,2019-12-01,,,,,,all,cso,dic_unit_user_star_point,,extract,cso,dic_unit_user_star_point,,,,,,,,,尚未確定(大於10M),
all,1,cso,2019-12-01,,,,,,all,cso,dic_unit_video_info,,extract,cso,dic_unit_video_info,,,,,,,,,尚未確定(0M),
all,1,cso,2019-12-01,,,,,,all,cso,event_log_for_gm,,extract,cso,event_log_for_gm,,,,,,,,,尚未確定(0M),
all,1,cso,2019-12-01,,,,,,all,cso,expeditionsystem,,extract,cso,expeditionsystem,,,,,,,,,尚未確定(大於10M),
all,1,cso,2019-12-01,,,,,,all,cso,function_use,,extract,cso,function_use,,,,,,,,,尚未確定(0M),
all,1,cso,2019-12-01,,,,,,all,cso,give_reward,,extract,cso,give_reward,,,,,,,,,尚未確定(小於500K),
all,1,cso,2019-12-01,,,,,,all,cso,help_class_use_daily,,extract,cso,help_class_use_daily,,,,,,,,,尚未確定(小於500K),
all,1,cso,2019-12-01,,,,,,all,cso,help_modemap_daily,,extract,cso,help_modemap_daily,,,,,,,,,尚未確定(大於1M),
all,1,cso,2019-12-01,,,,,,all,cso,help_weapon_assist_daily,,extract,cso,help_weapon_assist_daily,,,,,,,,,尚未確定(大於1M),
all,1,cso,2019-12-01,,,,,,all,cso,help_weapon_kill_daily,,extract,cso,help_weapon_kill_daily,,,,,,,,,尚未確定(大於1M),
all,1,cso,2019-12-01,,,,,,all,cso,help_weapon_select_daily,,extract,cso,help_weapon_select_daily,,,,,,,,,尚未確定(大於10M),
all,1,cso,2019-12-01,,,,,,all,cso,help_zombie_use_daily,,extract,cso,help_zombie_use_daily,,,,,,,,,尚未確定(小於500K),
all,1,cso,2019-12-01,,,,,,all,cso,id,,extract,cso,id,,,,,,,,,尚未確定(0M),
all,1,cso,2019-12-01,,,,,,all,cso,intimacy_edge,,extract,cso,intimacy_edge,,,,,,,,,尚未確定(大於10M),
all,1,cso,2019-12-01,,,,,,all,cso,intimacy_node,,extract,cso,intimacy_node,,,,,,,,,尚未確定(大於10M),
all,1,cso,2019-12-01,,,,,,all,cso,item_buy,,extract,cso,item_buy,,,,,,,,,尚未確定(0M),
all,1,cso,2019-12-01,,,,,,all,cso,list,,extract,cso,list,,,,,,,,,尚未確定(小於500K),
all,1,cso,2019-12-01,,,,,,all,cso,list_item,,extract,cso,list_item,,,,,,,,,尚未確定(小於500K),
all,1,cso,2019-12-01,,,,,,all,cso,location1,,extract,cso,location1,,,,,,,,,尚未確定(小於500K),
all,1,cso,2019-12-01,,,,,,all,cso,location2,,extract,cso,location2,,,,,,,,,尚未確定(小於500K),
all,1,cso,2019-12-01,,,,,,all,cso,location3,,extract,cso,location3,,,,,,,,,尚未確定(小於500K),
all,1,cso,2019-12-01,,,,,,all,cso,mapmode_stat,,extract,cso,mapmode_stat,,,,,,,,,尚未確定(0M),
all,1,cso,2019-12-01,,,,,,all,cso,massgame_history,,extract,cso,massgame_history,,,,,,,,,尚未確定(小於500K),
all,1,cso,2019-12-01,,,,,,all,cso,match_option_count,,extract,cso,match_option_count,,,,,,,,,尚未確定(大於10M),
all,1,cso,2019-12-01,,,,,,all,cso,match_play_count,,extract,cso,match_play_count,,,,,,,,,尚未確定(大於10M),
all,1,cso,2019-12-01,,,,,,all,cso,match_team,,extract,cso,match_team,,,,,,,,,尚未確定(大於1M),
all,1,cso,2019-12-01,,,,,,all,cso,match_team_member,,extract,cso,match_team_member,,,,,,,,,尚未確定(大於1M),
all,1,cso,2019-12-01,,,,,,all,cso,minigame_whole_data,,extract,cso,minigame_whole_data,,,,,,,,,尚未確定(小於500K),
all,1,cso,2019-12-01,,,,,,all,cso,nickname_history,,extract,cso,nickname_history,,,,,,,,,尚未確定(大於10M),
all,1,cso,2019-12-01,,,,,,all,cso,play_time,,extract,cso,play_time,,,,,,,,,尚未確定(0M),
all,1,cso,2019-12-01,,,,,,all,cso,poker_history,,extract,cso,poker_history,,,,,,,,,尚未確定(小於500K),
all,1,cso,2019-12-01,,,,,,all,cso,punish,,extract,cso,punish,,,,,,,,,尚未確定(大於1M),
all,1,cso,2019-12-01,,,,,,all,cso,rank_scenario_top,,extract,cso,rank_scenario_top,,,,,,,,,尚未確定(小於500K),
all,1,cso,2019-12-01,,,,,,all,cso,rank_update_info,,extract,cso,rank_update_info,,,,,,,,,尚未確定(小於500K),
all,1,cso,2019-12-01,,,,,,all,cso,recommend_reward,,extract,cso,recommend_reward,,,,,,,,,尚未確定(大於10M),
all,1,cso,2019-12-01,,,,,,all,cso,report,,extract,cso,report,,,,,,,,,舉報資訊(大於10G),
all,1,cso,2019-12-01,,,,,,all,cso,reward_log,,extract,cso,reward_log,,,,,,,,,尚未確定(0M),
all,1,cso,2019-12-01,,,,,,all,cso,sandbox_bookmark,,extract,cso,sandbox_bookmark,,,,,,,,,尚未確定(大於10M),
all,1,cso,2019-12-01,,,,,,all,cso,sandbox_cheer_msg,,extract,cso,sandbox_cheer_msg,,,,,,,,,尚未確定(大於1M),
all,1,cso,2019-12-01,,,,,,all,cso,sandbox_cube_transaction,,extract,cso,sandbox_cube_transaction,,,,,,,,,尚未確定(大於10M),
all,1,cso,2019-12-01,,,,,,all,cso,sandbox_event_participants,,extract,cso,sandbox_event_participants,,,,,,,,,尚未確定(大於1M),
all,1,cso,2019-12-01,,,,,,all,cso,sandbox_events,,extract,cso,sandbox_events,,,,,,,,,尚未確定(小於500K),
all,1,cso,2019-12-01,,,,,,all,cso,sandbox_group,,extract,cso,sandbox_group,,,,,,,,,尚未確定(小於500K),
all,1,cso,2019-12-01,,,,,,all,cso,sandbox_group_creator_rank,,extract,cso,sandbox_group_creator_rank,,,,,,,,,尚未確定(大於1M),
all,1,cso,2019-12-01,,,,,,all,cso,sandbox_group_creator_value,,extract,cso,sandbox_group_creator_value,,,,,,,,,尚未確定(小於500K),
all,1,cso,2019-12-01,,,,,,all,cso,sandbox_group_player_value0,,extract,cso,sandbox_group_player_value0,,,,,,,,,尚未確定(大於10M),
all,1,cso,2019-12-01,,,,,,all,cso,sandbox_group_player_value1,,extract,cso,sandbox_group_player_value1,,,,,,,,,尚未確定(大於10M),
all,1,cso,2019-12-01,,,,,,all,cso,sandbox_group_player_value2,,extract,cso,sandbox_group_player_value2,,,,,,,,,尚未確定(大於10M),
all,1,cso,2019-12-01,,,,,,all,cso,sandbox_group_player_value3,,extract,cso,sandbox_group_player_value3,,,,,,,,,尚未確定(大於1M),
all,1,cso,2019-12-01,,,,,,all,cso,sandbox_image,,extract,cso,sandbox_image,,,,,,,,,尚未確定(大於1M),
all,1,cso,2019-12-01,,,,,,all,cso,sandbox_report,,extract,cso,sandbox_report,,,,,,,,,尚未確定(大於1M),
all,1,cso,2019-12-01,,,,,,all,cso,sandbox_slot_tag,,extract,cso,sandbox_slot_tag,,,,,,,,,尚未確定(大於1M),
all,1,cso,2019-12-01,,,,,,all,cso,scenario_record,,extract,cso,scenario_record,,,,,,,,,尚未確定(小於500K),
all,1,cso,2019-12-01,,,,,,all,cso,scenario_record_block,,extract,cso,scenario_record_block,,,,,,,,,尚未確定(0M),
all,1,cso,2019-12-01,,,,,,all,cso,scenario_record_prev,,extract,cso,scenario_record_prev,,,,,,,,,尚未確定(小於500K),
all,1,cso,2019-12-01,,,,,,all,cso,season_match,,extract,cso,season_match,,,,,,,,,尚未確定(大於10M),
all,1,cso,2019-12-01,,,,,,all,cso,sysdiagrams,,extract,cso,sysdiagrams,,,,,,,,,尚未確定(0M),
all,1,cso,2019-12-01,,,,,,all,cso,task017_event,,extract,cso,task017_event,,,,,,,,,尚未確定(0M),
all,1,cso,2019-12-01,,,,,,all,cso,tblgameuser_forgenoiduser,,extract,cso,tblgameuser_forgenoiduser,,,,,,,,,尚未確定(小於500K),
all,1,cso,2019-12-01,,,,,,all,cso,user_num,,extract,cso,user_num,,,,,,,,,尚未確定(0M),
all,1,cso,2019-12-01,,,,,,all,cso,user_survey_reference,,extract,cso,user_survey_reference,,,,,,,,,尚未確定(小於500K),
all,1,cso,2019-12-01,,,,,,all,cso,user_survey_result,,extract,cso,user_survey_result,,,,,,,,,尚未確定(小於500K),
all,1,cso,2019-12-01,,,,,,all,cso,weapon_usage,,extract,cso,weapon_usage,,,,,,,,,尚未確定(0M),
all,1,cso,2019-12-01,,,,,,all,cso,zipcode,,extract,cso,zipcode,,,,,,,,,尚未確定(0M),
grammar,1,cso,2019-12-01,,extract,init,onlinetime,account_id,all,cso,banlist,id,extract,cso,banlist,,,,,,,,,黑名單?(大於1G),
grammar,1,cso,2019-12-01,,extract,init,onlinetime,account_id,all,cso,character,id,extract,cso,character,,,,,,,,,帳號角色資訊(大於10G),
grammar,1,cso,2019-12-01,,extract,init,onlinetime,account_id,all,cso,character_auxrecord,id,extract,cso,character_auxrecord,,,,,,,,,尚未確定(大於10G),
grammar,1,cso,2019-12-01,,extract,init,onlinetime,account_id,all,cso,character_clean_system_info,id,extract,cso,character_clean_system_info,,,,,,,,,尚未確定(大於100M),
grammar,1,cso,2019-12-01,,extract,init,onlinetime,account_id,all,cso,character_play_records,userid,extract,cso,character_play_records,,,,,,,,,角色遊玩紀錄(大於1G),
grammar,1,cso,2019-12-01,,extract,init,onlinetime,account_id,all,cso,character_quest,character_id,extract,cso,character_quest,,,,,,,,,角色任務資訊(大於10G),
grammar,1,cso,2019-12-01,,extract,init,onlinetime,account_id,all,cso,character_quest_record,id,extract,cso,character_quest_record,,,,,,,,,角色任務紀錄統計(大於100M),
grammar,1,cso,2019-12-01,,extract,init,onlinetime,account_id,all,cso,character_questxml,userid,extract,cso,character_questxml,,,,,,,,,疑似無參考價值(大於1G),
grammar,1,cso,2019-12-01,,extract,init,onlinetime,account_id,all,cso,character_recommend_friends,userid,extract,cso,character_recommend_friends,,,,,,,,,角色推薦好友點數(大於100M),
grammar,1,cso,2019-12-01,,extract,init,onlinetime,account_id,all,cso,character_ribbon,character_id,extract,cso,character_ribbon,,,,,,,,,角色緞帶(大於10G),
grammar,1,cso,2019-12-01,,extract,init,onlinetime,account_id,all,cso,character_season_system,userid,extract,cso,character_season_system,,,,,,,,,角色賽季系統(大於100M),
grammar,1,cso,2019-12-01,,extract,init,onlinetime,account_id,all,cso,character_skill_rating,userid,extract,cso,character_skill_rating,,,,,,,,,角色技術評分(大於100M),
grammar,1,cso,2019-12-01,,extract,init,onlinetime,account_id,all,cso,character_unsavedinventory,id,extract,cso,character_unsavedinventory,,,,,,,,,尚未確定(大於100M),
grammar,1,cso,2019-12-01,,extract,init,onlinetime,account_id,all,cso,character_vip_system_info,user_id,extract,cso,character_vip_system_info,,,,,,,,,角色VIP系統資訊(大於100M),
grammar,1,cso,2019-12-01,,extract,init,onlinetime,account_id,all,cso,clan_achieve_record,character_id,extract,cso,clan_achieve_record,,,,,,,,,部隊成就紀錄(大於100M),
grammar,1,cso,2019-12-01,,extract,init,onlinetime,account_id,all,cso,clan_member,characterid,extract,cso,clan_member,,,,,,,,,部隊成員(大於100M),
grammar,1,cso,2019-12-01,,extract,init,onlinetime,account_id,all,cso,give_reward_recipient,character_id,extract,cso,give_reward_recipient,,,,,,,,,獎勵接收資訊(大於1G),
grammar,1,cso,2019-12-01,,extract,init,onlinetime,account_id,all,cso,user_item_own_status,id,extract,cso,user_item_own_status,,,,,,,,,尚未確定(大於10G),
grammar,2,cso,2019-12-01,,extract,cso,clan_member,clan_uid,all,cso,clan,uid,extract,cso,clan,,,,,,,,,部隊資訊(大於1G),
grammar,2,cso,2019-12-01,,extract,cso,clan_member,clan_uid,all,cso,clan_notice,clan_uid,extract,cso,clan_notice,,,,,,,,,尚未確定(大於100M),
log,1,cso,2019-12-01,,,,,,all,cso,help_class_use,,extract,cso,help_class_use,,loggedtime,loggedtime,0,1,,,,幫助使用紀錄?(大於100M),
log,1,cso,2019-12-01,,,,,,all,cso,help_modemap,,extract,cso,help_modemap,,loggedtime,loggedtime,0,1,,,,幫助模式地圖記錄?(大於100M),
log,1,cso,2019-12-01,,,,,,all,cso,help_weapon_assist,,extract,cso,help_weapon_assist,,loggedtime,loggedtime,0,1,,,,尚未確定(大於1G),
log,1,cso,2019-12-01,,,,,,all,cso,help_weapon_kill,,extract,cso,help_weapon_kill,,loggedtime,loggedtime,0,1,,,,尚未確定(大於1G),
log,1,cso,2019-12-01,,,,,,all,cso,help_weapon_select,,extract,cso,help_weapon_select,,loggedtime,loggedtime,0,1,,,,尚未確定(大於1G),
log,1,cso,2019-12-01,,,,,,all,cso,help_zombie_use,,extract,cso,help_zombie_use,,loggedtime,loggedtime,0,1,,,,尚未確定(大於100M),
log,1,cso,2019-12-01,,,,,,all,cso,sandbox_play_history,,extract,cso,sandbox_play_history,,created,created,0,1,,,,尚未確定(大於1G),
log,1,cso,2019-12-01,,,,,,all,cso,sandbox_resource,,extract,cso,sandbox_resource,,created,created,0,1,,,,尚未確定(大於100M),
log,1,cso,2019-12-01,,,,,,all,cso,sandbox_slot,,extract,cso,sandbox_slot,,created,created,0,1,,,,尚未確定(大於100M),
