type,layers,gamename,startdate,enddate,parenthivedb,parentdbname,parenttablename,parentcolumnname,orihivedb,oridbname,oritablename,oricolumnname,hivedb,dbname,tablename,columnname,logstartdate,logenddate,dtbeforeday,dtafterday,logfilename,log,sql,memo,memo2
all,1,cso,2019-12-01,,,,,,all,cso_log,log_bingo,,extract,cso_log,log_bingo,,,,,,,,,尚未確定(0M),
all,1,cso,2019-12-01,,,,,,all,cso_log,log_gm_command,,extract,cso_log,log_gm_command,,,,,,,,,尚未確定(0M),
all,1,cso,2019-12-01,,,,,,all,cso_log,log_match_option,,extract,cso_log,log_match_option,,,,,,,,,尚未確定(0M),
all,1,cso,2019-12-01,,,,,,all,cso_log,log_match_quality,,extract,cso_log,log_match_quality,,,,,,,,,尚未確定(0M),
all,1,cso,2019-12-01,,,,,,all,cso_log,log_roulette,,extract,cso_log,log_roulette,,,,,,,,,尚未確定(0M),
all,1,cso,2019-12-01,,,,,,all,cso_log,sysdiagrams,,extract,cso_log,sysdiagrams,,,,,,,,,尚未確定(0M),
all,1,cso,2019-12-01,,,,,,all,cso_log,working_log_bingo,,extract,cso_log,working_log_bingo,,,,,,,,,尚未確定(0M),
all,1,cso,2019-12-01,,,,,,all,cso_log,working_log_factor,,extract,cso_log,working_log_factor,,,,,,,,,尚未確定(大於10M),
all,1,cso,2019-12-01,,,,,,all,cso_log,working_log_gm_command,,extract,cso_log,working_log_gm_command,,,,,,,,,尚未確定(0M),
all,1,cso,2019-12-01,,,,,,all,cso_log,working_log_login,,extract,cso_log,working_log_login,,,,,,,,,尚未確定(0M),
all,1,cso,2019-12-01,,,,,,all,cso_log,working_log_match_option,,extract,cso_log,working_log_match_option,,,,,,,,,尚未確定(0M),
all,1,cso,2019-12-01,,,,,,all,cso_log,working_log_match_quality,,extract,cso_log,working_log_match_quality,,,,,,,,,尚未確定(0M),
all,1,cso,2019-12-01,,,,,,all,cso_log,working_log_roulette,,extract,cso_log,working_log_roulette,,,,,,,,,尚未確定(0M),
log,1,cso,2019-12-01,,,,,,all,cso_log,bd_log_login,,extract,cso_log,bd_log_login,,loggedtime,loggedtime,0,1,,,,尚未確定(大於10M),
log,1,cso,2019-12-01,,,,,,all,cso_log,bd_log_logout,,extract,cso_log,bd_log_logout,,loggedtime,loggedtime,0,1,,,,尚未確定(大於10M),
log,1,cso,2019-12-01,,,,,,all,cso_log,log_action,,extract,cso_log,log_action,,loggedtime,loggedtime,0,1,,,,尚未確定(大於100M),
log,1,cso,2019-12-01,,,,,,all,cso_log,log_auction,,extract,cso_log,log_auction,,loggedtime,loggedtime,0,1,,,,尚未確定(小於500K),
log,1,cso,2019-12-01,,,,,,all,cso_log,log_clan,,extract,cso_log,log_clan,,loggedtime,loggedtime,0,1,,,,尚未確定(大於1M),
log,1,cso,2019-12-01,,,,,,all,cso_log,log_clean,,extract,cso_log,log_clean,,loggedtime,loggedtime,0,1,,,,尚未確定(大於1M),
log,1,cso,2019-12-01,,,,,,all,cso_log,log_expeditionsystem,,extract,cso_log,log_expeditionsystem,,loggedtime,loggedtime,0,1,,,,尚未確定(大於100M),
log,1,cso,2019-12-01,,,,,,all,cso_log,log_expeditionsystem_reinforce,,extract,cso_log,log_expeditionsystem_reinforce,,loggedtime,loggedtime,0,1,,,,尚未確定(大於1M),
log,1,cso,2019-12-01,,,,,,all,cso_log,log_expeditionsystem_reinforce_materiallist,,extract,cso_log,log_expeditionsystem_reinforce_materiallist,,loggedtime,loggedtime,0,1,,,,尚未確定(大於10M),
log,1,cso,2019-12-01,,,,,,all,cso_log,log_factor,,extract,cso_log,log_factor,,updatetime,updatetime,0,1,,,,尚未確定(大於100M),
log,1,cso,2019-12-01,,,,,,all,cso_log,log_failed,,extract,cso_log,log_failed,,loggedtime,loggedtime,0,1,,,,尚未確定(大於1G),
log,1,cso,2019-12-01,,,,,,all,cso_log,log_item_renewal,,extract,cso_log,log_item_renewal,,loggedtime,loggedtime,0,1,,,,尚未確定(大於100M),
log,1,cso,2019-12-01,,,,,,all,cso_log,log_kick,,extract,cso_log,log_kick,,loggedtime,loggedtime,0,1,,,,尚未確定(大於1M),
log,1,cso,2019-12-01,,,,,,all,cso_log,log_killdeath,,extract,cso_log,log_killdeath,,loggedtime,loggedtime,0,1,,,,尚未確定(大於100M),
log,1,cso,2019-12-01,,,,,,all,cso_log,log_level,,extract,cso_log,log_level,,loggedtime,loggedtime,0,1,,,,尚未確定(小於500K),
log,1,cso,2019-12-01,,,,,,all,cso_log,log_login,,extract,cso_log,log_login,,loggedtime,loggedtime,0,1,,,,尚未確定(大於1M),
log,1,cso,2019-12-01,,,,,,all,cso_log,log_logout,,extract,cso_log,log_logout,,loggedtime,loggedtime,0,1,,,,尚未確定(大於10M),
log,1,cso,2019-12-01,,,,,,all,cso_log,log_lottery,,extract,cso_log,log_lottery,,loggedtime,loggedtime,0,1,,,,尚未確定(大於1M),
log,1,cso,2019-12-01,,,,,,all,cso_log,log_mileage,,extract,cso_log,log_mileage,,loggedtime,loggedtime,0,1,,,,尚未確定(大於1M),
log,1,cso,2019-12-01,,,,,,all,cso_log,log_reinforce,,extract,cso_log,log_reinforce,,loggedtime,loggedtime,0,1,,,,尚未確定(大於100M),
log,1,cso,2019-12-01,,,,,,all,cso_log,log_reinforce_materiallist,,extract,cso_log,log_reinforce_materiallist,,loggedtime,loggedtime,0,1,,,,尚未確定(大於100M),
log,1,cso,2019-12-01,,,,,,all,cso_log,log_round_result,,extract,cso_log,log_round_result,,loggedtime,loggedtime,0,1,,,,尚未確定(大於10M),
log,1,cso,2019-12-01,,,,,,all,cso_log,log_round_user_assistweapon_result_for_zombie,,extract,cso_log,log_round_user_assistweapon_result_for_zombie,,loggedtime,loggedtime,0,1,,,,尚未確定(大於10M),
log,1,cso,2019-12-01,,,,,,all,cso_log,log_round_user_play_for_zombie,,extract,cso_log,log_round_user_play_for_zombie,,loggedtime,loggedtime,0,1,,,,尚未確定(小於500K),
log,1,cso,2019-12-01,,,,,,all,cso_log,log_round_user_result_for_zombie,,extract,cso_log,log_round_user_result_for_zombie,,loggedtime,loggedtime,0,1,,,,尚未確定(大於10M),
log,1,cso,2019-12-01,,,,,,all,cso_log,log_round_user_result_prophunt,,extract,cso_log,log_round_user_result_prophunt,,loggedtime,loggedtime,0,1,,,,尚未確定(大於1M),
log,1,cso,2019-12-01,,,,,,all,cso_log,log_round_user_result_z5,,extract,cso_log,log_round_user_result_z5,,loggedtime,loggedtime,0,1,,,,尚未確定(大於100M),
log,1,cso,2019-12-01,,,,,,all,cso_log,log_round_user_weaponuseinfo_result_for_zombie,,extract,cso_log,log_round_user_weaponuseinfo_result_for_zombie,,loggedtime,loggedtime,0,1,,,,尚未確定(大於100M),
log,1,cso,2019-12-01,,,,,,all,cso_log,log_round_user_zombieuseinfo_result_for_zombie,,extract,cso_log,log_round_user_zombieuseinfo_result_for_zombie,,loggedtime,loggedtime,0,1,,,,尚未確定(大於10M),
log,1,cso,2019-12-01,,,,,,all,cso_log,log_round_weapon_use,,extract,cso_log,log_round_weapon_use,,loggedtime,loggedtime,0,1,,,,尚未確定(大於1G),
log,1,cso,2019-12-01,,,,,,all,cso_log,log_session_result,,extract,cso_log,log_session_result,,loggedtime,loggedtime,0,1,,,,尚未確定(大於10G),
log,1,cso,2019-12-01,,,,,,all,cso_log,log_session_user_frame,,extract,cso_log,log_session_user_frame,,loggedtime,loggedtime,0,1,,,,尚未確定(大於1M),
log,1,cso,2019-12-01,,,,,,all,cso_log,log_session_user_result,,extract,cso_log,log_session_user_result,,loggedtime,loggedtime,0,1,,,,遊玩模式(大於10G),
log,1,cso,2019-12-01,,,,,,all,cso_log,log_shop,,extract,cso_log,log_shop,,loggedtime,loggedtime,0,1,,,,尚未確定(大於10M),
log,1,cso,2019-12-01,,,,,,all,cso_log,log_vip,,extract,cso_log,log_vip,,loggedtime,loggedtime,0,1,,,,尚未確定(小於500K),
log,1,cso,2019-12-01,,,,,,all,cso_log,log_zombie_z_user_level_up,,extract,cso_log,log_zombie_z_user_level_up,,loggedtime,loggedtime,0,1,,,,尚未確定(大於10M),
log,1,cso,2019-12-01,,,,,,all,cso_log,log_zombie_z_user_mutation,,extract,cso_log,log_zombie_z_user_mutation,,loggedtime,loggedtime,0,1,,,,尚未確定(大於10M),
log,1,cso,2019-12-01,,,,,,all,cso_log,log_zombie_z_user_round_result,,extract,cso_log,log_zombie_z_user_round_result,,loggedtime,loggedtime,0,1,,,,尚未確定(大於10M),
log,1,cso,2019-12-01,,,,,,all,cso_log,log_zombie_z_user_weapon,,extract,cso_log,log_zombie_z_user_weapon,,loggedtime,loggedtime,0,1,,,,尚未確定(大於10M),
log,1,cso,2019-12-01,,,,,,all,cso_log,working_log_action,,extract,cso_log,working_log_action,,loggedtime,loggedtime,0,1,,,,尚未確定(大於10M),
log,1,cso,2019-12-01,,,,,,all,cso_log,working_log_auction,,extract,cso_log,working_log_auction,,loggedtime,loggedtime,0,1,,,,尚未確定(小於500K),
log,1,cso,2019-12-01,,,,,,all,cso_log,working_log_clan,,extract,cso_log,working_log_clan,,loggedtime,loggedtime,0,1,,,,尚未確定(小於500K),
log,1,cso,2019-12-01,,,,,,all,cso_log,working_log_clean,,extract,cso_log,working_log_clean,,loggedtime,loggedtime,0,1,,,,尚未確定(大於1M),
log,1,cso,2019-12-01,,,,,,all,cso_log,working_log_expeditionsystem,,extract,cso_log,working_log_expeditionsystem,,loggedtime,loggedtime,0,1,,,,尚未確定(大於100M),
log,1,cso,2019-12-01,,,,,,all,cso_log,working_log_expeditionsystem_reinforce,,extract,cso_log,working_log_expeditionsystem_reinforce,,loggedtime,loggedtime,0,1,,,,尚未確定(大於1M),
log,1,cso,2019-12-01,,,,,,all,cso_log,working_log_expeditionsystem_reinforce_materiallist,,extract,cso_log,working_log_expeditionsystem_reinforce_materiallist,,loggedtime,loggedtime,0,1,,,,尚未確定(大於10M),
log,1,cso,2019-12-01,,,,,,all,cso_log,working_log_failed,,extract,cso_log,working_log_failed,,loggedtime,loggedtime,0,1,,,,尚未確定(大於1G),
log,1,cso,2019-12-01,,,,,,all,cso_log,working_log_item_renewal,,extract,cso_log,working_log_item_renewal,,loggedtime,loggedtime,0,1,,,,尚未確定(大於10M),
log,1,cso,2019-12-01,,,,,,all,cso_log,working_log_kick,,extract,cso_log,working_log_kick,,loggedtime,loggedtime,0,1,,,,尚未確定(小於500K),
log,1,cso,2019-12-01,,,,,,all,cso_log,working_log_killdeath,,extract,cso_log,working_log_killdeath,,loggedtime,loggedtime,0,1,,,,尚未確定(大於10M),
log,1,cso,2019-12-01,,,,,,all,cso_log,working_log_level,,extract,cso_log,working_log_level,,loggedtime,loggedtime,0,1,,,,尚未確定(小於500K),
log,1,cso,2019-12-01,,,,,,all,cso_log,working_log_logout,,extract,cso_log,working_log_logout,,loggedtime,loggedtime,0,1,,,,尚未確定(大於1M),
log,1,cso,2019-12-01,,,,,,all,cso_log,working_log_lottery,,extract,cso_log,working_log_lottery,,loggedtime,loggedtime,0,1,,,,尚未確定(小於500K),
log,1,cso,2019-12-01,,,,,,all,cso_log,working_log_mileage,,extract,cso_log,working_log_mileage,,loggedtime,loggedtime,0,1,,,,尚未確定(大於1M),
log,1,cso,2019-12-01,,,,,,all,cso_log,working_log_reinforce,,extract,cso_log,working_log_reinforce,,loggedtime,loggedtime,0,1,,,,尚未確定(大於100M),
log,1,cso,2019-12-01,,,,,,all,cso_log,working_log_reinforce_materiallist,,extract,cso_log,working_log_reinforce_materiallist,,loggedtime,loggedtime,0,1,,,,尚未確定(大於10M),
log,1,cso,2019-12-01,,,,,,all,cso_log,working_log_round_result,,extract,cso_log,working_log_round_result,,loggedtime,loggedtime,0,1,,,,尚未確定(大於1M),
log,1,cso,2019-12-01,,,,,,all,cso_log,working_log_round_user_assistweapon_result_for_zombie,,extract,cso_log,working_log_round_user_assistweapon_result_for_zombie,,loggedtime,loggedtime,0,1,,,,尚未確定(大於1M),
log,1,cso,2019-12-01,,,,,,all,cso_log,working_log_round_user_play_for_zombie,,extract,cso_log,working_log_round_user_play_for_zombie,,loggedtime,loggedtime,0,1,,,,尚未確定(小於500K),
log,1,cso,2019-12-01,,,,,,all,cso_log,working_log_round_user_result_for_zombie,,extract,cso_log,working_log_round_user_result_for_zombie,,loggedtime,loggedtime,0,1,,,,尚未確定(大於10M),
log,1,cso,2019-12-01,,,,,,all,cso_log,working_log_round_user_result_prophunt,,extract,cso_log,working_log_round_user_result_prophunt,,loggedtime,loggedtime,0,1,,,,尚未確定(大於1M),
log,1,cso,2019-12-01,,,,,,all,cso_log,working_log_round_user_result_z5,,extract,cso_log,working_log_round_user_result_z5,,loggedtime,loggedtime,0,1,,,,尚未確定(大於100M),
log,1,cso,2019-12-01,,,,,,all,cso_log,working_log_round_user_weaponuseinfo_result_for_zombie,,extract,cso_log,working_log_round_user_weaponuseinfo_result_for_zombie,,loggedtime,loggedtime,0,1,,,,尚未確定(大於10M),
log,1,cso,2019-12-01,,,,,,all,cso_log,working_log_round_user_zombieuseinfo_result_for_zombie,,extract,cso_log,working_log_round_user_zombieuseinfo_result_for_zombie,,loggedtime,loggedtime,0,1,,,,尚未確定(大於1M),
log,1,cso,2019-12-01,,,,,,all,cso_log,working_log_round_weapon_use,,extract,cso_log,working_log_round_weapon_use,,loggedtime,loggedtime,0,1,,,,尚未確定(大於1G),
log,1,cso,2019-12-01,,,,,,all,cso_log,working_log_session_result,,extract,cso_log,working_log_session_result,,loggedtime,loggedtime,0,1,,,,尚未確定(大於1G),
log,1,cso,2019-12-01,,,,,,all,cso_log,working_log_session_user_frame,,extract,cso_log,working_log_session_user_frame,,loggedtime,loggedtime,0,1,,,,尚未確定(小於500K),
log,1,cso,2019-12-01,,,,,,all,cso_log,working_log_session_user_result,,extract,cso_log,working_log_session_user_result,,loggedtime,loggedtime,0,1,,,,尚未確定(大於10G),
log,1,cso,2019-12-01,,,,,,all,cso_log,working_log_shop,,extract,cso_log,working_log_shop,,loggedtime,loggedtime,0,1,,,,尚未確定(大於1M),
log,1,cso,2019-12-01,,,,,,all,cso_log,working_log_vip,,extract,cso_log,working_log_vip,,loggedtime,loggedtime,0,1,,,,尚未確定(小於500K),
log,1,cso,2019-12-01,,,,,,all,cso_log,working_log_zombie_z_user_level_up,,extract,cso_log,working_log_zombie_z_user_level_up,,loggedtime,loggedtime,0,1,,,,尚未確定(大於1M),
log,1,cso,2019-12-01,,,,,,all,cso_log,working_log_zombie_z_user_mutation,,extract,cso_log,working_log_zombie_z_user_mutation,,loggedtime,loggedtime,0,1,,,,尚未確定(大於1M),
log,1,cso,2019-12-01,,,,,,all,cso_log,working_log_zombie_z_user_round_result,,extract,cso_log,working_log_zombie_z_user_round_result,,loggedtime,loggedtime,0,1,,,,尚未確定(大於1M),
log,1,cso,2019-12-01,,,,,,all,cso_log,working_log_zombie_z_user_weapon,,extract,cso_log,working_log_zombie_z_user_weapon,,loggedtime,loggedtime,0,1,,,,尚未確定(大於1M),
