type,layers,gamename,startdate,enddate,parenthivedb,parentdbname,parenttablename,parentcolumnname,orihivedb,oridbname,oritablename,oricolumnname,hivedb,dbname,tablename,columnname,logstartdate,logenddate,dtbeforeday,dtafterday,logfilename,log,sql,memo,memo2
all,1,els,2019-12-01,,,,,,all,account,blockbuffer,,extract,account,blockbuffer,,,,,,,,,尚未確定(0M),
all,1,els,2019-12-01,,,,,,all,account,cbt3rddailyuserstats,,extract,account,cbt3rddailyuserstats,,,,,,,,,尚未確定(0M),
all,1,els,2019-12-01,,,,,,all,account,elsword_bubble_event,,extract,account,elsword_bubble_event,,,,,,,,,尚未確定(0M),
all,1,els,2019-12-01,,,,,,all,account,escountrycode,,extract,account,escountrycode,,,,,,,,,尚未確定(小於500K),
all,1,els,2019-12-01,,,,,,all,account,everydaygift,,extract,account,everydaygift,,,,,,,,,尚未確定(0M),
all,1,els,2019-12-01,,,,,,all,account,fieldblock_countcheck,,extract,account,fieldblock_countcheck,,,,,,,,,尚未確定(0M),
all,1,els,2019-12-01,,,,,,all,account,fieldservey,,extract,account,fieldservey,,,,,,,,,尚未確定(0M),
all,1,els,2019-12-01,,,,,,all,account,gmqueryhistory,,extract,account,gmqueryhistory,,,,,,,,,尚未確定(0M),
all,1,els,2019-12-01,,,,,,all,account,hackingmodulelist,,extract,account,hackingmodulelist,,,,,,,,,尚未確定(0M),
all,1,els,2019-12-01,,,,,,all,account,hackinguser,,extract,account,hackinguser,,,,,,,,,尚未確定(0M),
all,1,els,2019-12-01,,,,,,all,account,maccountblocklist,,extract,account,maccountblocklist,,,,,,,,,尚未確定(0M),
all,1,els,2019-12-01,,,,,,all,account,mdeveloperip,,extract,account,mdeveloperip,,,,,,,,,尚未確定(0M),
all,1,els,2019-12-01,,,,,,all,account,messengersn_gaia,,extract,account,messengersn_gaia,,,,,,,,,尚未確定(0M),
all,1,els,2019-12-01,,,,,,all,account,mevent_account_usertype,,extract,account,mevent_account_usertype,,,,,,,,,尚未確定(0M),
all,1,els,2019-12-01,,,,,,all,account,mevent_bingo_success_cashlog,,extract,account,mevent_bingo_success_cashlog,,,,,,,,,尚未確定(0M),
all,1,els,2019-12-01,,,,,,all,account,mevent_bingo_user_totalprice,,extract,account,mevent_bingo_user_totalprice,,,,,,,,,尚未確定(0M),
all,1,els,2019-12-01,,,,,,all,account,mevent_exchangequantity,,extract,account,mevent_exchangequantity,,,,,,,,,尚未確定(0M),
all,1,els,2019-12-01,,,,,,all,account,mevent_wintervacation,,extract,account,mevent_wintervacation,,,,,,,,,尚未確定(0M),
all,1,els,2019-12-01,,,,,,all,account,meventgift,,extract,account,meventgift,,,,,,,,,尚未確定(0M),
all,1,els,2019-12-01,,,,,,all,account,meventpoint,,extract,account,meventpoint,,,,,,,,,尚未確定(0M),
all,1,els,2019-12-01,,,,,,all,account,meventpointlog,,extract,account,meventpointlog,,,,,,,,,尚未確定(0M),
all,1,els,2019-12-01,,,,,,all,account,mfriendsystem_userinfo,,extract,account,mfriendsystem_userinfo,,,,,,,,,尚未確定(0M),
all,1,els,2019-12-01,,,,,,all,account,minternalid,,extract,account,minternalid,,,,,,,,,尚未確定(0M),
all,1,els,2019-12-01,,,,,,all,account,mquests,,extract,account,mquests,,,,,,,,,尚未確定(0M),
all,1,els,2019-12-01,,,,,,all,account,mquests_complete,,extract,account,mquests_complete,,,,,,,,,尚未確定(0M),
all,1,els,2019-12-01,,,,,,all,account,mquests_repeat,,extract,account,mquests_repeat,,,,,,,,,尚未確定(0M),
all,1,els,2019-12-01,,,,,,all,account,mrecommend,,extract,account,mrecommend,,,,,,,,,尚未確定(0M),
all,1,els,2019-12-01,,,,,,all,account,muserauthentication,,extract,account,muserauthentication,,,,,,,,,尚未確定(0M),
all,1,els,2019-12-01,,,,,,all,account,muserduplicatelogin,,extract,account,muserduplicatelogin,,,,,,,,,尚未確定(0M),
all,1,els,2019-12-01,,,,,,all,account,muserduplicatelogin_log,,extract,account,muserduplicatelogin_log,,,,,,,,,尚未確定(0M),
all,1,els,2019-12-01,,,,,,all,account,muserhackdoubt,,extract,account,muserhackdoubt,,,,,,,,,尚未確定(0M),
all,1,els,2019-12-01,,,,,,all,account,museridentitysn,,extract,account,museridentitysn,,,,,,,,,尚未確定(0M),
all,1,els,2019-12-01,,,,,,all,account,muserlastip,,extract,account,muserlastip,,,,,,,,,尚未確定(0M),
all,1,els,2019-12-01,,,,,,all,account,museroption,,extract,account,museroption,,,,,,,,,尚未確定(0M),
all,1,els,2019-12-01,,,,,,all,account,muserreportdungeon,,extract,account,muserreportdungeon,,,,,,,,,尚未確定(0M),
all,1,els,2019-12-01,,,,,,all,account,muserskilloption,,extract,account,muserskilloption,,,,,,,,,尚未確定(0M),
all,1,els,2019-12-01,,,,,,all,account,musertype_giant,,extract,account,musertype_giant,,,,,,,,,尚未確定(0M),
all,1,els,2019-12-01,,,,,,all,account,rejecteduser_log,,extract,account,rejecteduser_log,,,,,,,,,尚未確定(0M),
all,1,els,2019-12-01,,,,,,all,account,releasetick,,extract,account,releasetick,,,,,,,,,尚未確定(小於500K),
all,1,els,2019-12-01,,,,,,all,account,retaininguser,,extract,account,retaininguser,,,,,,,,,尚未確定(0M),
all,1,els,2019-12-01,,,,,,all,account,servertuser,,extract,account,servertuser,,,,,,,,,尚未確定(0M),
all,1,els,2019-12-01,,,,,,all,account,snmonitoring,,extract,account,snmonitoring,,,,,,,,,尚未確定(0M),
all,1,els,2019-12-01,,,,,,all,account,sprename,,extract,account,sprename,,,,,,,,,尚未確定(0M),
all,1,els,2019-12-01,,,,,,all,account,statccuminute,,extract,account,statccuminute,,,,,,,,,尚未確定(0M),
all,1,els,2019-12-01,,,,,,all,account,statccuminuteguestuser,,extract,account,statccuminuteguestuser,,,,,,,,,尚未確定(0M),
all,1,els,2019-12-01,,,,,,all,account,statsconnectuniq_except_day,,extract,account,statsconnectuniq_except_day,,,,,,,,,尚未確定(0M),
all,1,els,2019-12-01,,,,,,all,account,statsmoneysupply,,extract,account,statsmoneysupply,,,,,,,,,尚未確定(0M),
all,1,els,2019-12-01,,,,,,all,account,statsreconnect,,extract,account,statsreconnect,,,,,,,,,尚未確定(0M),
all,1,els,2019-12-01,,,,,,all,account,statsreconnectnew,,extract,account,statsreconnectnew,,,,,,,,,尚未確定(0M),
all,1,els,2019-12-01,,,,,,all,account,statsreconnectuniq_except_day,,extract,account,statsreconnectuniq_except_day,,,,,,,,,尚未確定(0M),
all,1,els,2019-12-01,,,,,,all,account,statsuniq,,extract,account,statsuniq,,,,,,,,,尚未確定(0M),
all,1,els,2019-12-01,,,,,,all,account,temp_add,,extract,account,temp_add,,,,,,,,,尚未確定(0M),
all,1,els,2019-12-01,,,,,,all,account,temp_gaia_only_new,,extract,account,temp_gaia_only_new,,,,,,,,,尚未確定(0M),
all,1,els,2019-12-01,,,,,,all,account,testtable,,extract,account,testtable,,,,,,,,,尚未確定(0M),
all,1,els,2019-12-01,,,,,,all,account,totalquerystats,,extract,account,totalquerystats,,,,,,,,,尚未確定(0M),
all,1,els,2019-12-01,,,,,,all,account,totalquerystatsnew,,extract,account,totalquerystatsnew,,,,,,,,,尚未確定(0M),
all,1,els,2019-12-01,,,,,,all,account,tradeblock,,extract,account,tradeblock,,,,,,,,,尚未確定(0M),
all,1,els,2019-12-01,,,,,,all,account,tradeblock_log,,extract,account,tradeblock_log,,,,,,,,,尚未確定(0M),
all,1,els,2019-12-01,,,,,,all,account,tuserinserted,,extract,account,tuserinserted,,,,,,,,,尚未確定(0M),
grammar,1,els,2019-12-01,,extract,init,onliontimebyaccount,useruid,all,account,machievement,useruid,extract,account,machievement,,,,,,,,,尚未確定(大於1G),
grammar,1,els,2019-12-01,,extract,init,onliontimebyaccount,useruid,all,account,machievementpoint,useruid,extract,account,machievementpoint,,,,,,,,,尚未確定(大於10M),
grammar,1,els,2019-12-01,,extract,init,onliontimebyaccount,useruid,all,account,machievementshowroom,useruid,extract,account,machievementshowroom,,,,,,,,,尚未確定(大於10M),
grammar,1,els,2019-12-01,,extract,init,onliontimebyaccount,useruid,all,account,mchatoption,useruid,extract,account,mchatoption,,,,,,,,,尚未確定(大於10M),
grammar,1,els,2019-12-01,,extract,init,onliontimebyaccount,useruid,all,account,messengersn,useruid,extract,account,messengersn,,,,,,,,,尚未確定(大於100M),
grammar,1,els,2019-12-01,,extract,init,onliontimebyaccount,useruid,all,account,mevent_bingo,useruid,extract,account,mevent_bingo,,,,,,,,,尚未確定(大於100M),
grammar,1,els,2019-12-01,,extract,init,onliontimebyaccount,useruid,all,account,mevent_bingo_orderno,useruid,extract,account,mevent_bingo_orderno,,,,,,,,,尚未確定(大於10M),
grammar,1,els,2019-12-01,,extract,init,onliontimebyaccount,useruid,all,account,mevent_bingo_present,useruid,extract,account,mevent_bingo_present,,,,,,,,,尚未確定(大於100M),
grammar,1,els,2019-12-01,,extract,init,onliontimebyaccount,useruid,all,account,mevent_bingo_snapshot,useruid,extract,account,mevent_bingo_snapshot,,,,,,,,,尚未確定(小於500K),
grammar,1,els,2019-12-01,,extract,init,onliontimebyaccount,useruid,all,account,mevent_bingo_userinfo,useruid,extract,account,mevent_bingo_userinfo,,,,,,,,,尚未確定(大於1M),
grammar,1,els,2019-12-01,,extract,init,onliontimebyaccount,useruid,all,account,mevent_userreward,useruid,extract,account,mevent_userreward,,,,,,,,,尚未確定(小於500K),
grammar,1,els,2019-12-01,,extract,init,onliontimebyaccount,useruid,all,account,mfavoriteunitlist,useruid,extract,account,mfavoriteunitlist,,,,,,,,,尚未確定(大於1M),
grammar,1,els,2019-12-01,,extract,init,onliontimebyaccount,useruid,all,account,mhackingusercheckcount,useruid,extract,account,mhackingusercheckcount,,,,,,,,,尚未確定(大於1M),
grammar,1,els,2019-12-01,,extract,init,onliontimebyaccount,useruid,all,account,mlifespirit,useruid,extract,account,mlifespirit,,,,,,,,,尚未確定(大於10M),
grammar,1,els,2019-12-01,,extract,init,onliontimebyaccount,useruid,all,account,mnpcattractionpoint,useruid,extract,account,mnpcattractionpoint,,,,,,,,,尚未確定(大於10M),
grammar,1,els,2019-12-01,,extract,init,onliontimebyaccount,useruid,all,account,mnpcattractionpointgroupreward,useruid,extract,account,mnpcattractionpointgroupreward,,,,,,,,,尚未確定(大於1M),
grammar,1,els,2019-12-01,,extract,init,onliontimebyaccount,useruid,all,account,mquest,useruid,extract,account,mquest,,,,,,,,,尚未確定(大於100M),
grammar,1,els,2019-12-01,,extract,init,onliontimebyaccount,useruid,all,account,mquestfavorites,useruid,extract,account,mquestfavorites,,,,,,,,,尚未確定(大於1M),
grammar,1,els,2019-12-01,,extract,init,onliontimebyaccount,useruid,all,account,muser,useruid,extract,account,muser,,,,,,,,,尚未確定(大於1G),
grammar,1,els,2019-12-01,,extract,init,onliontimebyaccount,useruid,all,account,muserauthority,useruid,extract,account,muserauthority,,,,,,,,,尚未確定(小於500K),
grammar,1,els,2019-12-01,,extract,init,onliontimebyaccount,useruid,all,account,musercomeback,useruid,extract,account,musercomeback,,,,,,,,,尚未確定(大於10M),
grammar,1,els,2019-12-01,,extract,init,onliontimebyaccount,useruid,all,account,muserelresonance,useruid,extract,account,muserelresonance,,,,,,,,,尚未確定(大於10M),
grammar,1,els,2019-12-01,,extract,init,onliontimebyaccount,useruid,all,account,muserhackerlist,useruid,extract,account,muserhackerlist,,,,,,,,,尚未確定(大於10M),
grammar,1,els,2019-12-01,,extract,init,onliontimebyaccount,useruid,all,account,muserkeyboard,useruid,extract,account,muserkeyboard,,,,,,,,,尚未確定(大於1G),
grammar,1,els,2019-12-01,,extract,init,onliontimebyaccount,useruid,all,account,muserotp,useruid,extract,account,muserotp,,,,,,,,,尚未確定(大於100M),
grammar,1,els,2019-12-01,,extract,init,onliontimebyaccount,useruid,all,account,muserpremium,useruid,extract,account,muserpremium,,,,,,,,,尚未確定(大於1M),
grammar,1,els,2019-12-01,,extract,init,onliontimebyaccount,useruid,all,account,musersecondpw,useruid,extract,account,musersecondpw,,,,,,,,,尚未確定(大於100M),
grammar,1,els,2019-12-01,,extract,init,onliontimebyaccount,useruid,all,account,museruid_count,useruid,extract,account,museruid_count,,,,,,,,,尚未確定(大於1M),
grammar,1,els,2019-12-01,,extract,init,onliontimebyaccount,useruid,all,account,rejecteduser,useruid,extract,account,rejecteduser,,,,,,,,,尚未確定(小於500K),
grammar,1,els,2019-12-01,,extract,init,onliontimebyaccount,useruid,all,account,userauthlevel,useruid,extract,account,userauthlevel,,,,,,,,,尚未確定(小於500K),
grammar,1,els,2019-12-01,,extract,init,onliontimebyaccount,useruid,all,account,userauthlevelhistory,useruid,extract,account,userauthlevelhistory,,,,,,,,,尚未確定(小於500K),
log,1,els,2019-12-01,,,,,,all,account,mevent_bingo_getchancelog,,extract,account,mevent_bingo_getchancelog,,regdate,regdate,0,1,,,,尚未確定(大於10M),
log,1,els,2019-12-01,,,,,,all,account,mevent_bingo_log,,extract,account,mevent_bingo_log,,regdate,regdate,0,1,,,,尚未確定(大於10M),
log,1,els,2019-12-01,,,,,,all,account,mevent_userreward_log,,extract,account,mevent_userreward_log,,recvdate,recvdate,0,1,,,,尚未確定(大於1M),
log,1,els,2019-12-01,,,,,,all,account,mnpcattractionpoint_log,,extract,account,mnpcattractionpoint_log,,regdate,regdate,0,1,,,,尚未確定(大於100M),
log,1,els,2019-12-01,,,,,,all,account,mpenalty,,extract,account,mpenalty,,regdate,regdate,0,1,,,,尚未確定(大於10M),
log,1,els,2019-12-01,,,,,,all,account,mpenalty_log,,extract,account,mpenalty_log,,regdate,regdate,0,1,,,,尚未確定(大於1M),
log,1,els,2019-12-01,,,,,,all,account,mquest_log,,extract,account,mquest_log,,regdate,regdate,0,1,,,,尚未確定(大於100M),
log,1,els,2019-12-01,,,,,,all,account,mquest_log_repeat,,extract,account,mquest_log_repeat,,regdate,regdate,0,1,,,,尚未確定(大於1G),
log,1,els,2019-12-01,,,,,,all,account,musercomeback_logout,,extract,account,musercomeback_logout,,logouttime,logouttime,0,1,,,,尚未確定(大於10M),
log,1,els,2019-12-01,,,,,,all,account,querystats,,extract,account,querystats,,regdate,regdate,0,1,,,,尚未確定(大於1G),
log,1,els,2019-12-01,,,,,,all,account,secondpwchangelog,,extract,account,secondpwchangelog,,regdate,regdate,0,1,,,,尚未確定(大於1M),
log,1,els,2019-12-01,,,,,,all,account,serverqueryerrorlog,,extract,account,serverqueryerrorlog,,regdate,regdate,0,1,,,,尚未確定(大於10M),
log,1,els,2019-12-01,,,,,,all,account,sys_sp_errorlog,,extract,account,sys_sp_errorlog,,dt_error_date,dt_error_date,0,1,,,,尚未確定(大於100M),
