type,layers,gamename,startdate,enddate,parenthivedb,parentdbname,parenttablename,parentcolumnname,orihivedb,oridbname,oritablename,oricolumnname,hivedb,dbname,tablename,columnname,logstartdate,logenddate,dtbeforeday,dtafterday,logfilename,log,sql,memo,memo2
all,1,els,2019-12-01,,,,,,all,game01,datadigrationtime,,extract,game01,datadigrationtime,,,,,,,,,尚未確定(0M),
all,1,els,2019-12-01,,,,,,all,game01,escountrycode,,extract,game01,escountrycode,,,,,,,,,尚未確定(0M),
all,1,els,2019-12-01,,,,,,all,game01,gadvertisementevent,,extract,game01,gadvertisementevent,,,,,,,,,尚未確定(0M),
all,1,els,2019-12-01,,,,,,all,game01,gbase_item,,extract,game01,gbase_item,,,,,,,,,尚未確定(0M),
all,1,els,2019-12-01,,,,,,all,game01,gblacklist,,extract,game01,gblacklist,,,,,,,,,尚未確定(大於1M),
all,1,els,2019-12-01,,,,,,all,game01,gcashchain,,extract,game01,gcashchain,,,,,,,,,尚未確定(0M),
all,1,els,2019-12-01,,,,,,all,game01,gcbteventdata_item,,extract,game01,gcbteventdata_item,,,,,,,,,尚未確定(0M),
all,1,els,2019-12-01,,,,,,all,game01,gcbteventdata_nickname,,extract,game01,gcbteventdata_nickname,,,,,,,,,尚未確定(0M),
all,1,els,2019-12-01,,,,,,all,game01,gcomeback,,extract,game01,gcomeback,,,,,,,,,尚未確定(0M),
all,1,els,2019-12-01,,,,,,all,game01,gcoreskillslotsize,,extract,game01,gcoreskillslotsize,,,,,,,,,尚未確定(0M),
all,1,els,2019-12-01,,,,,,all,game01,gcouple_weddinginfo,,extract,game01,gcouple_weddinginfo,,,,,,,,,尚未確定(大於1M),
all,1,els,2019-12-01,,,,,,all,game01,gcouple_weddinginvitation,,extract,game01,gcouple_weddinginvitation,,,,,,,,,尚未確定(大於1M),
all,1,els,2019-12-01,,,,,,all,game01,gcouple_weddinginvitationinfo,,extract,game01,gcouple_weddinginvitationinfo,,,,,,,,,尚未確定(大於1M),
all,1,els,2019-12-01,,,,,,all,game01,gcreateunitcnt,,extract,game01,gcreateunitcnt,,,,,,,,,尚未確定(0M),
all,1,els,2019-12-01,,,,,,all,game01,gdarkgate_lastdate,,extract,game01,gdarkgate_lastdate,,,,,,,,,尚未確定(0M),
all,1,els,2019-12-01,,,,,,all,game01,gdeletednickname,,extract,game01,gdeletednickname,,,,,,,,,尚未確定(0M),
all,1,els,2019-12-01,,,,,,all,game01,gdenycode,,extract,game01,gdenycode,,,,,,,,,尚未確定(0M),
all,1,els,2019-12-01,,,,,,all,game01,gdungeoncode,,extract,game01,gdungeoncode,,,,,,,,,副本相關(0M),
all,1,els,2019-12-01,,,,,,all,game01,gdungeoninfo,,extract,game01,gdungeoninfo,,,,,,,,,副本相關(0M),
all,1,els,2019-12-01,,,,,,all,game01,gelresonanceskillexpand,,extract,game01,gelresonanceskillexpand,,,,,,,,,尚未確定(0M),
all,1,els,2019-12-01,,,,,,all,game01,gequipitemexpand,,extract,game01,gequipitemexpand,,,,,,,,,尚未確定(0M),
all,1,els,2019-12-01,,,,,,all,game01,get_el_info,,extract,game01,get_el_info,,,,,,,,,尚未確定(0M),
all,1,els,2019-12-01,,,,,,all,game01,get_super_el_info,,extract,game01,get_super_el_info,,,,,,,,,尚未確定(0M),
all,1,els,2019-12-01,,,,,,all,game01,gevent3vs3pvpdata,,extract,game01,gevent3vs3pvpdata,,,,,,,,,尚未確定(0M),
all,1,els,2019-12-01,,,,,,all,game01,gevent_angelcoin,,extract,game01,gevent_angelcoin,,,,,,,,,尚未確定(0M),
all,1,els,2019-12-01,,,,,,all,game01,gevent_bloodbrother_110811,,extract,game01,gevent_bloodbrother_110811,,,,,,,,,尚未確定(0M),
all,1,els,2019-12-01,,,,,,all,game01,gevent_charmitem,,extract,game01,gevent_charmitem,,,,,,,,,尚未確定(0M),
all,1,els,2019-12-01,,,,,,all,game01,gevent_chung_0428,,extract,game01,gevent_chung_0428,,,,,,,,,尚未確定(0M),
all,1,els,2019-12-01,,,,,,all,game01,gevent_couple,,extract,game01,gevent_couple,,,,,,,,,尚未確定(0M),
all,1,els,2019-12-01,,,,,,all,game01,gevent_dungeon_point,,extract,game01,gevent_dungeon_point,,,,,,,,,尚未確定(0M),
all,1,els,2019-12-01,,,,,,all,game01,gevent_letter,,extract,game01,gevent_letter,,,,,,,,,尚未確定(0M),
all,1,els,2019-12-01,,,,,,all,game01,gevent_new,,extract,game01,gevent_new,,,,,,,,,尚未確定(0M),
all,1,els,2019-12-01,,,,,,all,game01,gevent_skilldrink,,extract,game01,gevent_skilldrink,,,,,,,,,尚未確定(0M),
all,1,els,2019-12-01,,,,,,all,game01,gevent_stone110,,extract,game01,gevent_stone110,,,,,,,,,尚未確定(0M),
all,1,els,2019-12-01,,,,,,all,game01,gevent_timespace_point,,extract,game01,gevent_timespace_point,,,,,,,,,尚未確定(0M),
all,1,els,2019-12-01,,,,,,all,game01,gevent_unitclass,,extract,game01,gevent_unitclass,,,,,,,,,尚未確定(0M),
all,1,els,2019-12-01,,,,,,all,game01,gevent_unitlimit,,extract,game01,gevent_unitlimit,,,,,,,,,尚未確定(0M),
all,1,els,2019-12-01,,,,,,all,game01,gevent_vs_death,,extract,game01,gevent_vs_death,,,,,,,,,尚未確定(0M),
all,1,els,2019-12-01,,,,,,all,game01,gevent_vs_kill,,extract,game01,gevent_vs_kill,,,,,,,,,尚未確定(0M),
all,1,els,2019-12-01,,,,,,all,game01,gevent_webpost,,extract,game01,gevent_webpost,,,,,,,,,尚未確定(0M),
all,1,els,2019-12-01,,,,,,all,game01,geventbankshare,,extract,game01,geventbankshare,,,,,,,,,尚未確定(0M),
all,1,els,2019-12-01,,,,,,all,game01,geventcbt,,extract,game01,geventcbt,,,,,,,,,尚未確定(0M),
all,1,els,2019-12-01,,,,,,all,game01,geventevebuff,,extract,game01,geventevebuff,,,,,,,,,尚未確定(0M),
all,1,els,2019-12-01,,,,,,all,game01,geventevelimit,,extract,game01,geventevelimit,,,,,,,,,尚未確定(0M),
all,1,els,2019-12-01,,,,,,all,game01,geventnewyear,,extract,game01,geventnewyear,,,,,,,,,尚未確定(0M),
all,1,els,2019-12-01,,,,,,all,game01,geventravenspirit,,extract,game01,geventravenspirit,,,,,,,,,尚未確定(0M),
all,1,els,2019-12-01,,,,,,all,game01,geventtradecount,,extract,game01,geventtradecount,,,,,,,,,尚未確定(0M),
all,1,els,2019-12-01,,,,,,all,game01,gfriend,,extract,game01,gfriend,,,,,,,,,朋友相關(大於100M),
all,1,els,2019-12-01,,,,,,all,game01,gfriendgroup,,extract,game01,gfriendgroup,,,,,,,,,朋友相關(大於10M),
all,1,els,2019-12-01,,,,,,all,game01,gfriendlist,,extract,game01,gfriendlist,,,,,,,,,朋友相關(0M),
all,1,els,2019-12-01,,,,,,all,game01,gfriendmessage,,extract,game01,gfriendmessage,,,,,,,,,朋友相關(大於10M),
all,1,els,2019-12-01,,,,,,all,game01,gfriendrecommenddaughter,,extract,game01,gfriendrecommenddaughter,,,,,,,,,朋友相關(0M),
all,1,els,2019-12-01,,,,,,all,game01,gfriendrecommenddaughter_log,,extract,game01,gfriendrecommenddaughter_log,,,,,,,,,朋友相關(0M),
all,1,els,2019-12-01,,,,,,all,game01,gfriendrecommendfriendshippoint,,extract,game01,gfriendrecommendfriendshippoint,,,,,,,,,朋友相關(0M),
all,1,els,2019-12-01,,,,,,all,game01,gfriendrecommendfriendshippoint_log,,extract,game01,gfriendrecommendfriendshippoint_log,,,,,,,,,朋友相關(0M),
all,1,els,2019-12-01,,,,,,all,game01,gfriendrecommendmother,,extract,game01,gfriendrecommendmother,,,,,,,,,朋友相關(0M),
all,1,els,2019-12-01,,,,,,all,game01,gfriendsystem_lastreset,,extract,game01,gfriendsystem_lastreset,,,,,,,,,朋友相關(0M),
all,1,els,2019-12-01,,,,,,all,game01,gfriendsystem_ranker,,extract,game01,gfriendsystem_ranker,,,,,,,,,朋友相關(0M),
all,1,els,2019-12-01,,,,,,all,game01,gfriendsystem_unitinfo,,extract,game01,gfriendsystem_unitinfo,,,,,,,,,朋友相關(0M),
all,1,els,2019-12-01,,,,,,all,game01,gguild,,extract,game01,gguild,,,,,,,,,公會相關(大於100M),
all,1,els,2019-12-01,,,,,,all,game01,gguild_activity,,extract,game01,gguild_activity,,,,,,,,,公會相關(大於1G),
all,1,els,2019-12-01,,,,,,all,game01,gguild_activity_count,,extract,game01,gguild_activity_count,,,,,,,,,公會相關(大於10M),
all,1,els,2019-12-01,,,,,,all,game01,gguild_bank,,extract,game01,gguild_bank,,,,,,,,,公會相關(大於100M),
all,1,els,2019-12-01,,,,,,all,game01,gguild_bank_history,,extract,game01,gguild_bank_history,,,,,,,,,公會相關(大於1G),
all,1,els,2019-12-01,,,,,,all,game01,gguild_bbs,,extract,game01,gguild_bbs,,,,,,,,,公會相關(0M),
all,1,els,2019-12-01,,,,,,all,game01,gguild_bbs_join,,extract,game01,gguild_bbs_join,,,,,,,,,公會相關(0M),
all,1,els,2019-12-01,,,,,,all,game01,gguild_buff,,extract,game01,gguild_buff,,,,,,,,,公會相關(0M),
all,1,els,2019-12-01,,,,,,all,game01,gguild_create,,extract,game01,gguild_create,,,,,,,,,公會相關(大於10M),
all,1,els,2019-12-01,,,,,,all,game01,gguild_deleted,,extract,game01,gguild_deleted,,,,,,,,,公會相關(大於10M),
all,1,els,2019-12-01,,,,,,all,game01,gguild_dungeon,,extract,game01,gguild_dungeon,,,,,,,,,公會相關(大於10M),
all,1,els,2019-12-01,,,,,,all,game01,gguild_dungeon_first,,extract,game01,gguild_dungeon_first,,,,,,,,,公會相關(0M),
all,1,els,2019-12-01,,,,,,all,game01,gguild_dungeon_weekreward,,extract,game01,gguild_dungeon_weekreward,,,,,,,,,公會相關(大於1M),
all,1,els,2019-12-01,,,,,,all,game01,gguild_emblem,,extract,game01,gguild_emblem,,,,,,,,,公會相關(大於10M),
all,1,els,2019-12-01,,,,,,all,game01,gguild_farm,,extract,game01,gguild_farm,,,,,,,,,公會相關(大於100M),
all,1,els,2019-12-01,,,,,,all,game01,gguild_member,,extract,game01,gguild_member,,,,,,,,,公會相關(大於100M),
all,1,els,2019-12-01,,,,,,all,game01,gguild_member_customauth,,extract,game01,gguild_member_customauth,,,,,,,,,公會相關(大於1M),
all,1,els,2019-12-01,,,,,,all,game01,gguild_quest,,extract,game01,gguild_quest,,,,,,,,,公會相關(大於10M),
all,1,els,2019-12-01,,,,,,all,game01,gguild_quest_join,,extract,game01,gguild_quest_join,,,,,,,,,公會相關(大於100M),
all,1,els,2019-12-01,,,,,,all,game01,gguild_sendpost,,extract,game01,gguild_sendpost,,,,,,,,,公會相關(0M),
all,1,els,2019-12-01,,,,,,all,game01,gguild_service,,extract,game01,gguild_service,,,,,,,,,公會相關(0M),
all,1,els,2019-12-01,,,,,,all,game01,gguild_skill,,extract,game01,gguild_skill,,,,,,,,,公會相關(大於1M),
all,1,els,2019-12-01,,,,,,all,game01,gguild_skillpoint,,extract,game01,gguild_skillpoint,,,,,,,,,公會相關(大於10M),
all,1,els,2019-12-01,,,,,,all,game01,gguild_skin,,extract,game01,gguild_skin,,,,,,,,,公會相關(大於1M),
all,1,els,2019-12-01,,,,,,all,game01,ghenirrandomstage,,extract,game01,ghenirrandomstage,,,,,,,,,尚未確定(0M),
all,1,els,2019-12-01,,,,,,all,game01,ghenirrankingday,,extract,game01,ghenirrankingday,,,,,,,,,尚未確定(0M),
all,1,els,2019-12-01,,,,,,all,game01,ghenirrankingheromonth,,extract,game01,ghenirrankingheromonth,,,,,,,,,尚未確定(0M),
all,1,els,2019-12-01,,,,,,all,game01,ghenirrankingmonth,,extract,game01,ghenirrankingmonth,,,,,,,,,尚未確定(0M),
all,1,els,2019-12-01,,,,,,all,game01,ghenirrankingweek,,extract,game01,ghenirrankingweek,,,,,,,,,尚未確定(0M),
all,1,els,2019-12-01,,,,,,all,game01,ghousinginfo,,extract,game01,ghousinginfo,,,,,,,,,尚未確定(0M),
all,1,els,2019-12-01,,,,,,all,game01,gitem_def,,extract,game01,gitem_def,,,,,,,,,道具裝備名稱?(大於1M),
all,1,els,2019-12-01,,,,,,all,game01,gitemcode,,extract,game01,gitemcode,,,,,,,,,道具清單(大於1M),
all,1,els,2019-12-01,,,,,,all,game01,gitemtoolhistory,,extract,game01,gitemtoolhistory,,,,,,,,,無資料(0M),
all,1,els,2019-12-01,,,,,,all,game01,gjumpingsystem,,extract,game01,gjumpingsystem,,,,,,,,,尚未確定(0M),
all,1,els,2019-12-01,,,,,,all,game01,glevel_spoint,,extract,game01,glevel_spoint,,,,,,,,,尚未確定(0M),
all,1,els,2019-12-01,,,,,,all,game01,gpatchitem,,extract,game01,gpatchitem,,,,,,,,,尚未確定(0M),
all,1,els,2019-12-01,,,,,,all,game01,gpetexpedition,,extract,game01,gpetexpedition,,,,,,,,,尚未確定(0M),
all,1,els,2019-12-01,,,,,,all,game01,gpetnamechangelog,,extract,game01,gpetnamechangelog,,,,,,,,,尚未確定(0M),
all,1,els,2019-12-01,,,,,,all,game01,gpost_attribute,,extract,game01,gpost_attribute,,,,,,,,,信件相關(大於10M),
all,1,els,2019-12-01,,,,,,all,game01,gpost_blacklist,,extract,game01,gpost_blacklist,,,,,,,,,信件相關(大於1M),
all,1,els,2019-12-01,,,,,,all,game01,gpost_enchant,,extract,game01,gpost_enchant,,,,,,,,,信件相關(大於100M),
all,1,els,2019-12-01,,,,,,all,game01,gpost_period,,extract,game01,gpost_period,,,,,,,,,信件相關(大於1M),
all,1,els,2019-12-01,,,,,,all,game01,gpost_seal,,extract,game01,gpost_seal,,,,,,,,,信件相關(大於10M),
all,1,els,2019-12-01,,,,,,all,game01,gpost_socket,,extract,game01,gpost_socket,,,,,,,,,信件相關(大於100M),
all,1,els,2019-12-01,,,,,,all,game01,gpost_socket_extract,,extract,game01,gpost_socket_extract,,,,,,,,,信件相關(0M),
all,1,els,2019-12-01,,,,,,all,game01,gpost_socket_piece,,extract,game01,gpost_socket_piece,,,,,,,,,信件相關(大於1M),
all,1,els,2019-12-01,,,,,,all,game01,gpost_socket_random,,extract,game01,gpost_socket_random,,,,,,,,,信件相關(大於10M),
all,1,els,2019-12-01,,,,,,all,game01,gpost_socket_reforging,,extract,game01,gpost_socket_reforging,,,,,,,,,信件相關(大於10M),
all,1,els,2019-12-01,,,,,,all,game01,gpost_socket_spell,,extract,game01,gpost_socket_spell,,,,,,,,,信件相關(0M),
all,1,els,2019-12-01,,,,,,all,game01,gpost_wedding,,extract,game01,gpost_wedding,,,,,,,,,信件相關(大於1M),
all,1,els,2019-12-01,,,,,,all,game01,gpshopitemsocket,,extract,game01,gpshopitemsocket,,,,,,,,,尚未確定(0M),
all,1,els,2019-12-01,,,,,,all,game01,gquestcode,,extract,game01,gquestcode,,,,,,,,,尚未確定(0M),
all,1,els,2019-12-01,,,,,,all,game01,grank,,extract,game01,grank,,,,,,,,,排名相關(大於1M),
all,1,els,2019-12-01,,,,,,all,game01,grank_arcade,,extract,game01,grank_arcade,,,,,,,,,排名相關(大於1M),
all,1,els,2019-12-01,,,,,,all,game01,grank_arcade_server,,extract,game01,grank_arcade_server,,,,,,,,,排名相關(0M),
all,1,els,2019-12-01,,,,,,all,game01,grank_except,,extract,game01,grank_except,,,,,,,,,排名相關(0M),
all,1,els,2019-12-01,,,,,,all,game01,grank_guilddungeon,,extract,game01,grank_guilddungeon,,,,,,,,,排名相關(0M),
all,1,els,2019-12-01,,,,,,all,game01,grank_guildvs,,extract,game01,grank_guildvs,,,,,,,,,排名相關(大於10M),
all,1,els,2019-12-01,,,,,,all,game01,grank_hero,,extract,game01,grank_hero,,,,,,,,,排名相關(0M),
all,1,els,2019-12-01,,,,,,all,game01,grank_pve,,extract,game01,grank_pve,,,,,,,,,排名相關(0M),
all,1,els,2019-12-01,,,,,,all,game01,grank_pvp,,extract,game01,grank_pvp,,,,,,,,,排名相關(大於1M),
all,1,els,2019-12-01,,,,,,all,game01,grank_star,,extract,game01,grank_star,,,,,,,,,排名相關(0M),
all,1,els,2019-12-01,,,,,,all,game01,grecommend,,extract,game01,grecommend,,,,,,,,,尚未確定(0M),
all,1,els,2019-12-01,,,,,,all,game01,grecommend_count,,extract,game01,grecommend_count,,,,,,,,,尚未確定(0M),
all,1,els,2019-12-01,,,,,,all,game01,gresurrectionstone_autopay,,extract,game01,gresurrectionstone_autopay,,,,,,,,,尚未確定(0M),
all,1,els,2019-12-01,,,,,,all,game01,gresurrectionstonecnt,,extract,game01,gresurrectionstonecnt,,,,,,,,,尚未確定(0M),
all,1,els,2019-12-01,,,,,,all,game01,gserveritemquantitytarget,,extract,game01,gserveritemquantitytarget,,,,,,,,,尚未確定(0M),
all,1,els,2019-12-01,,,,,,all,game01,gskill,,extract,game01,gskill,,,,,,,,,尚未確定(0M),
all,1,els,2019-12-01,,,,,,all,game01,gskill_default,,extract,game01,gskill_default,,,,,,,,,尚未確定(0M),
all,1,els,2019-12-01,,,,,,all,game01,gskillcode,,extract,game01,gskillcode,,,,,,,,,尚未確定(0M),
all,1,els,2019-12-01,,,,,,all,game01,gskillslot,,extract,game01,gskillslot,,,,,,,,,尚未確定(0M),
all,1,els,2019-12-01,,,,,,all,game01,gskillslot2,,extract,game01,gskillslot2,,,,,,,,,尚未確定(0M),
all,1,els,2019-12-01,,,,,,all,game01,gstarranker,,extract,game01,gstarranker,,,,,,,,,尚未確定(0M),
all,1,els,2019-12-01,,,,,,all,game01,gunitclass,,extract,game01,gunitclass,,,,,,,,,尚未確定(0M),
all,1,els,2019-12-01,,,,,,all,game01,gunitclassallow,,extract,game01,gunitclassallow,,,,,,,,,尚未確定(0M),
all,1,els,2019-12-01,,,,,,all,game01,gunitpvp_hero,,extract,game01,gunitpvp_hero,,,,,,,,,PVP相關(0M),
all,1,els,2019-12-01,,,,,,all,game01,gunitpvpnew_league,,extract,game01,gunitpvpnew_league,,,,,,,,,PVP相關(0M),
all,1,els,2019-12-01,,,,,,all,game01,lhackingcheck,,extract,game01,lhackingcheck,,,,,,,,,尚未確定(0M),
all,1,els,2019-12-01,,,,,,all,game01,lspecialjobchangelog,,extract,game01,lspecialjobchangelog,,,,,,,,,尚未確定(0M),
all,1,els,2019-12-01,,,,,,all,game01,questidlistenabled,,extract,game01,questidlistenabled,,,,,,,,,尚未確定(0M),
all,1,els,2019-12-01,,,,,,all,game01,rank_spacetime_day,,extract,game01,rank_spacetime_day,,,,,,,,,尚未確定(0M),
all,1,els,2019-12-01,,,,,,all,game01,rank_spacetime_month,,extract,game01,rank_spacetime_month,,,,,,,,,尚未確定(0M),
all,1,els,2019-12-01,,,,,,all,game01,rank_spacetime_week,,extract,game01,rank_spacetime_week,,,,,,,,,尚未確定(0M),
all,1,els,2019-12-01,,,,,,all,game01,sysdiagrams,,extract,game01,sysdiagrams,,,,,,,,,尚未確定(0M),
all,1,els,2019-12-01,,,,,,all,game01,tool_log,,extract,game01,tool_log,,,,,,,,,尚未確定(0M),
all,1,els,2019-12-01,,,,,,all,game01,tr_userid,,extract,game01,tr_userid,,,,,,,,,尚未確定(0M),
grammar,1,els,2019-12-01,,extract,init,onliontimebyaccount,useruid,all,game01,gunit,useruid,extract,game01,gunit,,,,,,,,,遊戲角色,
grammar,1,els,2019-12-01,,extract,init,onliontimebyaccount,useruid,all,game01,guser,useruid,extract,game01,guser,,,,,,,,,遊戲帳號,
grammar,2,els,2019-12-01,,extract,game01,gunit,unituid,all,game01,gachieve,unituid,extract,game01,gachieve,,,,,,,,,尚未確定(大於100M),
grammar,2,els,2019-12-01,,extract,game01,gunit,unituid,all,game01,gbankshare,unituid,extract,game01,gbankshare,,,,,,,,,尚未確定(大於1M),
grammar,2,els,2019-12-01,,extract,game01,gunit,unituid,all,game01,gbossraid2018dropcnt,unituid,extract,game01,gbossraid2018dropcnt,,,,,,,,,尚未確定(大於10M),
grammar,2,els,2019-12-01,,extract,game01,gunit,unituid,all,game01,gbossraid2018unitrecord,unituid,extract,game01,gbossraid2018unitrecord,,,,,,,,,尚未確定(大於10M),
grammar,2,els,2019-12-01,,extract,game01,gunit,unituid,all,game01,gbossraid2018weekreward,unituid,extract,game01,gbossraid2018weekreward,,,,,,,,,尚未確定(大於10M),
grammar,2,els,2019-12-01,,extract,game01,gunit,unituid,all,game01,gbossraidunitrecord,unituid,extract,game01,gbossraidunitrecord,,,,,,,,,尚未確定(大於10M),
grammar,2,els,2019-12-01,,extract,game01,gunit,unituid,all,game01,gbuffeffect,unituid,extract,game01,gbuffeffect,,,,,,,,,尚未確定(大於1M),
grammar,2,els,2019-12-01,,extract,game01,gunit,unituid,all,game01,gcharacter_count,unituid,extract,game01,gcharacter_count,,,,,,,,,尚未確定(大於1G),
grammar,2,els,2019-12-01,,extract,game01,gunit,unituid,all,game01,gcooltime,unituid,extract,game01,gcooltime,,,,,,,,,尚未確定(大於1G),
grammar,2,els,2019-12-01,,extract,game01,gunit,unituid,all,game01,gcoreskill,unituid,extract,game01,gcoreskill,,,,,,,,,尚未確定(大於100M),
grammar,2,els,2019-12-01,,extract,game01,gunit,unituid,all,game01,gcoreskillequip,unituid,extract,game01,gcoreskillequip,,,,,,,,,尚未確定(大於100M),
grammar,2,els,2019-12-01,,extract,game01,gunit,unituid,all,game01,gcoreskillslot,unituid,extract,game01,gcoreskillslot,,,,,,,,,尚未確定(大於100M),
grammar,2,els,2019-12-01,,extract,game01,gunit,unituid,all,game01,gcouple_info,unituid,extract,game01,gcouple_info,,,,,,,,,尚未確定(大於1M),
grammar,2,els,2019-12-01,,extract,game01,gunit,unituid,all,game01,gcustomizing,unituid,extract,game01,gcustomizing,,,,,,,,,尚未確定(大於1G),
grammar,2,els,2019-12-01,,extract,game01,gunit,unituid,all,game01,gdeletednicknamehistory,unituid,extract,game01,gdeletednicknamehistory,,,,,,,,,尚未確定(大於100M),
grammar,2,els,2019-12-01,,extract,game01,gunit,unituid,all,game01,gdenyoption,unituid,extract,game01,gdenyoption,,,,,,,,,尚未確定(大於1G),
grammar,2,els,2019-12-01,,extract,game01,gunit,unituid,all,game01,gdungeonclear,unituid,extract,game01,gdungeonclear,,,,,,,,,副本進度(大於1G),
grammar,2,els,2019-12-01,,extract,game01,gunit,unituid,all,game01,gdungeondroprate,unituid,extract,game01,gdungeondroprate,,,,,,,,,副本相關(大於10M),
grammar,2,els,2019-12-01,,extract,game01,gunit,unituid,all,game01,gelresonanceskill,unituid,extract,game01,gelresonanceskill,,,,,,,,,尚未確定(大於100M),
grammar,2,els,2019-12-01,,extract,game01,gunit,unituid,all,game01,gelresonanceskillperiod,unituid,extract,game01,gelresonanceskillperiod,,,,,,,,,尚未確定(大於1M),
grammar,2,els,2019-12-01,,extract,game01,gunit,unituid,all,game01,gequipitemlist,unituid,extract,game01,gequipitemlist,,,,,,,,,尚未確定(大於100M),
grammar,2,els,2019-12-01,,extract,game01,gunit,useruid,all,game01,gevent_account_acc,useruid,extract,game01,gevent_account_acc,,,,,,,,,尚未確定(大於1M),
grammar,2,els,2019-12-01,,extract,game01,guser,useruid,all,game01,gevent_account_nor,useruid,extract,game01,gevent_account_nor,,,,,,,,,尚未確定(大於100M),
grammar,2,els,2019-12-01,,extract,game01,gunit,unituid,all,game01,gevent_combackuser,unituid,extract,game01,gevent_combackuser,,,,,,,,,尚未確定(大於10M),
grammar,2,els,2019-12-01,,extract,game01,gunit,unituid,all,game01,gevent_gateofdarkness,unituid,extract,game01,gevent_gateofdarkness,,,,,,,,,尚未確定(大於10M),
grammar,2,els,2019-12-01,,extract,game01,gunit,unituid,all,game01,gevent_globalmission,unituid,extract,game01,gevent_globalmission,,,,,,,,,尚未確定(大於1M),
grammar,2,els,2019-12-01,,extract,game01,guser,useruid,all,game01,gevent_jumping,useruid,extract,game01,gevent_jumping,,,,,,,,,尚未確定(大於1M),
grammar,2,els,2019-12-01,,extract,game01,gunit,unituid,all,game01,gevent_noteviewcount,unituid,extract,game01,gevent_noteviewcount,,,,,,,,,尚未確定(大於10M),
grammar,2,els,2019-12-01,,extract,game01,gunit,unituid,all,game01,gevent_rewardunit,unituid,extract,game01,gevent_rewardunit,,,,,,,,,尚未確定(大於1M),
grammar,2,els,2019-12-01,,extract,game01,gunit,unituid,all,game01,gevent_rewarduser,unituid,extract,game01,gevent_rewarduser,,,,,,,,,尚未確定(大於10M),
grammar,2,els,2019-12-01,,extract,game01,gunit,unituid,all,game01,gevent_spirit,unituid,extract,game01,gevent_spirit,,,,,,,,,尚未確定(大於10M),
grammar,2,els,2019-12-01,,extract,game01,guser,useruid,all,game01,gevent_userrecord,useruid,extract,game01,gevent_userrecord,,,,,,,,,尚未確定(大於100M),
grammar,2,els,2019-12-01,,extract,game01,gunit,unituid,all,game01,geventdungeondata,unituid,extract,game01,geventdungeondata,,,,,,,,,尚未確定(大於1G),
grammar,2,els,2019-12-01,,extract,game01,gunit,unituid,all,game01,geventelesisclasschange,unituid,extract,game01,geventelesisclasschange,,,,,,,,,尚未確定(大於1M),
grammar,2,els,2019-12-01,,extract,game01,gunit,unituid,all,game01,geventendyear,unituid,extract,game01,geventendyear,,,,,,,,,尚未確定(大於1M),
grammar,2,els,2019-12-01,,extract,game01,gunit,unituid,all,game01,geventspirituse,unituid,extract,game01,geventspirituse,,,,,,,,,尚未確定(大於10M),
grammar,2,els,2019-12-01,,extract,game01,gunit,unituid,all,game01,gguide,unituid,extract,game01,gguide,,,,,,,,,尚未確定(大於1M),
grammar,2,els,2019-12-01,,extract,game01,gunit,unituid,all,game01,ghangerlist,unituid,extract,game01,ghangerlist,,,,,,,,,尚未確定(大於1G),
grammar,2,els,2019-12-01,,extract,game01,gunit,unituid,all,game01,ghenirrankingmyrecord,unituid,extract,game01,ghenirrankingmyrecord,,,,,,,,,尚未確定(大於10M),
grammar,2,els,2019-12-01,,extract,game01,gunit,unituid,all,game01,ghenirrecord,unituid,extract,game01,ghenirrecord,,,,,,,,,尚未確定(大於10M),
grammar,2,els,2019-12-01,,extract,game01,gunit,unituid,all,game01,ghenirrewardcnt,unituid,extract,game01,ghenirrewardcnt,,,,,,,,,尚未確定(大於100M),
grammar,2,els,2019-12-01,,extract,game01,gunit,unituid,all,game01,ghousingspecialstructure,unituid,extract,game01,ghousingspecialstructure,,,,,,,,,尚未確定(大於1M),
grammar,2,els,2019-12-01,,extract,game01,gunit,unituid,all,game01,ghousingstructure,unituid,extract,game01,ghousingstructure,,,,,,,,,尚未確定(大於1M),
grammar,2,els,2019-12-01,,extract,game01,gunit,unituid,all,game01,gis30min,unituid,extract,game01,gis30min,,,,,,,,,尚未確定(大於1G),
grammar,2,els,2019-12-01,,extract,game01,gunit,unituid,all,game01,gitem,unituid,extract,game01,gitem,,,,,,,,,道具相關(大於1G),
grammar,2,els,2019-12-01,,extract,game01,gunit,unituid,all,game01,gitem_pet,unituid,extract,game01,gitem_pet,,,,,,,,,角色寵物?(大於1G),
grammar,2,els,2019-12-01,,extract,game01,gunit,unituid,all,game01,gitemattribute,unituid,extract,game01,gitemattribute,,,,,,,,,道具屬性?(大於1G),
grammar,2,els,2019-12-01,,extract,game01,gunit,unituid,all,game01,gitemequippedlist,unituid,extract,game01,gitemequippedlist,,,,,,,,,道具裝備列表(大於100M),
grammar,2,els,2019-12-01,,extract,game01,gunit,unituid,all,game01,gitemequippedlistexpand,unituid,extract,game01,gitemequippedlistexpand,,,,,,,,,額外道具裝備清單(大於1G),
grammar,2,els,2019-12-01,,extract,game01,gunit,unituid,all,game01,giteminventorysize,unituid,extract,game01,giteminventorysize,,,,,,,,,道具庫存大小(大於100M),
grammar,2,els,2019-12-01,,extract,game01,gunit,unituid,all,game01,gitemlock,unituid,extract,game01,gitemlock,,,,,,,,,道具鎖定(大於100M),
grammar,2,els,2019-12-01,,extract,game01,gunit,unituid,all,game01,gitemoptionstep,unituid,extract,game01,gitemoptionstep,,,,,,,,,道具選項步驟(大於1M),
grammar,2,els,2019-12-01,,extract,game01,gunit,unituid,all,game01,gitemseal,unituid,extract,game01,gitemseal,,,,,,,,,道具密封(大於1G),
grammar,2,els,2019-12-01,,extract,game01,guser,useruid,all,game01,gitemwishlist,useruid,extract,game01,gitemwishlist,,,,,,,,,道具願望清單(大於10M),
grammar,2,els,2019-12-01,,extract,game01,gunit,unituid,all,game01,glimitdungeonplaycnt,unituid,extract,game01,glimitdungeonplaycnt,,,,,,,,,尚未確定(大於100M),
grammar,2,els,2019-12-01,,extract,game01,guser,useruid,all,game01,glooklist,useruid,extract,game01,glooklist,,,,,,,,,尚未確定(大於100M),
grammar,2,els,2019-12-01,,extract,game01,gunit,unituid,all,game01,gnote,unituid,extract,game01,gnote,,,,,,,,,尚未確定(大於10M),
grammar,2,els,2019-12-01,,extract,game01,gunit,unituid,all,game01,gnote_pagecnt,unituid,extract,game01,gnote_pagecnt,,,,,,,,,尚未確定(大於10M),
grammar,2,els,2019-12-01,,extract,game01,gunit,unituid,all,game01,gpet_autouseitem,unituid,extract,game01,gpet_autouseitem,,,,,,,,,尚未確定(大於1M),
grammar,2,els,2019-12-01,,extract,game01,gunit,unituid,all,game01,gpet_info,unituid,extract,game01,gpet_info,,,,,,,,,尚未確定(大於100M),
grammar,2,els,2019-12-01,,extract,game01,gunit,unituid,all,game01,gpetaccompany,unituid,extract,game01,gpetaccompany,,,,,,,,,尚未確定(大於1M),
grammar,2,els,2019-12-01,,extract,game01,gunit,unituid,all,game01,gpetexpeditionmission,unituid,extract,game01,gpetexpeditionmission,,,,,,,,,尚未確定(大於100M),
grammar,2,els,2019-12-01,,extract,game01,gunit,unituid,all,game01,gpetslot,unituid,extract,game01,gpetslot,,,,,,,,,尚未確定(大於1M),
grammar,2,els,2019-12-01,,extract,game01,gunit,unituid,all,game01,gphotozonecamera,unituid,extract,game01,gphotozonecamera,,,,,,,,,尚未確定(大於1M),
grammar,2,els,2019-12-01,,extract,game01,gunit,unituid,all,game01,gphotozoneworld,unituid,extract,game01,gphotozoneworld,,,,,,,,,尚未確定(大於1M),
grammar,2,els,2019-12-01,,extract,game01,gunit,unituid,all,game01,gpshopinfo,unituid,extract,game01,gpshopinfo,,,,,,,,,尚未確定(大於10M),
grammar,2,els,2019-12-01,,extract,game01,gunit,unituid,all,game01,gpshopinfo_expirationdate,unituid,extract,game01,gpshopinfo_expirationdate,,,,,,,,,尚未確定(大於1M),
grammar,2,els,2019-12-01,,extract,game01,gunit,unituid,all,game01,gpshopitem,unituid,extract,game01,gpshopitem,,,,,,,,,尚未確定(大於1G),
grammar,2,els,2019-12-01,,extract,game01,gunit,unituid,all,game01,gpvpbalanceevent,unituid,extract,game01,gpvpbalanceevent,,,,,,,,,尚未確定(大於1M),
grammar,2,els,2019-12-01,,extract,game01,gunit,unituid,all,game01,gquest,unituid,extract,game01,gquest,,,,,,,,,任務相關(大於1G),
grammar,2,els,2019-12-01,,extract,game01,gunit,unituid,all,game01,gquestfavorites,unituid,extract,game01,gquestfavorites,,,,,,,,,尚未確定(大於10M),
grammar,2,els,2019-12-01,,extract,game01,gunit,unituid,all,game01,gquests,unituid,extract,game01,gquests,,,,,,,,,任務清單(大於1G),
grammar,2,els,2019-12-01,,extract,game01,gunit,unituid,all,game01,gquests_complete,unituid,extract,game01,gquests_complete,,,,,,,,,完成任務清單(大於1G),
grammar,2,els,2019-12-01,,extract,game01,gunit,unituid,all,game01,gquests_repeat,unituid,extract,game01,gquests_repeat,,,,,,,,,任務相關(大於1G),
grammar,2,els,2019-12-01,,extract,game01,gunit,unituid,all,game01,gquickslotitemgroup,unituid,extract,game01,gquickslotitemgroup,,,,,,,,,尚未確定(大於100M),
grammar,2,els,2019-12-01,,extract,game01,gunit,unituid,all,game01,grank_exp,unituid,extract,game01,grank_exp,,,,,,,,,排名相關(大於1G),
grammar,2,els,2019-12-01,,extract,game01,gunit,unituid,all,game01,gremaintime,unituid,extract,game01,gremaintime,,,,,,,,,尚未確定(大於1M),
grammar,2,els,2019-12-01,,extract,game01,gunit,unituid,all,game01,gresurrectionstone,unituid,extract,game01,gresurrectionstone,,,,,,,,,尚未確定(大於100M),
grammar,2,els,2019-12-01,,extract,game01,gunit,unituid,all,game01,griding,unituid,extract,game01,griding,,,,,,,,,尚未確定(大於1G),
grammar,2,els,2019-12-01,,extract,game01,gunit,unituid,all,game01,gskill_beforelist,unituid,extract,game01,gskill_beforelist,,,,,,,,,尚未確定(大於100M),
grammar,2,els,2019-12-01,,extract,game01,gunit,unituid,all,game01,gskill_cash,unituid,extract,game01,gskill_cash,,,,,,,,,尚未確定(大於10M),
grammar,2,els,2019-12-01,,extract,game01,gunit,unituid,all,game01,gskill_expand,unituid,extract,game01,gskill_expand,,,,,,,,,尚未確定(大於1M),
grammar,2,els,2019-12-01,,extract,game01,gunit,unituid,all,game01,gskill_new,unituid,extract,game01,gskill_new,,,,,,,,,尚未確定(大於100M),
grammar,2,els,2019-12-01,,extract,game01,gunit,unituid,all,game01,gskill_note,unituid,extract,game01,gskill_note,,,,,,,,,尚未確定(大於100M),
grammar,2,els,2019-12-01,,extract,game01,gunit,unituid,all,game01,gskill_opengroup,unituid,extract,game01,gskill_opengroup,,,,,,,,,尚未確定(大於100M),
grammar,2,els,2019-12-01,,extract,game01,gunit,unituid,all,game01,gskill_unsealed,unituid,extract,game01,gskill_unsealed,,,,,,,,,尚未確定(大於100M),
grammar,2,els,2019-12-01,,extract,game01,gunit,unituid,all,game01,gskill_unsealed_return,unituid,extract,game01,gskill_unsealed_return,,,,,,,,,尚未確定(大於10M),
grammar,2,els,2019-12-01,,extract,game01,gunit,unituid,all,game01,gskillslot_new,unituid,extract,game01,gskillslot_new,,,,,,,,,尚未確定(大於100M),
grammar,2,els,2019-12-01,,extract,game01,gunit,unituid,all,game01,gskillslothyperactive,unituid,extract,game01,gskillslothyperactive,,,,,,,,,尚未確定(大於10M),
grammar,2,els,2019-12-01,,extract,game01,gunit,unituid,all,game01,gskillslotposition,unituid,extract,game01,gskillslotposition,,,,,,,,,尚未確定(大於100M),
grammar,2,els,2019-12-01,,extract,game01,gunit,unituid,all,game01,gskillslotspecialskill,unituid,extract,game01,gskillslotspecialskill,,,,,,,,,尚未確定(大於10M),
grammar,2,els,2019-12-01,,extract,game01,gunit,unituid,all,game01,gspaceofthoughtnowstage,unituid,extract,game01,gspaceofthoughtnowstage,,,,,,,,,尚未確定(大於1M),
grammar,2,els,2019-12-01,,extract,game01,gunit,unituid,all,game01,gspecialjob,unituid,extract,game01,gspecialjob,,,,,,,,,尚未確定(大於100M),
grammar,2,els,2019-12-01,,extract,game01,gunit,unituid,all,game01,gspirit,unituid,extract,game01,gspirit,,,,,,,,,尚未確定(大於100M),
grammar,2,els,2019-12-01,,extract,game01,gunit,unituid,all,game01,gtitle_bookmark,unituid,extract,game01,gtitle_bookmark,,,,,,,,,尚未確定(大於100M),
grammar,2,els,2019-12-01,,extract,game01,gunit,unituid,all,game01,gtitle_complete,unituid,extract,game01,gtitle_complete,,,,,,,,,角色稱號狀態(大於1G),
grammar,2,els,2019-12-01,,extract,game01,gunit,unituid,all,game01,gtitle_mission,unituid,extract,game01,gtitle_mission,,,,,,,,,角色稱號清單大於1G),
grammar,2,els,2019-12-01,,extract,game01,gunit,unituid,all,game01,gtrainingcenter,unituid,extract,game01,gtrainingcenter,,,,,,,,,尚未確定(大於10M),
grammar,2,els,2019-12-01,,extract,game01,gunit,unituid,all,game01,gtutor,teacheruid,extract,game01,gtutor_teacher,,,,,,,,,尚未確定(大於1M),
grammar,2,els,2019-12-01,,extract,game01,gunit,unituid,all,game01,gtutor,studentuid,extract,game01,gtutor_student,,,,,,,,,尚未確定(大於1M),
grammar,2,els,2019-12-01,,extract,game01,gunit,unituid,all,game01,gunit_ed,unituid,extract,game01,gunit_ed,,,,,,,,,尚未確定(大於1G),
grammar,2,els,2019-12-01,,extract,game01,gunit,unituid,all,game01,gunit_lastpoint,unituid,extract,game01,gunit_lastpoint,,,,,,,,,尚未確定(大於100M),
grammar,2,els,2019-12-01,,extract,game01,gunit,unituid,all,game01,gunitartifact,unituid,extract,game01,gunitartifact,,,,,,,,,尚未確定(大於10M),
grammar,2,els,2019-12-01,,extract,game01,gunit,unituid,all,game01,gunitclasschangestage,unituid,extract,game01,gunitclasschangestage,,,,,,,,,尚未確定(大於100M),
grammar,2,els,2019-12-01,,extract,game01,gunit,unituid,all,game01,gunitdebuff,unituid,extract,game01,gunitdebuff,,,,,,,,,尚未確定(大於100M),
grammar,2,els,2019-12-01,,extract,game01,gunit,unituid,all,game01,gunitdungeonrating,unituid,extract,game01,gunitdungeonrating,,,,,,,,,尚未確定(大於100M),
grammar,2,els,2019-12-01,,extract,game01,gunit,unituid,all,game01,gunitlastposition,unituid,extract,game01,gunitlastposition,,,,,,,,,尚未確定(大於100M),
grammar,2,els,2019-12-01,,extract,game01,gunit,unituid,all,game01,gunitnickname,unituid,extract,game01,gunitnickname,,,,,,,,,角色名稱,
grammar,2,els,2019-12-01,,extract,game01,gunit,unituid,all,game01,gunitplayinfo,unituid,extract,game01,gunitplayinfo,,,,,,,,,尚未確定(大於100M),
grammar,2,els,2019-12-01,,extract,game01,gunit,unituid,all,game01,gunitplayinfosub,unituid,extract,game01,gunitplayinfosub,,,,,,,,,尚未確定(大於10M),
grammar,2,els,2019-12-01,,extract,game01,gunit,unituid,all,game01,gunitpve,unituid,extract,game01,gunitpve,,,,,,,,,PVP相關(大於100M),
grammar,2,els,2019-12-01,,extract,game01,gunit,unituid,all,game01,gunitpveweeklystarranker,unituid,extract,game01,gunitpveweeklystarranker,,,,,,,,,PVP相關(0M),
grammar,2,els,2019-12-01,,extract,game01,gunit,unituid,all,game01,gunitpvp,unituid,extract,game01,gunitpvp,,,,,,,,,PVP相關(大於100M),
grammar,2,els,2019-12-01,,extract,game01,gunit,unituid,all,game01,gunitpvp_arcade,unituid,extract,game01,gunitpvp_arcade,,,,,,,,,PVP相關(大於100M),
grammar,2,els,2019-12-01,,extract,game01,gunit,unituid,all,game01,gunitpvp_season2,unituid,extract,game01,gunitpvp_season2,,,,,,,,,PVP相關(大於100M),
grammar,2,els,2019-12-01,,extract,game01,gunit,unituid,all,game01,gunitpvp_season3,unituid,extract,game01,gunitpvp_season3,,,,,,,,,PVP相關(大於100M),
grammar,2,els,2019-12-01,,extract,game01,gunit,unituid,all,game01,gunitpvp_season4,unituid,extract,game01,gunitpvp_season4,,,,,,,,,PVP相關(大於100M),
grammar,2,els,2019-12-01,,extract,game01,gunit,unituid,all,game01,gunitpvpnew,unituid,extract,game01,gunitpvpnew,,,,,,,,,PVP相關(大於100M),
grammar,2,els,2019-12-01,,extract,game01,gunit,unituid,all,game01,gunitpvpnew_bestrecord,unituid,extract,game01,gunitpvpnew_bestrecord,,,,,,,,,PVP相關(大於100M),
grammar,2,els,2019-12-01,,extract,game01,gunit,unituid,all,game01,gunitpvpnew_pastleague,unituid,extract,game01,gunitpvpnew_pastleague,,,,,,,,,PVP相關(大於1M),
grammar,2,els,2019-12-01,,extract,game01,gunit,unituid,all,game01,gunitpvptag,unituid,extract,game01,gunitpvptag,,,,,,,,,PVP相關(大於10M),
grammar,2,els,2019-12-01,,extract,game01,gunit,unituid,all,game01,gunitrestore,unituid,extract,game01,gunitrestore,,,,,,,,,尚未確定(大於10M),
grammar,2,els,2019-12-01,,extract,game01,gunit,unituid,all,game01,gunitspaexp,unituid,extract,game01,gunitspaexp,,,,,,,,,尚未確定(大於100M),
grammar,2,els,2019-12-01,,extract,game01,gunit,unituid,all,game01,gunitspendspirit,unituid,extract,game01,gunitspendspirit,,,,,,,,,尚未確定(大於10M),
grammar,2,els,2019-12-01,,extract,game01,gunit,unituid,all,game01,gunitwaitdelete,unituid,extract,game01,gunitwaitdelete,,,,,,,,,尚未確定(大於10M),
grammar,2,els,2019-12-01,,extract,game01,guser,useruid,all,game01,guserbank,useruid,extract,game01,guserbank,,,,,,,,,帳號銀行相關(大於10M),
grammar,2,els,2019-12-01,,extract,game01,guser,useruid,all,game01,guserbanked,useruid,extract,game01,guserbanked,,,,,,,,,帳號銀行相關(大於1M),
grammar,2,els,2019-12-01,,extract,game01,guser,useruid,all,game01,guserbankitem,useruid,extract,game01,guserbankitem,,,,,,,,,帳號銀行相關(大於1G),
grammar,2,els,2019-12-01,,extract,game01,gunit,unituid,all,game01,guserbankitem_log,unituid,extract,game01,guserbankitem_log,,,,,,,,,排名相關(大於1G),
grammar,2,els,2019-12-01,,extract,game01,gunit,unituid,all,game01,gvipticket,unituid,extract,game01,gvipticket,,,,,,,,,尚未確定(大於1M),
grammar,2,els,2019-12-01,,extract,game01,gunit,unituid,all,game01,gweaponlock,unituid,extract,game01,gweaponlock,,,,,,,,,尚未確定(大於1M),
grammar,2,els,2019-12-01,,extract,game01,gunit,unituid,all,game01,rank_spacetime_hero_myrecord,unituid,extract,game01,rank_spacetime_hero_myrecord,,,,,,,,,尚未確定(大於1M),
grammar,2,els,2019-12-01,,extract,game01,gunit,unituid,all,game01,rank_spacetime_myrecord,unituid,extract,game01,rank_spacetime_myrecord,,,,,,,,,尚未確定(大於10M),
grammar,3,els,2019-12-01,,extract,game01,gitem,itemuid,all,game01,gitemenchant,itemuid,extract,game01,gitemenchant,,,,,,,,,道具精煉(大於1G),
grammar,3,els,2019-12-01,,extract,game01,gitem,itemuid,all,game01,gitemendurance,itemuid,extract,game01,gitemendurance,,,,,,,,,道具耐久(大於1G),
grammar,3,els,2019-12-01,,extract,game01,gitem,itemuid,all,game01,giteminserttype,itemuid,extract,game01,giteminserttype,,,,,,,,,道具插入類型(大於1G),
grammar,3,els,2019-12-01,,extract,game01,gitem,itemuid,all,game01,gitemsocket,itemuid,extract,game01,gitemsocket,,,,,,,,,道具鑲嵌相關(大於1G),
grammar,3,els,2019-12-01,,extract,game01,gitem,itemuid,all,game01,gitemsocket_extract,itemuid,extract,game01,gitemsocket_extract,,,,,,,,,道具鑲嵌相關(大於10M),
grammar,3,els,2019-12-01,,extract,game01,gitem,itemuid,all,game01,gitemsocket_piece,itemuid,extract,game01,gitemsocket_piece,,,,,,,,,道具鑲嵌相關(大於100M),
grammar,3,els,2019-12-01,,extract,game01,gitem,itemuid,all,game01,gitemsocket_random,itemuid,extract,game01,gitemsocket_random,,,,,,,,,道具鑲嵌相關(大於1G),
grammar,3,els,2019-12-01,,extract,game01,gitem,itemuid,all,game01,gitemsocket_reforging,itemuid,extract,game01,gitemsocket_reforging,,,,,,,,,道具鑲嵌相關(大於1M),
grammar,3,els,2019-12-01,,extract,game01,gitem,itemuid,all,game01,gitemsocket_spell,itemuid,extract,game01,gitemsocket_spell,,,,,,,,,道具鑲嵌相關(大於100M),
log,1,els,2019-12-01,,,,,,all,game01,gbossraid2018rankerlog,,extract,game01,gbossraid2018rankerlog,,regdate,regdate,0,1,,,,尚未確定(0M),
log,1,els,2019-12-01,,,,,,all,game01,gcashchainlog,,extract,game01,gcashchainlog,,regdate,regdate,0,1,,,,尚未確定(0M),
log,1,els,2019-12-01,,,,,,all,game01,gevent_spirit_log,,extract,game01,gevent_spirit_log,,regdate,regdate,0,1,,,,尚未確定(大於100M),
log,1,els,2019-12-01,,,,,,all,game01,gguild_bank_log,,extract,game01,gguild_bank_log,,regdate,regdate,0,1,,,,公會相關(大於100M),
log,1,els,2019-12-01,,,,,,all,game01,gguild_expendsize_log,,extract,game01,gguild_expendsize_log,,regdate,regdate,0,1,,,,公會相關(大於1M),
log,1,els,2019-12-01,,,,,,all,game01,gguild_guildcoin_log,,extract,game01,gguild_guildcoin_log,,regdate,regdate,0,1,,,,公會相關(大於100M),
log,1,els,2019-12-01,,,,,,all,game01,gguild_quest_log,,extract,game01,gguild_quest_log,,regdate,regdate,0,1,,,,公會相關(大於100M),
log,1,els,2019-12-01,,,,,,all,game01,gguild_quest_log_repeat,,extract,game01,gguild_quest_log_repeat,,regdate,regdate,0,1,,,,公會相關(大於10M),
log,1,els,2019-12-01,,,,,,all,game01,gguild_service_log,,extract,game01,gguild_service_log,,regdate,regdate,0,1,,,,公會相關(0M),
log,1,els,2019-12-01,,,,,,all,game01,gitem_log,,extract,game01,gitem_log,,deldate,deldate,0,1,,,,信件相關(大於1G),
log,1,els,2019-12-01,,,,,,all,game01,gjumpinglog,,extract,game01,gjumpinglog,,regdate,regdate,0,1,,,,尚未確定(大於100M),
log,1,els,2019-12-01,,,,,,all,game01,gpet_info_log,,extract,game01,gpet_info_log,,regdate,regdate,0,1,,,,尚未確定(大於10M),
log,1,els,2019-12-01,,,,,,all,game01,gpetaccompany_log,,extract,game01,gpetaccompany_log,,regdate,regdate,0,1,,,,尚未確定(大於100M),
log,1,els,2019-12-01,,,,,,all,game01,gpetexpedition_log,,extract,game01,gpetexpedition_log,,regdate,regdate,0,1,,,,尚未確定(大於10M),
log,1,els,2019-12-01,,,,,,all,game01,gpost,,extract,game01,gpost,,regdate,regdate,0,1,,,,信件相關(大於1G),
log,1,els,2019-12-01,,,,,,all,game01,gpost_log,,extract,game01,gpost_log,,regdate,regdate,0,1,,,,信件相關(大於100M),
log,1,els,2019-12-01,,,,,,all,game01,gpost_script_log,,extract,game01,gpost_script_log,,regdate,regdate,0,1,,,,信件相關(0M),
log,1,els,2019-12-01,,,,,,all,game01,gquest_log,,extract,game01,gquest_log,,regdate,regdate,0,1,,,,任務相關(大於1G),
log,1,els,2019-12-01,,,,,,all,game01,gquest_log_repeat,,extract,game01,gquest_log_repeat,,regdate,regdate,0,1,,,,每日任務狀況(大於1G),
log,1,els,2019-12-01,,,,,,all,game01,gserveritemquantity,,extract,game01,gserveritemquantity,,regdate,regdate,0,1,,,,尚未確定(大於10M),
log,1,els,2019-12-01,,,,,,all,game01,serverqueryerrorlog,,extract,game01,serverqueryerrorlog,,regdate,regdate,0,1,,,,尚未確定(大於1M),
log,1,els,2019-12-01,,,,,,all,game01,sys_sp_errorlog,,extract,game01,sys_sp_errorlog,,dt_error_date,dt_error_date,0,1,,,,尚未確定(大於1G),
