type,layers,gamename,startdate,enddate,parenthivedb,parentdbname,parenttablename,parentcolumnname,orihivedb,oridbname,oritablename,oricolumnname,hivedb,dbname,tablename,columnname,logstartdate,logenddate,dtbeforeday,dtafterday,logfilename,log,sql,memo,memo2
all,1,lineage,2019-12-01,,,,,,all,linworld_global,account_contents_data,,extract,linworld_global,account_contents_data,,,,,,,,,尚未確定(小於500K),
all,1,lineage,2019-12-01,,,,,,all,linworld_global,account_extra,,extract,linworld_global,account_extra,,,,,,,,,尚未確定(0M),
all,1,lineage,2019-12-01,,,,,,all,linworld_global,account_point,,extract,linworld_global,account_point,,,,,,,,,尚未確定(0M),
all,1,lineage,2019-12-01,,,,,,all,linworld_global,account_uid,,extract,linworld_global,account_uid,,,,,,,,,尚未確定(小於500K),
all,1,lineage,2019-12-01,,,,,,all,linworld_global,aden_event_coin,,extract,linworld_global,aden_event_coin,,,,,,,,,尚未確定(0M),
all,1,lineage,2019-12-01,,,,,,all,linworld_global,aden_event_coin2,,extract,linworld_global,aden_event_coin2,,,,,,,,,尚未確定(0M),
all,1,lineage,2019-12-01,,,,,,all,linworld_global,admin_ranking,,extract,linworld_global,admin_ranking,,,,,,,,,尚未確定(0M),
all,1,lineage,2019-12-01,,,,,,all,linworld_global,agit,,extract,linworld_global,agit,,,,,,,,,血盟小屋(大於1M),
all,1,lineage,2019-12-01,,,,,,all,linworld_global,agit_giran,,extract,linworld_global,agit_giran,,,,,,,,,尚未確定(0M),
all,1,lineage,2019-12-01,,,,,,all,linworld_global,alliance,,extract,linworld_global,alliance,,,,,,,,,同盟資訊?(小於500K),
all,1,lineage,2019-12-01,,,,,,all,linworld_global,arcaactivation,,extract,linworld_global,arcaactivation,,,,,,,,,尚未確定(0M),
all,1,lineage,2019-12-01,,,,,,all,linworld_global,base_chr,,extract,linworld_global,base_chr,,,,,,,,,尚未確定(0M),
all,1,lineage,2019-12-01,,,,,,all,linworld_global,base_con,,extract,linworld_global,base_con,,,,,,,,,尚未確定(0M),
all,1,lineage,2019-12-01,,,,,,all,linworld_global,base_dex,,extract,linworld_global,base_dex,,,,,,,,,尚未確定(0M),
all,1,lineage,2019-12-01,,,,,,all,linworld_global,base_int,,extract,linworld_global,base_int,,,,,,,,,尚未確定(0M),
all,1,lineage,2019-12-01,,,,,,all,linworld_global,base_str,,extract,linworld_global,base_str,,,,,,,,,尚未確定(0M),
all,1,lineage,2019-12-01,,,,,,all,linworld_global,base_wis,,extract,linworld_global,base_wis,,,,,,,,,尚未確定(0M),
all,1,lineage,2019-12-01,,,,,,all,linworld_global,bbs,,extract,linworld_global,bbs,,,,,,,,,尚未確定(0M),
all,1,lineage,2019-12-01,,,,,,all,linworld_global,bbs_burned,,extract,linworld_global,bbs_burned,,,,,,,,,尚未確定(0M),
all,1,lineage,2019-12-01,,,,,,all,linworld_global,bbs_cgiran,,extract,linworld_global,bbs_cgiran,,,,,,,,,尚未確定(0M),
all,1,lineage,2019-12-01,,,,,,all,linworld_global,bbs_ckent,,extract,linworld_global,bbs_ckent,,,,,,,,,尚未確定(0M),
all,1,lineage,2019-12-01,,,,,,all,linworld_global,bbs_corc,,extract,linworld_global,bbs_corc,,,,,,,,,尚未確定(0M),
all,1,lineage,2019-12-01,,,,,,all,linworld_global,bbs_cwinda,,extract,linworld_global,bbs_cwinda,,,,,,,,,尚未確定(0M),
all,1,lineage,2019-12-01,,,,,,all,linworld_global,bbs_elven,,extract,linworld_global,bbs_elven,,,,,,,,,尚未確定(0M),
all,1,lineage,2019-12-01,,,,,,all,linworld_global,blood_pledge,,extract,linworld_global,blood_pledge,,,,,,,,,血盟(小於500K),
all,1,lineage,2019-12-01,,,,,,all,linworld_global,blood_pledge_join,,extract,linworld_global,blood_pledge_join,,,,,,,,,尚未確定(小於500K),
all,1,lineage,2019-12-01,,,,,,all,linworld_global,blood_pledge_rest_exp_reduce_effciency,,extract,linworld_global,blood_pledge_rest_exp_reduce_effciency,,,,,,,,,尚未確定(小於500K),
all,1,lineage,2019-12-01,,,,,,all,linworld_global,bloodpledgeemblem,,extract,linworld_global,bloodpledgeemblem,,,,,,,,,血盟徽章?(大於1M),
all,1,lineage,2019-12-01,,,,,,all,linworld_global,booking_data,,extract,linworld_global,booking_data,,,,,,,,,尚未確定(0M),
all,1,lineage,2019-12-01,,,,,,all,linworld_global,bookmark_store,,extract,linworld_global,bookmark_store,,,,,,,,,座標記憶(小於500K),
all,1,lineage,2019-12-01,,,,,,all,linworld_global,castle,,extract,linworld_global,castle,,,,,,,,,城堡(小於500K),
all,1,lineage,2019-12-01,,,,,,all,linworld_global,castle_npc,,extract,linworld_global,castle_npc,,,,,,,,,尚未確定(0M),
all,1,lineage,2019-12-01,,,,,,all,linworld_global,char_change,,extract,linworld_global,char_change,,,,,,,,,尚未確定(0M),
all,1,lineage,2019-12-01,,,,,,all,linworld_global,char_name_change,,extract,linworld_global,char_name_change,,,,,,,,,尚未確定(0M),
all,1,lineage,2019-12-01,,,,,,all,linworld_global,col_reward_item,,extract,linworld_global,col_reward_item,,,,,,,,,海戰設定表格(0M),
all,1,lineage,2019-12-01,,,,,,all,linworld_global,col_reward_score,,extract,linworld_global,col_reward_score,,,,,,,,,海戰玩家排名(0M),
all,1,lineage,2019-12-01,,,,,,all,linworld_global,col_reward_time,,extract,linworld_global,col_reward_time,,,,,,,,,海戰更新時間(0M),
all,1,lineage,2019-12-01,,,,,,all,linworld_global,companion,,extract,linworld_global,companion,,,,,,,,,尚未確定(小於500K),
all,1,lineage,2019-12-01,,,,,,all,linworld_global,companionexprecovery,,extract,linworld_global,companionexprecovery,,,,,,,,,尚未確定(小於500K),
all,1,lineage,2019-12-01,,,,,,all,linworld_global,companionskill,,extract,linworld_global,companionskill,,,,,,,,,尚未確定(小於500K),
all,1,lineage,2019-12-01,,,,,,all,linworld_global,companionspellbuff,,extract,linworld_global,companionspellbuff,,,,,,,,,尚未確定(小於500K),
all,1,lineage,2019-12-01,,,,,,all,linworld_global,craft_limit_stats,,extract,linworld_global,craft_limit_stats,,,,,,,,,尚未確定(小於500K),
all,1,lineage,2019-12-01,,,,,,all,linworld_global,darkelf_coin,,extract,linworld_global,darkelf_coin,,,,,,,,,尚未確定(0M),
all,1,lineage,2019-12-01,,,,,,all,linworld_global,darkelf_coin2,,extract,linworld_global,darkelf_coin2,,,,,,,,,尚未確定(0M),
all,1,lineage,2019-12-01,,,,,,all,linworld_global,dbinfo,,extract,linworld_global,dbinfo,,,,,,,,,尚未確定(0M),
all,1,lineage,2019-12-01,,,,,,all,linworld_global,dogfight,,extract,linworld_global,dogfight,,,,,,,,,尚未確定(0M),
all,1,lineage,2019-12-01,,,,,,all,linworld_global,driveslist,,extract,linworld_global,driveslist,,,,,,,,,尚未確定(0M),
all,1,lineage,2019-12-01,,,,,,all,linworld_global,elf_coin,,extract,linworld_global,elf_coin,,,,,,,,,尚未確定(0M),
all,1,lineage,2019-12-01,,,,,,all,linworld_global,elf_coin2,,extract,linworld_global,elf_coin2,,,,,,,,,尚未確定(0M),
all,1,lineage,2019-12-01,,,,,,all,linworld_global,emblem,,extract,linworld_global,emblem,,,,,,,,,尚未確定(小於500K),
all,1,lineage,2019-12-01,,,,,,all,linworld_global,event_char,,extract,linworld_global,event_char,,,,,,,,,尚未確定(0M),
all,1,lineage,2019-12-01,,,,,,all,linworld_global,event_coin,,extract,linworld_global,event_coin,,,,,,,,,尚未確定(0M),
all,1,lineage,2019-12-01,,,,,,all,linworld_global,event_score,,extract,linworld_global,event_score,,,,,,,,,尚未確定(0M),
all,1,lineage,2019-12-01,,,,,,all,linworld_global,furniture,,extract,linworld_global,furniture,,,,,,,,,傢俱(小於500K),
all,1,lineage,2019-12-01,,,,,,all,linworld_global,gaddedservice_after,,extract,linworld_global,gaddedservice_after,,,,,,,,,尚未確定(0M),
all,1,lineage,2019-12-01,,,,,,all,linworld_global,gaddedservice_after_arcaworld,,extract,linworld_global,gaddedservice_after_arcaworld,,,,,,,,,尚未確定(0M),
all,1,lineage,2019-12-01,,,,,,all,linworld_global,gaddedservice_after_result,,extract,linworld_global,gaddedservice_after_result,,,,,,,,,尚未確定(0M),
all,1,lineage,2019-12-01,,,,,,all,linworld_global,gaddedservice_before,,extract,linworld_global,gaddedservice_before,,,,,,,,,尚未確定(0M),
all,1,lineage,2019-12-01,,,,,,all,linworld_global,gaddedservice_ranking,,extract,linworld_global,gaddedservice_ranking,,,,,,,,,尚未確定(0M),
all,1,lineage,2019-12-01,,,,,,all,linworld_global,game_time,,extract,linworld_global,game_time,,,,,,,,,尚未確定(小於500K),
all,1,lineage,2019-12-01,,,,,,all,linworld_global,gasgameitem,,extract,linworld_global,gasgameitem,,,,,,,,,尚未確定(0M),
all,1,lineage,2019-12-01,,,,,,all,linworld_global,gp_delete_dormant_char_history,,extract,linworld_global,gp_delete_dormant_char_history,,,,,,,,,尚未確定(0M),
all,1,lineage,2019-12-01,,,,,,all,linworld_global,gp_dormant_delete_account,,extract,linworld_global,gp_dormant_delete_account,,,,,,,,,尚未確定(0M),
all,1,lineage,2019-12-01,,,,,,all,linworld_global,gp_exp_char,,extract,linworld_global,gp_exp_char,,,,,,,,,尚未確定(0M),
all,1,lineage,2019-12-01,,,,,,all,linworld_global,gp_gmrequest_checktable,,extract,linworld_global,gp_gmrequest_checktable,,,,,,,,,尚未確定(0M),
all,1,lineage,2019-12-01,,,,,,all,linworld_global,gp_item_bulk_insert,,extract,linworld_global,gp_item_bulk_insert,,,,,,,,,尚未確定(0M),
all,1,lineage,2019-12-01,,,,,,all,linworld_global,gp_itemcreate,,extract,linworld_global,gp_itemcreate,,,,,,,,,尚未確定(0M),
all,1,lineage,2019-12-01,,,,,,all,linworld_global,gp_itemcreate_special,,extract,linworld_global,gp_itemcreate_special,,,,,,,,,尚未確定(0M),
all,1,lineage,2019-12-01,,,,,,all,linworld_global,gp_itemdelete,,extract,linworld_global,gp_itemdelete,,,,,,,,,尚未確定(0M),
all,1,lineage,2019-12-01,,,,,,all,linworld_global,gp_npc_match,,extract,linworld_global,gp_npc_match,,,,,,,,,尚未確定(0M),
all,1,lineage,2019-12-01,,,,,,all,linworld_global,gp_recover_expadena,,extract,linworld_global,gp_recover_expadena,,,,,,,,,尚未確定(0M),
all,1,lineage,2019-12-01,,,,,,all,linworld_global,gpadenamove_beforework,,extract,linworld_global,gpadenamove_beforework,,,,,,,,,尚未確定(0M),
all,1,lineage,2019-12-01,,,,,,all,linworld_global,gpadenamove_check,,extract,linworld_global,gpadenamove_check,,,,,,,,,尚未確定(0M),
all,1,lineage,2019-12-01,,,,,,all,linworld_global,gpadenamove_potion_work,,extract,linworld_global,gpadenamove_potion_work,,,,,,,,,尚未確定(0M),
all,1,lineage,2019-12-01,,,,,,all,linworld_global,gpadenamove_work,,extract,linworld_global,gpadenamove_work,,,,,,,,,尚未確定(0M),
all,1,lineage,2019-12-01,,,,,,all,linworld_global,gtshirtsmove_before,,extract,linworld_global,gtshirtsmove_before,,,,,,,,,尚未確定(0M),
all,1,lineage,2019-12-01,,,,,,all,linworld_global,inn,,extract,linworld_global,inn,,,,,,,,,尚未確定(小於500K),
all,1,lineage,2019-12-01,,,,,,all,linworld_global,ip_trace,,extract,linworld_global,ip_trace,,,,,,,,,尚未確定(小於500K),
all,1,lineage,2019-12-01,,,,,,all,linworld_global,ip_trace_1day,,extract,linworld_global,ip_trace_1day,,,,,,,,,尚未確定(0M),
all,1,lineage,2019-12-01,,,,,,all,linworld_global,item_cost,,extract,linworld_global,item_cost,,,,,,,,,尚未確定(0M),
all,1,lineage,2019-12-01,,,,,,all,linworld_global,item_create,,extract,linworld_global,item_create,,,,,,,,,尚未確定(0M),
all,1,lineage,2019-12-01,,,,,,all,linworld_global,item_delete_12th,,extract,linworld_global,item_delete_12th,,,,,,,,,尚未確定(0M),
all,1,lineage,2019-12-01,,,,,,all,linworld_global,item_desc,,extract,linworld_global,item_desc,,,,,,,,,道具資訊(對照表)?(大於1M),
all,1,lineage,2019-12-01,,,,,,all,linworld_global,item_move,,extract,linworld_global,item_move,,,,,,,,,尚未確定(0M),
all,1,lineage,2019-12-01,,,,,,all,linworld_global,item_potential,,extract,linworld_global,item_potential,,,,,,,,,尚未確定(小於500K),
all,1,lineage,2019-12-01,,,,,,all,linworld_global,item_rental,,extract,linworld_global,item_rental,,,,,,,,,尚未確定(0M),
all,1,lineage,2019-12-01,,,,,,all,linworld_global,item_seal,,extract,linworld_global,item_seal,,,,,,,,,尚未確定(0M),
all,1,lineage,2019-12-01,,,,,,all,linworld_global,knight_coin2,,extract,linworld_global,knight_coin2,,,,,,,,,尚未確定(0M),
all,1,lineage,2019-12-01,,,,,,all,linworld_global,lastrace,,extract,linworld_global,lastrace,,,,,,,,,尚未確定(0M),
all,1,lineage,2019-12-01,,,,,,all,linworld_global,level_exp,,extract,linworld_global,level_exp,,,,,,,,,尚未確定(0M),
all,1,lineage,2019-12-01,,,,,,all,linworld_global,levup_bonus_time_record,,extract,linworld_global,levup_bonus_time_record,,,,,,,,,尚未確定(0M),
all,1,lineage,2019-12-01,,,,,,all,linworld_global,map_70,,extract,linworld_global,map_70,,,,,,,,,尚未確定(0M),
all,1,lineage,2019-12-01,,,,,,all,linworld_global,merchantlimitgoods,,extract,linworld_global,merchantlimitgoods,,,,,,,,,尚未確定(小於500K),
all,1,lineage,2019-12-01,,,,,,all,linworld_global,mobile_account,,extract,linworld_global,mobile_account,,,,,,,,,尚未確定(0M),
all,1,lineage,2019-12-01,,,,,,all,linworld_global,noticecontent,,extract,linworld_global,noticecontent,,,,,,,,,尚未確定(0M),
all,1,lineage,2019-12-01,,,,,,all,linworld_global,npc_item,,extract,linworld_global,npc_item,,,,,,,,,尚未確定(0M),
all,1,lineage,2019-12-01,,,,,,all,linworld_global,npc_lastrecord,,extract,linworld_global,npc_lastrecord,,,,,,,,,尚未確定(0M),
all,1,lineage,2019-12-01,,,,,,all,linworld_global,olap_focus_item,,extract,linworld_global,olap_focus_item,,,,,,,,,尚未確定(0M),
all,1,lineage,2019-12-01,,,,,,all,linworld_global,orc_server_exp,,extract,linworld_global,orc_server_exp,,,,,,,,,尚未確定(0M),
all,1,lineage,2019-12-01,,,,,,all,linworld_global,pledge_match_making_enrollment,,extract,linworld_global,pledge_match_making_enrollment,,,,,,,,,尚未確定(0M),
all,1,lineage,2019-12-01,,,,,,all,linworld_global,pledge_member_info,,extract,linworld_global,pledge_member_info,,,,,,,,,血盟成員資訊?(大於1M),
all,1,lineage,2019-12-01,,,,,,all,linworld_global,pledge_name_change,,extract,linworld_global,pledge_name_change,,,,,,,,,尚未確定(0M),
all,1,lineage,2019-12-01,,,,,,all,linworld_global,pledge_watch_list,,extract,linworld_global,pledge_watch_list,,,,,,,,,尚未確定(小於500K),
all,1,lineage,2019-12-01,,,,,,all,linworld_global,potential_desc,,extract,linworld_global,potential_desc,,,,,,,,,尚未確定(0M),
all,1,lineage,2019-12-01,,,,,,all,linworld_global,race,,extract,linworld_global,race,,,,,,,,,尚未確定(0M),
all,1,lineage,2019-12-01,,,,,,all,linworld_global,race2,,extract,linworld_global,race2,,,,,,,,,尚未確定(小於500K),
all,1,lineage,2019-12-01,,,,,,all,linworld_global,recovery_item,,extract,linworld_global,recovery_item,,,,,,,,,尚未確定(小於500K),
all,1,lineage,2019-12-01,,,,,,all,linworld_global,reg_charac_rev,,extract,linworld_global,reg_charac_rev,,,,,,,,,尚未確定(0M),
all,1,lineage,2019-12-01,,,,,,all,linworld_global,reg_item_rev,,extract,linworld_global,reg_item_rev,,,,,,,,,尚未確定(0M),
all,1,lineage,2019-12-01,,,,,,all,linworld_global,regnpc,,extract,linworld_global,regnpc,,,,,,,,,尚未確定(0M),
all,1,lineage,2019-12-01,,,,,,all,linworld_global,sample_table,,extract,linworld_global,sample_table,,,,,,,,,尚未確定(0M),
all,1,lineage,2019-12-01,,,,,,all,linworld_global,server_value,,extract,linworld_global,server_value,,,,,,,,,World資訊?(小於500K),
all,1,lineage,2019-12-01,,,,,,all,linworld_global,servernum,,extract,linworld_global,servernum,,,,,,,,,World編號?(小於500K),
all,1,lineage,2019-12-01,,,,,,all,linworld_global,shop_delivery,,extract,linworld_global,shop_delivery,,,,,,,,,尚未確定(0M),
all,1,lineage,2019-12-01,,,,,,all,linworld_global,shop_delivery_id,,extract,linworld_global,shop_delivery_id,,,,,,,,,尚未確定(小於500K),
all,1,lineage,2019-12-01,,,,,,all,linworld_global,shop_delivery_item,,extract,linworld_global,shop_delivery_item,,,,,,,,,尚未確定(0M),
all,1,lineage,2019-12-01,,,,,,all,linworld_global,shop_payment,,extract,linworld_global,shop_payment,,,,,,,,,尚未確定(0M),
all,1,lineage,2019-12-01,,,,,,all,linworld_global,shop_payment_goods,,extract,linworld_global,shop_payment_goods,,,,,,,,,尚未確定(0M),
all,1,lineage,2019-12-01,,,,,,all,linworld_global,shop_payment_id,,extract,linworld_global,shop_payment_id,,,,,,,,,尚未確定(小於500K),
all,1,lineage,2019-12-01,,,,,,all,linworld_global,siege_bloodpledge_point,,extract,linworld_global,siege_bloodpledge_point,,,,,,,,,攻城戰相關(小於500K),
all,1,lineage,2019-12-01,,,,,,all,linworld_global,siege_castle_history,,extract,linworld_global,siege_castle_history,,,,,,,,,攻城戰相關(小於500K),
all,1,lineage,2019-12-01,,,,,,all,linworld_global,siege_castle_property,,extract,linworld_global,siege_castle_property,,,,,,,,,攻城戰相關(小於500K),
all,1,lineage,2019-12-01,,,,,,all,linworld_global,som_total_item_amount,,extract,linworld_global,som_total_item_amount,,,,,,,,,尚未確定(0M),
all,1,lineage,2019-12-01,,,,,,all,linworld_global,som_vlf_count,,extract,linworld_global,som_vlf_count,,,,,,,,,尚未確定(0M),
all,1,lineage,2019-12-01,,,,,,all,linworld_global,spells_list,,extract,linworld_global,spells_list,,,,,,,,,尚未確定(0M),
all,1,lineage,2019-12-01,,,,,,all,linworld_global,sumadenabywarehouse,,extract,linworld_global,sumadenabywarehouse,,,,,,,,,尚未確定(0M),
all,1,lineage,2019-12-01,,,,,,all,linworld_global,tamtrx,,extract,linworld_global,tamtrx,,,,,,,,,尚未確定(0M),
all,1,lineage,2019-12-01,,,,,,all,linworld_global,tencent_bm,,extract,linworld_global,tencent_bm,,,,,,,,,尚未確定(小於500K),
all,1,lineage,2019-12-01,,,,,,all,linworld_global,total_user,,extract,linworld_global,total_user,,,,,,,,,線上人數統計(每5分鐘新增)(大於1M),
all,1,lineage,2019-12-01,,,,,,all,linworld_global,town,,extract,linworld_global,town,,,,,,,,,尚未確定(大於1M),
all,1,lineage,2019-12-01,,,,,,all,linworld_global,trade_item,,extract,linworld_global,trade_item,,,,,,,,,個人商店販賣道具(保留一個月)(小於500K),
all,1,lineage,2019-12-01,,,,,,all,linworld_global,trade_user,,extract,linworld_global,trade_user,,,,,,,,,個人商店開設資料(保留一個月)(小於500K),
all,1,lineage,2019-12-01,,,,,,all,linworld_global,user_bank,,extract,linworld_global,user_bank,,,,,,,,,尚未確定(小於500K),
all,1,lineage,2019-12-01,,,,,,all,linworld_global,user_data2,,extract,linworld_global,user_data2,,,,,,,,,尚未確定(小於500K),
all,1,lineage,2019-12-01,,,,,,all,linworld_global,user_data_rev,,extract,linworld_global,user_data_rev,,,,,,,,,尚未確定(小於500K),
all,1,lineage,2019-12-01,,,,,,all,linworld_global,user_history,,extract,linworld_global,user_history,,,,,,,,,尚未確定(0M),
all,1,lineage,2019-12-01,,,,,,all,linworld_global,user_item_adenamove,,extract,linworld_global,user_item_adenamove,,,,,,,,,尚未確定(0M),
all,1,lineage,2019-12-01,,,,,,all,linworld_global,user_item_adenamove_before,,extract,linworld_global,user_item_adenamove_before,,,,,,,,,尚未確定(0M),
all,1,lineage,2019-12-01,,,,,,all,linworld_global,user_item_adenamove_fromdeleted,,extract,linworld_global,user_item_adenamove_fromdeleted,,,,,,,,,尚未確定(0M),
all,1,lineage,2019-12-01,,,,,,all,linworld_global,user_item_hack_trace,,extract,linworld_global,user_item_hack_trace,,,,,,,,,尚未確定(0M),
all,1,lineage,2019-12-01,,,,,,all,linworld_global,user_recovery,,extract,linworld_global,user_recovery,,,,,,,,,尚未確定(0M),
all,1,lineage,2019-12-01,,,,,,all,linworld_global,user_slots,,extract,linworld_global,user_slots,,,,,,,,,戒指欄位(0M),
all,1,lineage,2019-12-01,,,,,,all,linworld_global,userpotentialenchant,,extract,linworld_global,userpotentialenchant,,,,,,,,,尚未確定(0M),
all,1,lineage,2019-12-01,,,,,,all,linworld_global,wizard_coin,,extract,linworld_global,wizard_coin,,,,,,,,,尚未確定(0M),
all,1,lineage,2019-12-01,,,,,,all,linworld_global,wizard_coin2,,extract,linworld_global,wizard_coin2,,,,,,,,,尚未確定(0M),
all,1,lineage,2019-12-01,,,,,,all,linworld_global,world_contents_data,,extract,linworld_global,world_contents_data,,,,,,,,,尚未確定(0M),
grammar,1,lineage,2019-12-01,,extract,init,onliontimebycharacter,uid,all,linworld_global,achievement_completed_achievement,user_uid,extract,linworld_global,achievement_completed_achievement,,,,,,,,,成就完成(大於10M),
grammar,1,lineage,2019-12-01,,extract,init,onliontimebycharacter,uid,all,linworld_global,achievement_criteria_progress,user_uid,extract,linworld_global,achievement_criteria_progress,,,,,,,,,成就進行(大於10M),
grammar,1,lineage,2019-12-01,,extract,init,onliontimebycharacter,uid,all,linworld_global,arenauser,userid,extract,linworld_global,arenauser,,,,,,,,,競技場角色?(大於1M),
grammar,1,lineage,2019-12-01,,extract,init,onliontimebycharacter,user_id,all,linworld_global,bookmark,user_id,extract,linworld_global,bookmark,,,,,,,,,尚未確定(大於10M),
grammar,1,lineage,2019-12-01,,extract,init,onliontimebycharacter,user_id,all,linworld_global,col_score,user_id,extract,linworld_global,col_score,,,,,,,,,尚未確定(小於500K),
grammar,1,lineage,2019-12-01,,extract,init,onliontimebycharacter,user_id,all,linworld_global,lmail,from_id,extract,linworld_global,lmail_from,,,,,,,,,信件_寄件者(大於1M),
grammar,1,lineage,2019-12-01,,extract,init,onliontimebycharacter,user_id,all,linworld_global,lmail,to_id,extract,linworld_global,lmail_to,,,,,,,,,信件_收件者(大於1M),
grammar,1,lineage,2019-12-01,,extract,init,onliontimebycharacter,user_id,all,linworld_global,map_time_limit,user_id,extract,linworld_global,map_time_limit,,,,,,,,,尚未確定(小於500K),
grammar,1,lineage,2019-12-01,,extract,init,onliontimebycharacter,uid,all,linworld_global,monsterbookv2_book,user_uid,extract,linworld_global,monsterbookv2_book,,,,,,,,,蒐集冊?(大於10M),
grammar,1,lineage,2019-12-01,,extract,init,onliontimebycharacter,uid,all,linworld_global,monsterbookv2_card,user_uid,extract,linworld_global,monsterbookv2_card,,,,,,,,,蒐集冊?(大於100M),
grammar,1,lineage,2019-12-01,,extract,init,onliontimebycharacter,uid,all,linworld_global,monsterbookv2_deck,user_uid,extract,linworld_global,monsterbookv2_deck,,,,,,,,,蒐集冊?(大於10M),
grammar,1,lineage,2019-12-01,,extract,init,onliontimebycharacter,user_id,all,linworld_global,npc,master_name,extract,linworld_global,npc,,,,,,,,,寵物(小於500K),
grammar,1,lineage,2019-12-01,,extract,init,onliontimebycharacter,user_id,all,linworld_global,pk,pk_name,extract,linworld_global,pk,,,,,,,,,尚未確定(小於500K),
grammar,1,lineage,2019-12-01,,extract,init,onliontimebycharacter,user_id,all,linworld_global,pledge_warehouse_history,user_id,extract,linworld_global,pledge_warehouse_history,,,,,,,,,尚未確定(大於1M),
grammar,1,lineage,2019-12-01,,extract,init,onliontimebycharacter,uid,all,linworld_global,quest,userid,extract,linworld_global,quest,,,,,,,,,任務(大於100M),
grammar,1,lineage,2019-12-01,,extract,init,onliontimebycharacter,uid,all,linworld_global,user_buddies,user_uid,extract,linworld_global,user_buddies,,,,,,,,,尚未確定(大於1M),
grammar,1,lineage,2019-12-01,,extract,init,onliontimebycharacter,user_id,all,linworld_global,user_buddy,user_id,extract,linworld_global,user_buddy,,,,,,,,,好友名單(0M),
grammar,1,lineage,2019-12-01,,extract,init,onliontimebycharacter,user_id,all,linworld_global,user_data,user_id,extract,linworld_global,user_data,,,,,,,,,角色資料(大於100M),
grammar,1,lineage,2019-12-01,,extract,init,onliontimebycharacter,uid,all,linworld_global,user_elemental_speciality,uid,extract,linworld_global,user_elemental_speciality,,,,,,,,,尚未確定(小於500K),
grammar,1,lineage,2019-12-01,,extract,init,onliontimebycharacter,uid,all,linworld_global,user_equipcurrentset,charuid,extract,linworld_global,user_equipcurrentset,,,,,,,,,尚未確定(大於1M),
grammar,1,lineage,2019-12-01,,extract,init,onliontimebycharacter,uid,all,linworld_global,user_equipset,charuid,extract,linworld_global,user_equipset,,,,,,,,,尚未確定(大於1M),
grammar,1,lineage,2019-12-01,,extract,init,onliontimebycharacter,user_id,all,linworld_global,user_exclude,user_id,extract,linworld_global,user_exclude,,,,,,,,,黑名單?(大於1M),
grammar,1,lineage,2019-12-01,,extract,init,onliontimebycharacter,uid,all,linworld_global,user_exp_recovery,uid,extract,linworld_global,user_exp_recovery,,,,,,,,,尚未確定(大於1M),
grammar,1,lineage,2019-12-01,,extract,init,onliontimebycharacter,user_id,all,linworld_global,user_item,user_id,extract,linworld_global,user_item,,,,,,,,,道具(大於1G),
grammar,1,lineage,2019-12-01,,extract,init,onliontimebycharacter,user_id,all,linworld_global,user_mail,to_id,extract,linworld_global,user_mail,,,,,,,,,信件(舊)(小於500K),
grammar,1,lineage,2019-12-01,,extract,init,onliontimebycharacter,user_id,all,linworld_global,user_petball,user_id,extract,linworld_global,user_petball,,,,,,,,,魔法娃娃(0M),
grammar,1,lineage,2019-12-01,,extract,init,onliontimebycharacter,user_id,all,linworld_global,user_quats,user_id,extract,linworld_global,user_quats,,,,,,,,,尚未確定(大於10M),
grammar,1,lineage,2019-12-01,,extract,init,onliontimebycharacter,uid,all,linworld_global,user_settings,user_uid,extract,linworld_global,user_settings,,,,,,,,,尚未確定(大於100M),
grammar,1,lineage,2019-12-01,,extract,init,onliontimebycharacter,uid,all,linworld_global,user_spellbuff,user_uid,extract,linworld_global,user_spellbuff,,,,,,,,,尚未確定(大於1M),
grammar,1,lineage,2019-12-01,,extract,init,onliontimebycharacter,uid,all,linworld_global,user_spells,character_id,extract,linworld_global,user_spells,,,,,,,,,戰士技能欄位(大於10M),
grammar,1,lineage,2019-12-01,,extract,init,onliontimebycharacter,uid,all,linworld_global,user_status,user_uid,extract,linworld_global,user_status,,,,,,,,,尚未確定(小於500K),
grammar,1,lineage,2019-12-01,,extract,init,onliontimebycharacter,user_id,all,linworld_global,user_town,user_id,extract,linworld_global,user_town,,,,,,,,,登出入紀錄(大於10M),
grammar,1,lineage,2019-12-01,,extract,init,onliontimebycharacter,user_id,all,linworld_global,user_ware,user_id,extract,linworld_global,user_ware,,,,,,,,,角色專用倉庫(小於500K),
grammar,1,lineage,2019-12-01,,extract,init,onliontimebycharacter,uid,all,linworld_global,userchargedtimemap,useruid,extract,linworld_global,userchargedtimemap,,,,,,,,,尚未確定(小於500K),
grammar,1,lineage,2019-12-01,,extract,init,onliontimebycharacter,uid,all,linworld_global,usereinhasadpointinfo,useruid,extract,linworld_global,usereinhasadpointinfo,,,,,,,,,尚未確定(大於1M),
grammar,1,lineage,2019-12-01,,extract,init,onliontimebycharacter,uid,all,linworld_global,userextensionslots,useruid,extract,linworld_global,userextensionslots,,,,,,,,,尚未確定(小於500K),
grammar,1,lineage,2019-12-01,,extract,init,onliontimebycharacter,uid,all,linworld_global,userpreviouslocation,useruid,extract,linworld_global,userpreviouslocation,,,,,,,,,尚未確定(大於1M),
grammar,1,lineage,2019-12-01,,extract,init,onliontimebycharacter,uid,all,linworld_global,userrecentplay,owneruseruid,extract,linworld_global,userrecentplay,,,,,,,,,尚未確定(小於500K),
grammar,1,lineage,2019-12-01,,extract,init,onliontimebycharacter,uid,all,linworld_global,userrevenge,owneruseruid,extract,linworld_global,userrevenge,,,,,,,,,尚未確定(小於500K),
grammar,1,lineage,2019-12-01,,extract,init,onliontimebycharacter,uid,all,linworld_global,usersavedelay,useruid,extract,linworld_global,usersavedelay,,,,,,,,,尚未確定(小於500K),
log,1,lineage,2019-12-01,,,,,,all,linworld_global,monitoring_item_amount,,extract,linworld_global,monitoring_item_amount,,registertime,registertime,0,1,,,,道具總量記錄(大於10M),
log,1,lineage,2019-12-01,,,,,,all,linworld_global,trade_history,,extract,linworld_global,trade_history,,time,time,0,1,,,,個人商店交易記錄(保留一個月)(大於1M),
log,1,lineage,2019-12-01,,,,,,all,linworld_global,user_data_trace,,extract,linworld_global,user_data_trace,,when_taken,when_taken,0,1,,,,後端救角色功能資料依據(大於100M),
