type,layers,gamename,startdate,enddate,parenthivedb,parentdbname,parenttablename,parentcolumnname,orihivedb,oridbname,oritablename,oricolumnname,hivedb,dbname,tablename,columnname,logstartdate,logenddate,dtbeforeday,dtafterday,logfilename,log,sql,memo,memo2
all,1,lineage,2019-12-01,,,,,,all,linworld_f2p,account_contents_data,,extract,linworld_f2p,account_contents_data,,,,,,,,,尚未確定(大於10M),
all,1,lineage,2019-12-01,,,,,,all,linworld_f2p,account_extra,,extract,linworld_f2p,account_extra,,,,,,,,,尚未確定(0M),
all,1,lineage,2019-12-01,,,,,,all,linworld_f2p,admin_ranking,,extract,linworld_f2p,admin_ranking,,,,,,,,,尚未確定(0M),
all,1,lineage,2019-12-01,,,,,,all,linworld_f2p,agit,,extract,linworld_f2p,agit,,,,,,,,,血盟小屋(小於500K),
all,1,lineage,2019-12-01,,,,,,all,linworld_f2p,agit_giran,,extract,linworld_f2p,agit_giran,,,,,,,,,尚未確定(0M),
all,1,lineage,2019-12-01,,,,,,all,linworld_f2p,alliance,,extract,linworld_f2p,alliance,,,,,,,,,同盟資訊?(小於500K),
all,1,lineage,2019-12-01,,,,,,all,linworld_f2p,arcaactivation,,extract,linworld_f2p,arcaactivation,,,,,,,,,尚未確定(小於500K),
all,1,lineage,2019-12-01,,,,,,all,linworld_f2p,bbs,,extract,linworld_f2p,bbs,,,,,,,,,尚未確定(小於500K),
all,1,lineage,2019-12-01,,,,,,all,linworld_f2p,bbs_burned,,extract,linworld_f2p,bbs_burned,,,,,,,,,尚未確定(0M),
all,1,lineage,2019-12-01,,,,,,all,linworld_f2p,bbs_cgiran,,extract,linworld_f2p,bbs_cgiran,,,,,,,,,尚未確定(0M),
all,1,lineage,2019-12-01,,,,,,all,linworld_f2p,bbs_ckent,,extract,linworld_f2p,bbs_ckent,,,,,,,,,尚未確定(0M),
all,1,lineage,2019-12-01,,,,,,all,linworld_f2p,bbs_corc,,extract,linworld_f2p,bbs_corc,,,,,,,,,尚未確定(0M),
all,1,lineage,2019-12-01,,,,,,all,linworld_f2p,bbs_cwinda,,extract,linworld_f2p,bbs_cwinda,,,,,,,,,尚未確定(0M),
all,1,lineage,2019-12-01,,,,,,all,linworld_f2p,bbs_elven,,extract,linworld_f2p,bbs_elven,,,,,,,,,尚未確定(0M),
all,1,lineage,2019-12-01,,,,,,all,linworld_f2p,blood_pledge,,extract,linworld_f2p,blood_pledge,,,,,,,,,血盟(大於1M),
all,1,lineage,2019-12-01,,,,,,all,linworld_f2p,blood_pledge_join,,extract,linworld_f2p,blood_pledge_join,,,,,,,,,尚未確定(小於500K),
all,1,lineage,2019-12-01,,,,,,all,linworld_f2p,blood_pledge_rest_exp_reduce_effciency,,extract,linworld_f2p,blood_pledge_rest_exp_reduce_effciency,,,,,,,,,尚未確定(小於500K),
all,1,lineage,2019-12-01,,,,,,all,linworld_f2p,booking_data,,extract,linworld_f2p,booking_data,,,,,,,,,尚未確定(0M),
all,1,lineage,2019-12-01,,,,,,all,linworld_f2p,bookmark_store,,extract,linworld_f2p,bookmark_store,,,,,,,,,座標記憶(小於500K),
all,1,lineage,2019-12-01,,,,,,all,linworld_f2p,castle,,extract,linworld_f2p,castle,,,,,,,,,城堡(小於500K),
all,1,lineage,2019-12-01,,,,,,all,linworld_f2p,castle_npc,,extract,linworld_f2p,castle_npc,,,,,,,,,尚未確定(小於500K),
all,1,lineage,2019-12-01,,,,,,all,linworld_f2p,char_change,,extract,linworld_f2p,char_change,,,,,,,,,尚未確定(0M),
all,1,lineage,2019-12-01,,,,,,all,linworld_f2p,char_name_change,,extract,linworld_f2p,char_name_change,,,,,,,,,尚未確定(大於10M),
all,1,lineage,2019-12-01,,,,,,all,linworld_f2p,cn_rank_adena,,extract,linworld_f2p,cn_rank_adena,,,,,,,,,尚未確定(小於500K),
all,1,lineage,2019-12-01,,,,,,all,linworld_f2p,cn_rank_character,,extract,linworld_f2p,cn_rank_character,,,,,,,,,尚未確定(小於500K),
all,1,lineage,2019-12-01,,,,,,all,linworld_f2p,cn_rank_item_enchant,,extract,linworld_f2p,cn_rank_item_enchant,,,,,,,,,尚未確定(小於500K),
all,1,lineage,2019-12-01,,,,,,all,linworld_f2p,cn_rank_payment,,extract,linworld_f2p,cn_rank_payment,,,,,,,,,尚未確定(小於500K),
all,1,lineage,2019-12-01,,,,,,all,linworld_f2p,cn_rank_pk,,extract,linworld_f2p,cn_rank_pk,,,,,,,,,尚未確定(小於500K),
all,1,lineage,2019-12-01,,,,,,all,linworld_f2p,cn_rank_pledge,,extract,linworld_f2p,cn_rank_pledge,,,,,,,,,尚未確定(小於500K),
all,1,lineage,2019-12-01,,,,,,all,linworld_f2p,col_reward_item,,extract,linworld_f2p,col_reward_item,,,,,,,,,海戰設定表格(小於500K),
all,1,lineage,2019-12-01,,,,,,all,linworld_f2p,col_reward_score,,extract,linworld_f2p,col_reward_score,,,,,,,,,海戰玩家排名(小於500K),
all,1,lineage,2019-12-01,,,,,,all,linworld_f2p,col_reward_time,,extract,linworld_f2p,col_reward_time,,,,,,,,,海戰更新時間(小於500K),
all,1,lineage,2019-12-01,,,,,,all,linworld_f2p,craft_success_stats,,extract,linworld_f2p,craft_success_stats,,,,,,,,,尚未確定(小於500K),
all,1,lineage,2019-12-01,,,,,,all,linworld_f2p,curuser,,extract,linworld_f2p,curuser,,,,,,,,,尚未確定(0M),
all,1,lineage,2019-12-01,,,,,,all,linworld_f2p,deckrancheck,,extract,linworld_f2p,deckrancheck,,,,,,,,,尚未確定(0M),
all,1,lineage,2019-12-01,,,,,,all,linworld_f2p,delete_user_item_0_4,,extract,linworld_f2p,delete_user_item_0_4,,,,,,,,,尚未確定(大於1M),
all,1,lineage,2019-12-01,,,,,,all,linworld_f2p,delete_user_item_2,,extract,linworld_f2p,delete_user_item_2,,,,,,,,,尚未確定(小於500K),
all,1,lineage,2019-12-01,,,,,,all,linworld_f2p,dogfight,,extract,linworld_f2p,dogfight,,,,,,,,,尚未確定(0M),
all,1,lineage,2019-12-01,,,,,,all,linworld_f2p,drawing_sgradehistory,,extract,linworld_f2p,drawing_sgradehistory,,,,,,,,,尚未確定(小於500K),
all,1,lineage,2019-12-01,,,,,,all,linworld_f2p,emblem,,extract,linworld_f2p,emblem,,,,,,,,,尚未確定(大於1M),
all,1,lineage,2019-12-01,,,,,,all,linworld_f2p,event_score,,extract,linworld_f2p,event_score,,,,,,,,,尚未確定(小於500K),
all,1,lineage,2019-12-01,,,,,,all,linworld_f2p,eventexp,,extract,linworld_f2p,eventexp,,,,,,,,,尚未確定(0M),
all,1,lineage,2019-12-01,,,,,,all,linworld_f2p,furniture,,extract,linworld_f2p,furniture,,,,,,,,,傢俱(小於500K),
all,1,lineage,2019-12-01,,,,,,all,linworld_f2p,game_time,,extract,linworld_f2p,game_time,,,,,,,,,尚未確定(小於500K),
all,1,lineage,2019-12-01,,,,,,all,linworld_f2p,gp_npc_match,,extract,linworld_f2p,gp_npc_match,,,,,,,,,尚未確定(小於500K),
all,1,lineage,2019-12-01,,,,,,all,linworld_f2p,inn,,extract,linworld_f2p,inn,,,,,,,,,尚未確定(小於500K),
all,1,lineage,2019-12-01,,,,,,all,linworld_f2p,ip_trace,,extract,linworld_f2p,ip_trace,,,,,,,,,尚未確定(0M),
all,1,lineage,2019-12-01,,,,,,all,linworld_f2p,item_boost,,extract,linworld_f2p,item_boost,,,,,,,,,尚未確定(0M),
all,1,lineage,2019-12-01,,,,,,all,linworld_f2p,item_cost,,extract,linworld_f2p,item_cost,,,,,,,,,尚未確定(0M),
all,1,lineage,2019-12-01,,,,,,all,linworld_f2p,item_desc,,extract,linworld_f2p,item_desc,,,,,,,,,道具資訊(對照表)?(大於1M),
all,1,lineage,2019-12-01,,,,,,all,linworld_f2p,item_magic_attr,,extract,linworld_f2p,item_magic_attr,,,,,,,,,尚未確定(小於500K),
all,1,lineage,2019-12-01,,,,,,all,linworld_f2p,item_rental,,extract,linworld_f2p,item_rental,,,,,,,,,尚未確定(0M),
all,1,lineage,2019-12-01,,,,,,all,linworld_f2p,item_seal,,extract,linworld_f2p,item_seal,,,,,,,,,尚未確定(0M),
all,1,lineage,2019-12-01,,,,,,all,linworld_f2p,itemname,,extract,linworld_f2p,itemname,,,,,,,,,尚未確定(0M),
all,1,lineage,2019-12-01,,,,,,all,linworld_f2p,lastrace,,extract,linworld_f2p,lastrace,,,,,,,,,尚未確定(小於500K),
all,1,lineage,2019-12-01,,,,,,all,linworld_f2p,log_drawing_daily,,extract,linworld_f2p,log_drawing_daily,,,,,,,,,尚未確定(大於10M),
all,1,lineage,2019-12-01,,,,,,all,linworld_f2p,merchantlimitgoods,,extract,linworld_f2p,merchantlimitgoods,,,,,,,,,尚未確定(小於500K),
all,1,lineage,2019-12-01,,,,,,all,linworld_f2p,mobile_user,,extract,linworld_f2p,mobile_user,,,,,,,,,尚未確定(0M),
all,1,lineage,2019-12-01,,,,,,all,linworld_f2p,monitoring_item_amount,,extract,linworld_f2p,monitoring_item_amount,,,,,,,,,尚未確定(大於100M),
all,1,lineage,2019-12-01,,,,,,all,linworld_f2p,noticecontent,,extract,linworld_f2p,noticecontent,,,,,,,,,尚未確定(0M),
all,1,lineage,2019-12-01,,,,,,all,linworld_f2p,npc_item,,extract,linworld_f2p,npc_item,,,,,,,,,尚未確定(0M),
all,1,lineage,2019-12-01,,,,,,all,linworld_f2p,npc_lastrecord,,extract,linworld_f2p,npc_lastrecord,,,,,,,,,尚未確定(0M),
all,1,lineage,2019-12-01,,,,,,all,linworld_f2p,orc_server_exp,,extract,linworld_f2p,orc_server_exp,,,,,,,,,尚未確定(0M),
all,1,lineage,2019-12-01,,,,,,all,linworld_f2p,pledge_match_making_enrollment,,extract,linworld_f2p,pledge_match_making_enrollment,,,,,,,,,尚未確定(大於1M),
all,1,lineage,2019-12-01,,,,,,all,linworld_f2p,pledge_member_info,,extract,linworld_f2p,pledge_member_info,,,,,,,,,血盟成員資訊?(大於10M),
all,1,lineage,2019-12-01,,,,,,all,linworld_f2p,pledge_name_change,,extract,linworld_f2p,pledge_name_change,,,,,,,,,尚未確定(小於500K),
all,1,lineage,2019-12-01,,,,,,all,linworld_f2p,pledge_watch_list,,extract,linworld_f2p,pledge_watch_list,,,,,,,,,尚未確定(小於500K),
all,1,lineage,2019-12-01,,,,,,all,linworld_f2p,race,,extract,linworld_f2p,race,,,,,,,,,尚未確定(0M),
all,1,lineage,2019-12-01,,,,,,all,linworld_f2p,race2,,extract,linworld_f2p,race2,,,,,,,,,尚未確定(大於1M),
all,1,lineage,2019-12-01,,,,,,all,linworld_f2p,recovery_item,,extract,linworld_f2p,recovery_item,,,,,,,,,尚未確定(大於10M),
all,1,lineage,2019-12-01,,,,,,all,linworld_f2p,regnpc,,extract,linworld_f2p,regnpc,,,,,,,,,尚未確定(0M),
all,1,lineage,2019-12-01,,,,,,all,linworld_f2p,server_value,,extract,linworld_f2p,server_value,,,,,,,,,World資訊?(小於500K),
all,1,lineage,2019-12-01,,,,,,all,linworld_f2p,servernum,,extract,linworld_f2p,servernum,,,,,,,,,World編號?(小於500K),
all,1,lineage,2019-12-01,,,,,,all,linworld_f2p,siege_bloodpledge_point,,extract,linworld_f2p,siege_bloodpledge_point,,,,,,,,,攻城戰相關(小於500K),
all,1,lineage,2019-12-01,,,,,,all,linworld_f2p,siege_castle_history,,extract,linworld_f2p,siege_castle_history,,,,,,,,,攻城戰相關(小於500K),
all,1,lineage,2019-12-01,,,,,,all,linworld_f2p,siege_castle_property,,extract,linworld_f2p,siege_castle_property,,,,,,,,,攻城戰相關(小於500K),
all,1,lineage,2019-12-01,,,,,,all,linworld_f2p,sihon_tower_rank,,extract,linworld_f2p,sihon_tower_rank,,,,,,,,,尚未確定(0M),
all,1,lineage,2019-12-01,,,,,,all,linworld_f2p,sihon_tower_rewarditem,,extract,linworld_f2p,sihon_tower_rewarditem,,,,,,,,,尚未確定(小於500K),
all,1,lineage,2019-12-01,,,,,,all,linworld_f2p,sms_buffer,,extract,linworld_f2p,sms_buffer,,,,,,,,,尚未確定(0M),
all,1,lineage,2019-12-01,,,,,,all,linworld_f2p,smsbuffer_log,,extract,linworld_f2p,smsbuffer_log,,,,,,,,,尚未確定(0M),
all,1,lineage,2019-12-01,,,,,,all,linworld_f2p,st_pk,,extract,linworld_f2p,st_pk,,,,,,,,,尚未確定(0M),
all,1,lineage,2019-12-01,,,,,,all,linworld_f2p,sysdiagrams,,extract,linworld_f2p,sysdiagrams,,,,,,,,,尚未確定(0M),
all,1,lineage,2019-12-01,,,,,,all,linworld_f2p,tamtrx,,extract,linworld_f2p,tamtrx,,,,,,,,,尚未確定(大於1M),
all,1,lineage,2019-12-01,,,,,,all,linworld_f2p,tbl_tencent_dayitem,,extract,linworld_f2p,tbl_tencent_dayitem,,,,,,,,,尚未確定(大於10M),
all,1,lineage,2019-12-01,,,,,,all,linworld_f2p,tencent_bm,,extract,linworld_f2p,tencent_bm,,,,,,,,,尚未確定(小於500K),
all,1,lineage,2019-12-01,,,,,,all,linworld_f2p,total_user,,extract,linworld_f2p,total_user,,,,,,,,,"線上人數統計,每5分鐘新增(大於10M)",
all,1,lineage,2019-12-01,,,,,,all,linworld_f2p,town,,extract,linworld_f2p,town,,,,,,,,,尚未確定(大於1M),
all,1,lineage,2019-12-01,,,,,,all,linworld_f2p,trade_item,,extract,linworld_f2p,trade_item,,,,,,,,,個人商店販賣道具(保留一個月)(小於500K),
all,1,lineage,2019-12-01,,,,,,all,linworld_f2p,trade_user,,extract,linworld_f2p,trade_user,,,,,,,,,個人商店開設資料(保留一個月)(小於500K),
all,1,lineage,2019-12-01,,,,,,all,linworld_f2p,user_bank,,extract,linworld_f2p,user_bank,,,,,,,,,尚未確定(小於500K),
all,1,lineage,2019-12-01,,,,,,all,linworld_f2p,user_data_rev,,extract,linworld_f2p,user_data_rev,,,,,,,,,尚未確定(小於500K),
all,1,lineage,2019-12-01,,,,,,all,linworld_f2p,user_mentors,,extract,linworld_f2p,user_mentors,,,,,,,,,尚未確定(小於500K),
all,1,lineage,2019-12-01,,,,,,all,linworld_f2p,user_panelty,,extract,linworld_f2p,user_panelty,,,,,,,,,尚未確定(小於500K),
all,1,lineage,2019-12-01,,,,,,all,linworld_f2p,world_contents_data,,extract,linworld_f2p,world_contents_data,,,,,,,,,尚未確定(小於500K),
grammar,1,lineage,2019-12-01,,extract,init,lineagef2p_onliontimebycharacter,uid,all,linworld_f2p,achievement_completed_achievement,user_uid,extract,linworld_f2p,achievement_completed_achievement,,,,,,,,,成就完成(大於10M),
grammar,1,lineage,2019-12-01,,extract,init,lineagef2p_onliontimebycharacter,uid,all,linworld_f2p,achievement_criteria_progress,user_uid,extract,linworld_f2p,achievement_criteria_progress,,,,,,,,,成就進行(大於10M),
grammar,1,lineage,2019-12-01,,extract,init,lineagef2p_onliontimebycharacter,uid,all,linworld_f2p,arenauser,userid,extract,linworld_f2p,arenauser,,,,,,,,,競技場角色?(大於1M),
grammar,1,lineage,2019-12-01,,extract,init,lineagef2p_onliontimebycharacter,user_id,all,linworld_f2p,bookmark,user_id,extract,linworld_f2p,bookmark,,,,,,,,,尚未確定(大於10M),
grammar,1,lineage,2019-12-01,,extract,init,lineagef2p_onliontimebycharacter,user_id,all,linworld_f2p,col_score,user_id,extract,linworld_f2p,col_score,,,,,,,,,尚未確定(小於500K),
grammar,1,lineage,2019-12-01,,extract,init,lineagef2p_onliontimebycharacter,user_id,all,linworld_f2p,lmail,from_id,extract,linworld_f2p,lmail_from,,,,,,,,,信件_寄件者(大於10M),
grammar,1,lineage,2019-12-01,,extract,init,lineagef2p_onliontimebycharacter,user_id,all,linworld_f2p,lmail,to_id,extract,linworld_f2p,lmail_to,,,,,,,,,信件_收件者(大於10M),
grammar,1,lineage,2019-12-01,,extract,init,lineagef2p_onliontimebycharacter,user_id,all,linworld_f2p,map_time_limit,user_id,extract,linworld_f2p,map_time_limit,,,,,,,,,尚未確定(小於500K),
grammar,1,lineage,2019-12-01,,extract,init,lineagef2p_onliontimebycharacter,uid,all,linworld_f2p,monsterbookv2_book,user_uid,extract,linworld_f2p,monsterbookv2_book,,,,,,,,,蒐集冊?(大於10M),
grammar,1,lineage,2019-12-01,,extract,init,lineagef2p_onliontimebycharacter,uid,all,linworld_f2p,monsterbookv2_card,user_uid,extract,linworld_f2p,monsterbookv2_card,,,,,,,,,蒐集冊?(大於100M),
grammar,1,lineage,2019-12-01,,extract,init,lineagef2p_onliontimebycharacter,uid,all,linworld_f2p,monsterbookv2_deck,user_uid,extract,linworld_f2p,monsterbookv2_deck,,,,,,,,,蒐集冊?(大於100M),
grammar,1,lineage,2019-12-01,,extract,init,lineagef2p_onliontimebycharacter,user_id,all,linworld_f2p,npc,master_name,extract,linworld_f2p,npc,,,,,,,,,寵物(大於10M),
grammar,1,lineage,2019-12-01,,extract,init,lineagef2p_onliontimebycharacter,user_id,all,linworld_f2p,pk,pk_name,extract,linworld_f2p,pk,,,,,,,,,尚未確定(小於500K),
grammar,1,lineage,2019-12-01,,extract,init,lineagef2p_onliontimebycharacter,user_id,all,linworld_f2p,pledge_warehouse_history,user_id,extract,linworld_f2p,pledge_warehouse_history,,,,,,,,,尚未確定(大於1M),
grammar,1,lineage,2019-12-01,,extract,init,lineagef2p_onliontimebycharacter,uid,all,linworld_f2p,quest,userid,extract,linworld_f2p,quest,,,,,,,,,任務(大於10M),
grammar,1,lineage,2019-12-01,,extract,init,lineagef2p_onliontimebycharacter,user_id,all,linworld_f2p,sihon_tower_history_rank,user_id,extract,linworld_f2p,sihon_tower_history_rank,,,,,,,,,尚未確定(小於500K),
grammar,1,lineage,2019-12-01,,extract,init,lineagef2p_onliontimebycharacter,uid,all,linworld_f2p,user_buddies,user_uid,extract,linworld_f2p,user_buddies,,,,,,,,,尚未確定(小於500K),
grammar,1,lineage,2019-12-01,,extract,init,lineagef2p_onliontimebycharacter,user_id,all,linworld_f2p,user_buddy,user_id,extract,linworld_f2p,user_buddy,,,,,,,,,好友名單(大於1M),
grammar,1,lineage,2019-12-01,,extract,init,lineagef2p_onliontimebycharacter,user_id,all,linworld_f2p,user_buddy_split,user_id,extract,linworld_f2p,user_buddy_split,,,,,,,,,尚未確定(大於1M),
grammar,1,lineage,2019-12-01,,extract,init,lineagef2p_onliontimebycharacter,user_id,all,linworld_f2p,user_data,user_id,extract,linworld_f2p,user_data,,,,,,,,,角色資料(大於1G),
grammar,1,lineage,2019-12-01,,extract,init,lineagef2p_onliontimebycharacter,uid,all,linworld_f2p,user_elemental_speciality,uid,extract,linworld_f2p,user_elemental_speciality,,,,,,,,,尚未確定(小於500K),
grammar,1,lineage,2019-12-01,,extract,init,lineagef2p_onliontimebycharacter,uid,all,linworld_f2p,user_equipcurrentset,charuid,extract,linworld_f2p,user_equipcurrentset,,,,,,,,,尚未確定(大於1M),
grammar,1,lineage,2019-12-01,,extract,init,lineagef2p_onliontimebycharacter,uid,all,linworld_f2p,user_equipset,charuid,extract,linworld_f2p,user_equipset,,,,,,,,,尚未確定(大於1M),
grammar,1,lineage,2019-12-01,,extract,init,lineagef2p_onliontimebycharacter,user_id,all,linworld_f2p,user_exclude,user_id,extract,linworld_f2p,user_exclude,,,,,,,,,黑名單?(大於10M),
grammar,1,lineage,2019-12-01,,extract,init,lineagef2p_onliontimebycharacter,uid,all,linworld_f2p,user_exp_recovery,uid,extract,linworld_f2p,user_exp_recovery,,,,,,,,,尚未確定(大於10M),
grammar,1,lineage,2019-12-01,,extract,init,lineagef2p_onliontimebycharacter,user_id,all,linworld_f2p,user_item,user_id,extract,linworld_f2p,user_item,,,,,,,,,道具(大於1G),
grammar,1,lineage,2019-12-01,,extract,init,lineagef2p_onliontimebycharacter,user_id,all,linworld_f2p,user_mail,to_id,extract,linworld_f2p,user_mail,,,,,,,,,信件(舊)(小於500K),
grammar,1,lineage,2019-12-01,,extract,init,lineagef2p_onliontimebycharacter,user_id,all,linworld_f2p,user_petball,user_id,extract,linworld_f2p,user_petball,,,,,,,,,魔法娃娃(0M),
grammar,1,lineage,2019-12-01,,extract,init,lineagef2p_onliontimebycharacter,user_id,all,linworld_f2p,user_quats,user_id,extract,linworld_f2p,user_quats,,,,,,,,,尚未確定(大於1G),
grammar,1,lineage,2019-12-01,,extract,init,lineagef2p_onliontimebycharacter,uid,all,linworld_f2p,user_settings,user_uid,extract,linworld_f2p,user_settings,,,,,,,,,尚未確定(大於100M),
grammar,1,lineage,2019-12-01,,extract,init,lineagef2p_onliontimebycharacter,uid,all,linworld_f2p,user_spellbuff,user_uid,extract,linworld_f2p,user_spellbuff,,,,,,,,,尚未確定(小於500K),
grammar,1,lineage,2019-12-01,,extract,init,lineagef2p_onliontimebycharacter,uid,all,linworld_f2p,user_spells,character_id,extract,linworld_f2p,user_spells,,,,,,,,,戰士技能欄位(大於1M),
grammar,1,lineage,2019-12-01,,extract,init,lineagef2p_onliontimebycharacter,uid,all,linworld_f2p,user_status,user_uid,extract,linworld_f2p,user_status,,,,,,,,,尚未確定(0M),
grammar,1,lineage,2019-12-01,,extract,init,lineagef2p_onliontimebycharacter,user_id,all,linworld_f2p,user_town,user_id,extract,linworld_f2p,user_town,,,,,,,,,登出入紀錄(大於100M),
grammar,1,lineage,2019-12-01,,extract,init,lineagef2p_onliontimebycharacter,user_id,all,linworld_f2p,user_ware,user_id,extract,linworld_f2p,user_ware,,,,,,,,,角色專用倉庫(大於1M),
grammar,1,lineage,2019-12-01,,extract,init,lineagef2p_onliontimebycharacter,uid,all,linworld_f2p,userextensionslots,useruid,extract,linworld_f2p,userextensionslots,,,,,,,,,尚未確定(大於1M),
log,1,lineage,2019-12-01,,,,,,all,linworld_f2p,log_sihon_rank,,extract,linworld_f2p,log_sihon_rank,,dtdate,dtdate,0,1,,,,尚未確定(小於500K),
log,1,lineage,2019-12-01,,,,,,all,linworld_f2p,trade_history,,extract,linworld_f2p,trade_history,,time,time,0,1,,,,個人商店交易記錄(保留一個月)(大於1M),
log,1,lineage,2019-12-01,,,,,,all,linworld_f2p,user_data_trace,,extract,linworld_f2p,user_data_trace,,when_taken,when_taken,0,1,,,,後端救角色功能資料依據(大於1G),
