type,layers,gamename,startdate,enddate,parenthivedb,parentdbname,parenttablename,parentcolumnname,orihivedb,oridbname,oritablename,oricolumnname,hivedb,dbname,tablename,columnname,logstartdate,logenddate,dtbeforeday,dtafterday,logfilename,log,sql,memo,memo2
all,1,mabi,2019-12-01,,,,,,all,itemshop,sst_carts,,extract,itemshop,sst_carts,,,,,,,,,尚未確定(0M),
all,1,mabi,2019-12-01,,,,,,all,itemshop,sst_categories,,extract,itemshop,sst_categories,,,,,,,,,尚未確定(小於500K),
all,1,mabi,2019-12-01,,,,,,all,itemshop,sst_categories_service_code,,extract,itemshop,sst_categories_service_code,,,,,,,,,尚未確定(小於500K),
all,1,mabi,2019-12-01,,,,,,all,itemshop,sst_coupon_map,,extract,itemshop,sst_coupon_map,,,,,,,,,尚未確定(0M),
all,1,mabi,2019-12-01,,,,,,all,itemshop,sst_customer_deliveries,,extract,itemshop,sst_customer_deliveries,,,,,,,,,尚未確定(0M),
all,1,mabi,2019-12-01,,,,,,all,itemshop,sst_customer_delivery_logs,,extract,itemshop,sst_customer_delivery_logs,,,,,,,,,尚未確定(0M),
all,1,mabi,2019-12-01,,,,,,all,itemshop,sst_customers_cart,,extract,itemshop,sst_customers_cart,,,,,,,,,尚未確定(大於1M),
all,1,mabi,2019-12-01,,,,,,all,itemshop,sst_customers_cart_extend,,extract,itemshop,sst_customers_cart_extend,,,,,,,,,尚未確定(0M),
all,1,mabi,2019-12-01,,,,,,all,itemshop,sst_gameserver,,extract,itemshop,sst_gameserver,,,,,,,,,尚未確定(小於500K),
all,1,mabi,2019-12-01,,,,,,all,itemshop,sst_keyword,,extract,itemshop,sst_keyword,,,,,,,,,尚未確定(0M),
all,1,mabi,2019-12-01,,,,,,all,itemshop,sst_keyword_types,,extract,itemshop,sst_keyword_types,,,,,,,,,尚未確定(0M),
all,1,mabi,2019-12-01,,,,,,all,itemshop,sst_keywords,,extract,itemshop,sst_keywords,,,,,,,,,尚未確定(0M),
all,1,mabi,2019-12-01,,,,,,all,itemshop,sst_log,,extract,itemshop,sst_log,,,,,,,,,尚未確定(大於1M),
all,1,mabi,2019-12-01,,,,,,all,itemshop,sst_lotteries,,extract,itemshop,sst_lotteries,,,,,,,,,尚未確定(0M),
all,1,mabi,2019-12-01,,,,,,all,itemshop,sst_lottery_histories,,extract,itemshop,sst_lottery_histories,,,,,,,,,尚未確定(0M),
all,1,mabi,2019-12-01,,,,,,all,itemshop,sst_lottery_issue_histories,,extract,itemshop,sst_lottery_issue_histories,,,,,,,,,尚未確定(0M),
all,1,mabi,2019-12-01,,,,,,all,itemshop,sst_lottery_issues,,extract,itemshop,sst_lottery_issues,,,,,,,,,尚未確定(0M),
all,1,mabi,2019-12-01,,,,,,all,itemshop,sst_lottery_item_histories,,extract,itemshop,sst_lottery_item_histories,,,,,,,,,尚未確定(0M),
all,1,mabi,2019-12-01,,,,,,all,itemshop,sst_lottery_item_properties,,extract,itemshop,sst_lottery_item_properties,,,,,,,,,尚未確定(0M),
all,1,mabi,2019-12-01,,,,,,all,itemshop,sst_lottery_item_property_histories,,extract,itemshop,sst_lottery_item_property_histories,,,,,,,,,尚未確定(0M),
all,1,mabi,2019-12-01,,,,,,all,itemshop,sst_lottery_items,,extract,itemshop,sst_lottery_items,,,,,,,,,尚未確定(0M),
all,1,mabi,2019-12-01,,,,,,all,itemshop,sst_lottery_properties,,extract,itemshop,sst_lottery_properties,,,,,,,,,尚未確定(0M),
all,1,mabi,2019-12-01,,,,,,all,itemshop,sst_lottery_type_configuration_histories,,extract,itemshop,sst_lottery_type_configuration_histories,,,,,,,,,尚未確定(0M),
all,1,mabi,2019-12-01,,,,,,all,itemshop,sst_lottery_type_configurations,,extract,itemshop,sst_lottery_type_configurations,,,,,,,,,尚未確定(0M),
all,1,mabi,2019-12-01,,,,,,all,itemshop,sst_lottery_types,,extract,itemshop,sst_lottery_types,,,,,,,,,尚未確定(0M),
all,1,mabi,2019-12-01,,,,,,all,itemshop,sst_option_compound_define,,extract,itemshop,sst_option_compound_define,,,,,,,,,尚未確定(0M),
all,1,mabi,2019-12-01,,,,,,all,itemshop,sst_option_compounds,,extract,itemshop,sst_option_compounds,,,,,,,,,尚未確定(0M),
all,1,mabi,2019-12-01,,,,,,all,itemshop,sst_options,,extract,itemshop,sst_options,,,,,,,,,尚未確定(0M),
all,1,mabi,2019-12-01,,,,,,all,itemshop,sst_order_activations,,extract,itemshop,sst_order_activations,,,,,,,,,尚未確定(大於100M),
all,1,mabi,2019-12-01,,,,,,all,itemshop,sst_order_cartinfo,,extract,itemshop,sst_order_cartinfo,,,,,,,,,尚未確定(0M),
all,1,mabi,2019-12-01,,,,,,all,itemshop,sst_order_deliveries,,extract,itemshop,sst_order_deliveries,,,,,,,,,尚未確定(0M),
all,1,mabi,2019-12-01,,,,,,all,itemshop,sst_order_details,,extract,itemshop,sst_order_details,,,,,,,,,遊戲商城訂單細節(大於100M),
all,1,mabi,2019-12-01,,,,,,all,itemshop,sst_order_options,,extract,itemshop,sst_order_options,,,,,,,,,尚未確定(0M),
all,1,mabi,2019-12-01,,,,,,all,itemshop,sst_order_payments,,extract,itemshop,sst_order_payments,,,,,,,,,訂單付款詳情?(與sst_orders筆數相同)(大於1G),
all,1,mabi,2019-12-01,,,,,,all,itemshop,sst_order_processes,,extract,itemshop,sst_order_processes,,,,,,,,,尚未確定(小於500K),
all,1,mabi,2019-12-01,,,,,,all,itemshop,sst_order_recive_info,,extract,itemshop,sst_order_recive_info,,,,,,,,,尚未確定(0M),
all,1,mabi,2019-12-01,,,,,,all,itemshop,sst_order_relation_cash,,extract,itemshop,sst_order_relation_cash,,,,,,,,,尚未確定(大於100M),
all,1,mabi,2019-12-01,,,,,,all,itemshop,sst_order_send_activation_logs,,extract,itemshop,sst_order_send_activation_logs,,,,,,,,,尚未確定(0M),
all,1,mabi,2019-12-01,,,,,,all,itemshop,sst_order_send_activations,,extract,itemshop,sst_order_send_activations,,,,,,,,,尚未確定(0M),
all,1,mabi,2019-12-01,,,,,,all,itemshop,sst_order_situation_monitoring,,extract,itemshop,sst_order_situation_monitoring,,,,,,,,,尚未確定(0M),
all,1,mabi,2019-12-01,,,,,,all,itemshop,sst_order_situation_of_options,,extract,itemshop,sst_order_situation_of_options,,,,,,,,,尚未確定(0M),
all,1,mabi,2019-12-01,,,,,,all,itemshop,sst_order_situation_of_package_products,,extract,itemshop,sst_order_situation_of_package_products,,,,,,,,,尚未確定(0M),
all,1,mabi,2019-12-01,,,,,,all,itemshop,sst_order_situations,,extract,itemshop,sst_order_situations,,,,,,,,,尚未確定(大於10M),
all,1,mabi,2019-12-01,,,,,,all,itemshop,sst_order_situations_by_time,,extract,itemshop,sst_order_situations_by_time,,,,,,,,,尚未確定(0M),
all,1,mabi,2019-12-01,,,,,,all,itemshop,sst_order_statistics,,extract,itemshop,sst_order_statistics,,,,,,,,,尚未確定(0M),
all,1,mabi,2019-12-01,,,,,,all,itemshop,sst_order_statistics_game_id,,extract,itemshop,sst_order_statistics_game_id,,,,,,,,,尚未確定(小於500K),
all,1,mabi,2019-12-01,,,,,,all,itemshop,sst_order_statistics_product_no,,extract,itemshop,sst_order_statistics_product_no,,,,,,,,,尚未確定(小於500K),
all,1,mabi,2019-12-01,,,,,,all,itemshop,sst_order_statistics_user,,extract,itemshop,sst_order_statistics_user,,,,,,,,,尚未確定(0M),
all,1,mabi,2019-12-01,,,,,,all,itemshop,sst_order_virtual_cash,,extract,itemshop,sst_order_virtual_cash,,,,,,,,,尚未確定(0M),
all,1,mabi,2019-12-01,,,,,,all,itemshop,sst_orders,,extract,itemshop,sst_orders,,,,,,,,,遊戲商城訂單(大於1G),
all,1,mabi,2019-12-01,,,,,,all,itemshop,sst_partner_suppliers,,extract,itemshop,sst_partner_suppliers,,,,,,,,,尚未確定(0M),
all,1,mabi,2019-12-01,,,,,,all,itemshop,sst_present_carts,,extract,itemshop,sst_present_carts,,,,,,,,,尚未確定(0M),
all,1,mabi,2019-12-01,,,,,,all,itemshop,sst_product_attribute,,extract,itemshop,sst_product_attribute,,,,,,,,,尚未確定(小於500K),
all,1,mabi,2019-12-01,,,,,,all,itemshop,sst_product_category_relations,,extract,itemshop,sst_product_category_relations,,,,,,,,,尚未確定(小於500K),
all,1,mabi,2019-12-01,,,,,,all,itemshop,sst_product_contents_properties,,extract,itemshop,sst_product_contents_properties,,,,,,,,,尚未確定(0M),
all,1,mabi,2019-12-01,,,,,,all,itemshop,sst_product_contents_property_histories,,extract,itemshop,sst_product_contents_property_histories,,,,,,,,,尚未確定(0M),
all,1,mabi,2019-12-01,,,,,,all,itemshop,sst_product_histories,,extract,itemshop,sst_product_histories,,,,,,,,,尚未確定(小於500K),
all,1,mabi,2019-12-01,,,,,,all,itemshop,sst_product_keyword_relations,,extract,itemshop,sst_product_keyword_relations,,,,,,,,,尚未確定(0M),
all,1,mabi,2019-12-01,,,,,,all,itemshop,sst_product_keywords,,extract,itemshop,sst_product_keywords,,,,,,,,,尚未確定(0M),
all,1,mabi,2019-12-01,,,,,,all,itemshop,sst_product_options,,extract,itemshop,sst_product_options,,,,,,,,,尚未確定(0M),
all,1,mabi,2019-12-01,,,,,,all,itemshop,sst_product_order_quantity,,extract,itemshop,sst_product_order_quantity,,,,,,,,,尚未確定(0M),
all,1,mabi,2019-12-01,,,,,,all,itemshop,sst_product_package,,extract,itemshop,sst_product_package,,,,,,,,,尚未確定(小於500K),
all,1,mabi,2019-12-01,,,,,,all,itemshop,sst_product_parts,,extract,itemshop,sst_product_parts,,,,,,,,,尚未確定(0M),
all,1,mabi,2019-12-01,,,,,,all,itemshop,sst_product_sex,,extract,itemshop,sst_product_sex,,,,,,,,,尚未確定(0M),
all,1,mabi,2019-12-01,,,,,,all,itemshop,sst_product_statuses,,extract,itemshop,sst_product_statuses,,,,,,,,,尚未確定(小於500K),
all,1,mabi,2019-12-01,,,,,,all,itemshop,sst_products,,extract,itemshop,sst_products,,,,,,,,,商品對照表(大於1M),
all,1,mabi,2019-12-01,,,,,,all,itemshop,sst_products_wish_list,,extract,itemshop,sst_products_wish_list,,,,,,,,,願望清單?(大於10M),
all,1,mabi,2019-12-01,,,,,,all,itemshop,sst_properties,,extract,itemshop,sst_properties,,,,,,,,,尚未確定(0M),
all,1,mabi,2019-12-01,,,,,,all,itemshop,sst_properties_item,,extract,itemshop,sst_properties_item,,,,,,,,,尚未確定(0M),
all,1,mabi,2019-12-01,,,,,,all,itemshop,sst_relation_products,,extract,itemshop,sst_relation_products,,,,,,,,,尚未確定(0M),
all,1,mabi,2019-12-01,,,,,,all,itemshop,sst_repetition_order_count_by_yyyymm,,extract,itemshop,sst_repetition_order_count_by_yyyymm,,,,,,,,,尚未確定(大於1M),
all,1,mabi,2019-12-01,,,,,,all,itemshop,sst_services,,extract,itemshop,sst_services,,,,,,,,,尚未確定(小於500K),
all,1,mabi,2019-12-01,,,,,,all,itemshop,sst_set_products,,extract,itemshop,sst_set_products,,,,,,,,,尚未確定(小於500K),
all,1,mabi,2019-12-01,,,,,,all,itemshop,sst_shop_users,,extract,itemshop,sst_shop_users,,,,,,,,,尚未確定(0M),
all,1,mabi,2019-12-01,,,,,,all,itemshop,sst_transaction_failure_logs,,extract,itemshop,sst_transaction_failure_logs,,,,,,,,,尚未確定(0M),
all,1,mabi,2019-12-01,,,,,,all,itemshop,sst_user_game_ids,,extract,itemshop,sst_user_game_ids,,,,,,,,,尚未確定(0M),
all,1,mabi,2019-12-01,,,,,,all,itemshop,test_dts,,extract,itemshop,test_dts,,,,,,,,,尚未確定(0M),
log,1,mabi,2019-12-01,,,,,,all,itemshop,sst_order_process_logs,,extract,itemshop,sst_order_process_logs,,processed_date,processed_date,0,1,,,,訂單處理log?(大於1G),
