type,layers,gamename,startdate,enddate,parenthivedb,parentdbname,parenttablename,parentcolumnname,orihivedb,oridbname,oritablename,oricolumnname,hivedb,dbname,tablename,columnname,logstartdate,logenddate,dtbeforeday,dtafterday,logfilename,log,sql,memo,memo2
all,1,mabi,2019-12-01,,,,,,all,mabitwmabinogi,accadb,,extract,mabitwmabinogi,accadb,,,,,,,,,尚未確定(大於1M),
all,1,mabi,2019-12-01,,,,,,all,mabitwmabinogi,account_pawncoin,,extract,mabitwmabinogi,account_pawncoin,,,,,,,,,尚未確定(0M),
all,1,mabi,2019-12-01,,,,,,all,mabitwmabinogi,achievement_convert,,extract,mabitwmabinogi,achievement_convert,,,,,,,,,尚未確定(大於10M),
all,1,mabi,2019-12-01,,,,,,all,mabitwmabinogi,allaccount,,extract,mabitwmabinogi,allaccount,,,,,,,,,尚未確定(大於1M),
all,1,mabi,2019-12-01,,,,,,all,mabitwmabinogi,allitem,,extract,mabitwmabinogi,allitem,,,,,,,,,尚未確定(0M),
all,1,mabi,2019-12-01,,,,,,all,mabitwmabinogi,anewplayer,,extract,mabitwmabinogi,anewplayer,,,,,,,,,尚未確定(小於500K),
all,1,mabi,2019-12-01,,,,,,all,mabitwmabinogi,asset_now,,extract,mabitwmabinogi,asset_now,,,,,,,,,尚未確定(小於500K),
all,1,mabi,2019-12-01,,,,,,all,mabitwmabinogi,bank,,extract,mabitwmabinogi,bank,,,,,,,,,銀行認證(大於10M),
all,1,mabi,2019-12-01,,,,,,all,mabitwmabinogi,bank_slot,,extract,mabitwmabinogi,bank_slot,,,,,,,,,銀行相關?(大於100M),
all,1,mabi,2019-12-01,,,,,,all,mabitwmabinogi,bankitem,,extract,mabitwmabinogi,bankitem,,,,,,,,,尚未確定(0M),
all,1,mabi,2019-12-01,,,,,,all,mabitwmabinogi,bankitemquest,,extract,mabitwmabinogi,bankitemquest,,,,,,,,,尚未確定(0M),
all,1,mabi,2019-12-01,,,,,,all,mabitwmabinogi,bardboard,,extract,mabitwmabinogi,bardboard,,,,,,,,,尚未確定(大於1M),
all,1,mabi,2019-12-01,,,,,,all,mabitwmabinogi,bid,,extract,mabitwmabinogi,bid,,,,,,,,,尚未確定(小於500K),
all,1,mabi,2019-12-01,,,,,,all,mabitwmabinogi,bididpool,,extract,mabitwmabinogi,bididpool,,,,,,,,,尚未確定(0M),
all,1,mabi,2019-12-01,,,,,,all,mabitwmabinogi,botaccount,,extract,mabitwmabinogi,botaccount,,,,,,,,,尚未確定(小於500K),
all,1,mabi,2019-12-01,,,,,,all,mabitwmabinogi,botaccount2,,extract,mabitwmabinogi,botaccount2,,,,,,,,,尚未確定(小於500K),
all,1,mabi,2019-12-01,,,,,,all,mabitwmabinogi,botaccount3,,extract,mabitwmabinogi,botaccount3,,,,,,,,,尚未確定(小於500K),
all,1,mabi,2019-12-01,,,,,,all,mabitwmabinogi,castle,,extract,mabitwmabinogi,castle,,,,,,,,,尚未確定(小於500K),
all,1,mabi,2019-12-01,,,,,,all,mabitwmabinogi,castle_block,,extract,mabitwmabinogi,castle_block,,,,,,,,,尚未確定(0M),
all,1,mabi,2019-12-01,,,,,,all,mabitwmabinogi,castle_buildresource,,extract,mabitwmabinogi,castle_buildresource,,,,,,,,,尚未確定(0M),
all,1,mabi,2019-12-01,,,,,,all,mabitwmabinogi,castlebid,,extract,mabitwmabinogi,castlebid,,,,,,,,,尚未確定(0M),
all,1,mabi,2019-12-01,,,,,,all,mabitwmabinogi,castlebidder,,extract,mabitwmabinogi,castlebidder,,,,,,,,,尚未確定(0M),
all,1,mabi,2019-12-01,,,,,,all,mabitwmabinogi,castlebidder_history,,extract,mabitwmabinogi,castlebidder_history,,,,,,,,,尚未確定(小於500K),
all,1,mabi,2019-12-01,,,,,,all,mabitwmabinogi,character_arbeit,,extract,mabitwmabinogi,character_arbeit,,,,,,,,,角色arbeit?(大於10M),
all,1,mabi,2019-12-01,,,,,,all,mabitwmabinogi,character_deed,,extract,mabitwmabinogi,character_deed,,,,,,,,,角色契約?(大於100M),
all,1,mabi,2019-12-01,,,,,,all,mabitwmabinogi,character_joust,,extract,mabitwmabinogi,character_joust,,,,,,,,,角色騎士競技(大於10M),
all,1,mabi,2019-12-01,,,,,,all,mabitwmabinogi,character_naosupport,,extract,mabitwmabinogi,character_naosupport,,,,,,,,,角色娜歐的幫助(大於10M),
all,1,mabi,2019-12-01,,,,,,all,mabitwmabinogi,character_questreserved,,extract,mabitwmabinogi,character_questreserved,,,,,,,,,角色保留任務?(大於10M),
all,1,mabi,2019-12-01,,,,,,all,mabitwmabinogi,characterachievement,,extract,mabitwmabinogi,characterachievement,,,,,,,,,尚未確定(0M),
all,1,mabi,2019-12-01,,,,,,all,mabitwmabinogi,charidpool,,extract,mabitwmabinogi,charidpool,,,,,,,,,尚未確定(小於500K),
all,1,mabi,2019-12-01,,,,,,all,mabitwmabinogi,charitem,,extract,mabitwmabinogi,charitem,,,,,,,,,尚未確定(0M),
all,1,mabi,2019-12-01,,,,,,all,mabitwmabinogi,charitemego,,extract,mabitwmabinogi,charitemego,,,,,,,,,精靈武器相關(大於10M),
all,1,mabi,2019-12-01,,,,,,all,mabitwmabinogi,cheque,,extract,mabitwmabinogi,cheque,,,,,,,,,尚未確定(小於500K),
all,1,mabi,2019-12-01,,,,,,all,mabitwmabinogi,commerce,,extract,mabitwmabinogi,commerce,,,,,,,,,貿易系統資訊(大於10M),
all,1,mabi,2019-12-01,,,,,,all,mabitwmabinogi,commercecriminal,,extract,mabitwmabinogi,commercecriminal,,,,,,,,,貿易通緝犯(0M),
all,1,mabi,2019-12-01,,,,,,all,mabitwmabinogi,commercecriminalreward,,extract,mabitwmabinogi,commercecriminalreward,,,,,,,,,貿易通緝犯獎勵(小於500K),
all,1,mabi,2019-12-01,,,,,,all,mabitwmabinogi,commercepost,,extract,mabitwmabinogi,commercepost,,,,,,,,,貿易系統相關(小於500K),
all,1,mabi,2019-12-01,,,,,,all,mabitwmabinogi,commerceproduct,,extract,mabitwmabinogi,commerceproduct,,,,,,,,,貿易系統商品(小於500K),
all,1,mabi,2019-12-01,,,,,,all,mabitwmabinogi,commerceproductstock,,extract,mabitwmabinogi,commerceproductstock,,,,,,,,,貿易系統商品庫存(小於500K),
all,1,mabi,2019-12-01,,,,,,all,mabitwmabinogi,commercepurchasedproduct,,extract,mabitwmabinogi,commercepurchasedproduct,,,,,,,,,貿易系統角色購買商品(小於500K),
all,1,mabi,2019-12-01,,,,,,all,mabitwmabinogi,concert,,extract,mabitwmabinogi,concert,,,,,,,,,尚未確定(小於500K),
all,1,mabi,2019-12-01,,,,,,all,mabitwmabinogi,deletechar,,extract,mabitwmabinogi,deletechar,,,,,,,,,已刪除角色(大於10M),
all,1,mabi,2019-12-01,,,,,,all,mabitwmabinogi,elf_event,,extract,mabitwmabinogi,elf_event,,,,,,,,,精靈武器(大於100M),
all,1,mabi,2019-12-01,,,,,,all,mabitwmabinogi,elf_event_reach_account,,extract,mabitwmabinogi,elf_event_reach_account,,,,,,,,,尚未確定(小於500K),
all,1,mabi,2019-12-01,,,,,,all,mabitwmabinogi,equipcollect,,extract,mabitwmabinogi,equipcollect,,,,,,,,,尚未確定(大於1M),
all,1,mabi,2019-12-01,,,,,,all,mabitwmabinogi,erinnlandachievement,,extract,mabitwmabinogi,erinnlandachievement,,,,,,,,,尚未確定(大於1M),
all,1,mabi,2019-12-01,,,,,,all,mabitwmabinogi,erinnlandachievementcondition,,extract,mabitwmabinogi,erinnlandachievementcondition,,,,,,,,,成就相關(大於10M),
all,1,mabi,2019-12-01,,,,,,all,mabitwmabinogi,family,,extract,mabitwmabinogi,family,,,,,,,,,尚未確定(大於1M),
all,1,mabi,2019-12-01,,,,,,all,mabitwmabinogi,familymember,,extract,mabitwmabinogi,familymember,,,,,,,,,尚未確定(大於1M),
all,1,mabi,2019-12-01,,,,,,all,mabitwmabinogi,farm,,extract,mabitwmabinogi,farm,,,,,,,,,尚未確定(小於500K),
all,1,mabi,2019-12-01,,,,,,all,mabitwmabinogi,favoriteprivatefarm,,extract,mabitwmabinogi,favoriteprivatefarm,,,,,,,,,農場相關資訊?(大於10M),
all,1,mabi,2019-12-01,,,,,,all,mabitwmabinogi,gameid,,extract,mabitwmabinogi,gameid,,,,,,,,,角色ID名字(大於100M),
all,1,mabi,2019-12-01,,,,,,all,mabitwmabinogi,house,,extract,mabitwmabinogi,house,,,,,,,,,房屋資訊(小於500K),
all,1,mabi,2019-12-01,,,,,,all,mabitwmabinogi,house_block,,extract,mabitwmabinogi,house_block,,,,,,,,,尚未確定(小於500K),
all,1,mabi,2019-12-01,,,,,,all,mabitwmabinogi,housebid,,extract,mabitwmabinogi,housebid,,,,,,,,,房屋投標資訊(小於500K),
all,1,mabi,2019-12-01,,,,,,all,mabitwmabinogi,housebidder,,extract,mabitwmabinogi,housebidder,,,,,,,,,房屋投標人資訊?(小於500K),
all,1,mabi,2019-12-01,,,,,,all,mabitwmabinogi,housebidder_history,,extract,mabitwmabinogi,housebidder_history,,,,,,,,,歷史房屋投標人資訊?(大於10M),
all,1,mabi,2019-12-01,,,,,,all,mabitwmabinogi,houseitem,,extract,mabitwmabinogi,houseitem,,,,,,,,,無資料(0M),
all,1,mabi,2019-12-01,,,,,,all,mabitwmabinogi,houseitemhuge,,extract,mabitwmabinogi,houseitemhuge,,,,,,,,,家中道具(大)(大於1M),
all,1,mabi,2019-12-01,,,,,,all,mabitwmabinogi,houseitemlarge,,extract,mabitwmabinogi,houseitemlarge,,,,,,,,,家中道具(中)(大於10M),
all,1,mabi,2019-12-01,,,,,,all,mabitwmabinogi,houseitemquest,,extract,mabitwmabinogi,houseitemquest,,,,,,,,,尚未確定(0M),
all,1,mabi,2019-12-01,,,,,,all,mabitwmabinogi,houseitemsmall,,extract,mabitwmabinogi,houseitemsmall,,,,,,,,,家中道具(小)(大於1M),
all,1,mabi,2019-12-01,,,,,,all,mabitwmabinogi,houseowner,,extract,mabitwmabinogi,houseowner,,,,,,,,,房屋所有者資訊(小於500K),
all,1,mabi,2019-12-01,,,,,,all,mabitwmabinogi,icea,,extract,mabitwmabinogi,icea,,,,,,,,,尚未確定(小於500K),
all,1,mabi,2019-12-01,,,,,,all,mabitwmabinogi,icen,,extract,mabitwmabinogi,icen,,,,,,,,,尚未確定(大於1M),
all,1,mabi,2019-12-01,,,,,,all,mabitwmabinogi,icen1,,extract,mabitwmabinogi,icen1,,,,,,,,,尚未確定(小於500K),
all,1,mabi,2019-12-01,,,,,,all,mabitwmabinogi,item_a,,extract,mabitwmabinogi,item_a,,,,,,,,,尚未確定(小於500K),
all,1,mabi,2019-12-01,,,,,,all,mabitwmabinogi,item_wings,,extract,mabitwmabinogi,item_wings,,,,,,,,,尚未確定(小於500K),
all,1,mabi,2019-12-01,,,,,,all,mabitwmabinogi,itemego_history,,extract,mabitwmabinogi,itemego_history,,,,,,,,,尚未確定(大於1M),
all,1,mabi,2019-12-01,,,,,,all,mabitwmabinogi,itemidpool,,extract,mabitwmabinogi,itemidpool,,,,,,,,,尚未確定(小於500K),
all,1,mabi,2019-12-01,,,,,,all,mabitwmabinogi,lifea,,extract,mabitwmabinogi,lifea,,,,,,,,,尚未確定(小於500K),
all,1,mabi,2019-12-01,,,,,,all,mabitwmabinogi,lifeaskill,,extract,mabitwmabinogi,lifeaskill,,,,,,,,,生活技能(大於10M),
all,1,mabi,2019-12-01,,,,,,all,mabitwmabinogi,log_ducat,,extract,mabitwmabinogi,log_ducat,,,,,,,,,尚未確定(0M),
all,1,mabi,2019-12-01,,,,,,all,mabitwmabinogi,musica,,extract,mabitwmabinogi,musica,,,,,,,,,尚未確定(小於500K),
all,1,mabi,2019-12-01,,,,,,all,mabitwmabinogi,notusablegameid,,extract,mabitwmabinogi,notusablegameid,,,,,,,,,尚未確定(小於500K),
all,1,mabi,2019-12-01,,,,,,all,mabitwmabinogi,personalranking,,extract,mabitwmabinogi,personalranking,,,,,,,,,尚未確定(小於500K),
all,1,mabi,2019-12-01,,,,,,all,mabitwmabinogi,petassetrank,,extract,mabitwmabinogi,petassetrank,,,,,,,,,尚未確定(0M),
all,1,mabi,2019-12-01,,,,,,all,mabitwmabinogi,pfhousingfurniture,,extract,mabitwmabinogi,pfhousingfurniture,,,,,,,,,尚未確定(大於10M),
all,1,mabi,2019-12-01,,,,,,all,mabitwmabinogi,pfhousingfurnitureidpool,,extract,mabitwmabinogi,pfhousingfurnitureidpool,,,,,,,,,PF房屋相關?(小於500K),
all,1,mabi,2019-12-01,,,,,,all,mabitwmabinogi,pfhousinghouse,,extract,mabitwmabinogi,pfhousinghouse,,,,,,,,,PF房屋資訊(小於500K),
all,1,mabi,2019-12-01,,,,,,all,mabitwmabinogi,pfhousingknowhow,,extract,mabitwmabinogi,pfhousingknowhow,,,,,,,,,PF房屋相關?(小於500K),
all,1,mabi,2019-12-01,,,,,,all,mabitwmabinogi,pfhousingroom,,extract,mabitwmabinogi,pfhousingroom,,,,,,,,,PF房屋房間(大於1M),
all,1,mabi,2019-12-01,,,,,,all,mabitwmabinogi,privatefarmfacilityidpool,,extract,mabitwmabinogi,privatefarmfacilityidpool,,,,,,,,,尚未確定(小於500K),
all,1,mabi,2019-12-01,,,,,,all,mabitwmabinogi,privatefarmpenalty,,extract,mabitwmabinogi,privatefarmpenalty,,,,,,,,,尚未確定(小於500K),
all,1,mabi,2019-12-01,,,,,,all,mabitwmabinogi,privatefarmranking,,extract,mabitwmabinogi,privatefarmranking,,,,,,,,,尚未確定(0M),
all,1,mabi,2019-12-01,,,,,,all,mabitwmabinogi,privatefarmranking_bbs,,extract,mabitwmabinogi,privatefarmranking_bbs,,,,,,,,,尚未確定(0M),
all,1,mabi,2019-12-01,,,,,,all,mabitwmabinogi,privatefarmvisitor,,extract,mabitwmabinogi,privatefarmvisitor,,,,,,,,,尚未確定(大於1M),
all,1,mabi,2019-12-01,,,,,,all,mabitwmabinogi,prop,,extract,mabitwmabinogi,prop,,,,,,,,,尚未確定(小於500K),
all,1,mabi,2019-12-01,,,,,,all,mabitwmabinogi,prop_event,,extract,mabitwmabinogi,prop_event,,,,,,,,,尚未確定(0M),
all,1,mabi,2019-12-01,,,,,,all,mabitwmabinogi,propidpool,,extract,mabitwmabinogi,propidpool,,,,,,,,,尚未確定(小於500K),
all,1,mabi,2019-12-01,,,,,,all,mabitwmabinogi,ranktable_diff,,extract,mabitwmabinogi,ranktable_diff,,,,,,,,,尚未確定(小於500K),
all,1,mabi,2019-12-01,,,,,,all,mabitwmabinogi,recaplist,,extract,mabitwmabinogi,recaplist,,,,,,,,,尚未確定(小於500K),
all,1,mabi,2019-12-01,,,,,,all,mabitwmabinogi,recstatlist,,extract,mabitwmabinogi,recstatlist,,,,,,,,,尚未確定(小於500K),
all,1,mabi,2019-12-01,,,,,,all,mabitwmabinogi,relic,,extract,mabitwmabinogi,relic,,,,,,,,,尚未確定(小於500K),
all,1,mabi,2019-12-01,,,,,,all,mabitwmabinogi,renewalquestlist,,extract,mabitwmabinogi,renewalquestlist,,,,,,,,,尚未確定(小於500K),
all,1,mabi,2019-12-01,,,,,,all,mabitwmabinogi,reserveditemidforrecovery,,extract,mabitwmabinogi,reserveditemidforrecovery,,,,,,,,,尚未確定(大於10M),
all,1,mabi,2019-12-01,,,,,,all,mabitwmabinogi,royalalchemist,,extract,mabitwmabinogi,royalalchemist,,,,,,,,,尚未確定(小於500K),
all,1,mabi,2019-12-01,,,,,,all,mabitwmabinogi,ruin,,extract,mabitwmabinogi,ruin,,,,,,,,,尚未確定(小於500K),
all,1,mabi,2019-12-01,,,,,,all,mabitwmabinogi,scrapbook,,extract,mabitwmabinogi,scrapbook,,,,,,,,,尚未確定(大於10M),
all,1,mabi,2019-12-01,,,,,,all,mabitwmabinogi,scrapbookbestcook,,extract,mabitwmabinogi,scrapbookbestcook,,,,,,,,,尚未確定(小於500K),
all,1,mabi,2019-12-01,,,,,,all,mabitwmabinogi,serverassetinfo,,extract,mabitwmabinogi,serverassetinfo,,,,,,,,,尚未確定(大於1M),
all,1,mabi,2019-12-01,,,,,,all,mabitwmabinogi,soulmate,,extract,mabitwmabinogi,soulmate,,,,,,,,,尚未確定(小於500K),
all,1,mabi,2019-12-01,,,,,,all,mabitwmabinogi,test40363,,extract,mabitwmabinogi,test40363,,,,,,,,,尚未確定(小於500K),
all,1,mabi,2019-12-01,,,,,,all,mabitwmabinogi,test73181,,extract,mabitwmabinogi,test73181,,,,,,,,,尚未確定(小於500K),
all,1,mabi,2019-12-01,,,,,,all,mabitwmabinogi,test75462,,extract,mabitwmabinogi,test75462,,,,,,,,,尚未確定(大於1M),
all,1,mabi,2019-12-01,,,,,,all,mabitwmabinogi,tmp_do_drop_character_list,,extract,mabitwmabinogi,tmp_do_drop_character_list,,,,,,,,,尚未確定(大於10M),
all,1,mabi,2019-12-01,,,,,,all,mabitwmabinogi,tmp_do_drop_pet_list,,extract,mabitwmabinogi,tmp_do_drop_pet_list,,,,,,,,,尚未確定(小於500K),
all,1,mabi,2019-12-01,,,,,,all,mabitwmabinogi,totalassetrank,,extract,mabitwmabinogi,totalassetrank,,,,,,,,,尚未確定(小於500K),
all,1,mabi,2019-12-01,,,,,,all,mabitwmabinogi,vipitem_a,,extract,mabitwmabinogi,vipitem_a,,,,,,,,,尚未確定(小於500K),
all,1,mabi,2019-12-01,,,,,,all,mabitwmabinogi,weeklyconcert,,extract,mabitwmabinogi,weeklyconcert,,,,,,,,,尚未確定(0M),
all,1,mabi,2019-12-01,,,,,,all,mabitwmabinogi,wine,,extract,mabitwmabinogi,wine,,,,,,,,,尚未確定(小於500K),
all,1,mabi,2019-12-01,,,,,,all,mabitwmabinogi,workmacrouser,,extract,mabitwmabinogi,workmacrouser,,,,,,,,,尚未確定(小於500K),
all,1,mabi,2019-12-01,,,,,,all,mabitwmabinogi,worldmeta,,extract,mabitwmabinogi,worldmeta,,,,,,,,,尚未確定(小於500K),
grammar,1,mabi,2019-12-01,,extract,init,onlinetimebyaccount,accountid,all,mabitwmabinogi,bankitemhuge,account,extract,mabitwmabinogi,bankitemhuge,,,,,,,,,銀行道具(大)(大於1M),
grammar,1,mabi,2019-12-01,,extract,init,onlinetimebyaccount,accountid,all,mabitwmabinogi,bankitemlarge,account,extract,mabitwmabinogi,bankitemlarge,,,,,,,,,銀行身上道具(中)(大於1G),
grammar,1,mabi,2019-12-01,,extract,init,onlinetimebyaccount,accountid,all,mabitwmabinogi,bankitemsmall,account,extract,mabitwmabinogi,bankitemsmall,,,,,,,,,銀行身上道具(小)(大於1G),
grammar,1,mabi,2019-12-01,,extract,init,onlinetime,characterid,all,mabitwmabinogi,character,id,extract,mabitwmabinogi,character,,,,,,,,,角色資訊(大於1G),
grammar,1,mabi,2019-12-01,,extract,init,onlinetime,characterid,all,mabitwmabinogi,character_achievement,charid,extract,mabitwmabinogi,character_achievement,,,,,,,,,角色成就(大於100M),
grammar,1,mabi,2019-12-01,,extract,init,onlinetime,characterid,all,mabitwmabinogi,character_divineknight,id,extract,mabitwmabinogi,character_divineknight,,,,,,,,,角色神聖騎士(大於10M),
grammar,1,mabi,2019-12-01,,extract,init,onlinetime,characterid,all,mabitwmabinogi,character_keyword,charid,extract,mabitwmabinogi,character_keyword,,,,,,,,,角色關鍵字(大於1G),
grammar,1,mabi,2019-12-01,,extract,init,onlinetime,characterid,all,mabitwmabinogi,character_memory,charid,extract,mabitwmabinogi,character_memory,,,,,,,,,角色NPC好感度?(大於100M),
grammar,1,mabi,2019-12-01,,extract,init,onlinetime,characterid,all,mabitwmabinogi,character_meta,charid,extract,mabitwmabinogi,character_meta,,,,,,,,,角色meta(大於1G),
grammar,1,mabi,2019-12-01,,extract,init,onlinetime,characterid,all,mabitwmabinogi,character_myknightsmember,charid,extract,mabitwmabinogi,character_myknightsmember,,,,,,,,,角色我的騎士團(大於100M),
grammar,1,mabi,2019-12-01,,extract,init,onlinetime,characterid,all,mabitwmabinogi,character_pvp,id,extract,mabitwmabinogi,character_pvp,,,,,,,,,角色PVP戰績(大於10M),
grammar,1,mabi,2019-12-01,,extract,init,onlinetime,characterid,all,mabitwmabinogi,character_shape,id,extract,mabitwmabinogi,character_shape,,,,,,,,,角色外型?(大於100M),
grammar,1,mabi,2019-12-01,,extract,init,onlinetime,characterid,all,mabitwmabinogi,character_skill,id,extract,mabitwmabinogi,character_skill,,,,,,,,,角色技能(大於1G),
grammar,1,mabi,2019-12-01,,extract,init,onlinetime,characterid,all,mabitwmabinogi,character_title,charid,extract,mabitwmabinogi,character_title,,,,,,,,,角色稱號(大於100M),
grammar,1,mabi,2019-12-01,,extract,init,onlinetime,characterid,all,mabitwmabinogi,characterquest,id,extract,mabitwmabinogi,characterquest,,,,,,,,,角色取得任務(大於1G),
grammar,1,mabi,2019-12-01,,extract,init,onlinetime,characterid,all,mabitwmabinogi,charitemhuge,id,extract,mabitwmabinogi,charitemhuge,,,,,,,,,角色身上道具(大)(大於100M),
grammar,1,mabi,2019-12-01,,extract,init,onlinetime,characterid,all,mabitwmabinogi,charitemlarge,id,extract,mabitwmabinogi,charitemlarge,,,,,,,,,角色身上道具(中)(大於10G),
grammar,1,mabi,2019-12-01,,extract,init,onlinetime,characterid,all,mabitwmabinogi,charitemquest,id,extract,mabitwmabinogi,charitemquest,,,,,,,,,角色任務道具(大於10G),
grammar,1,mabi,2019-12-01,,extract,init,onlinetime,characterid,all,mabitwmabinogi,charitemsmall,id,extract,mabitwmabinogi,charitemsmall,,,,,,,,,角色身上道具(小)(大於1G),
grammar,1,mabi,2019-12-01,,extract,authdb,account_pet_ref,petid,all,mabitwmabinogi,pet,id,extract,mabitwmabinogi,pet,,,,,,,,,寵物(大於1G),
grammar,1,mabi,2019-12-01,,extract,authdb,account_pet_ref,petid,all,mabitwmabinogi,pet_skill,id,extract,mabitwmabinogi,pet_skill,,,,,,,,,寵物技能(大於100M),
grammar,1,mabi,2019-12-01,,extract,init,onlinetime,characterid,all,mabitwmabinogi,privatefarm,ownerid,extract,mabitwmabinogi,privatefarm,,,,,,,,,浪漫農場(大於10M),
grammar,2,mabi,2019-12-01,,extract,mabitwmabinogi,auction,auctionid,all,mabitwmabinogi,auctionbid,auctionid,extract,mabitwmabinogi,auctionbid,,,,,,,,,拍賣喊價(大於100M),
grammar,2,mabi,2019-12-01,,extract,mabitwmabinogi,privatefarm,id,all,mabitwmabinogi,privatefarmfacility,privatefarmid,extract,mabitwmabinogi,privatefarmfacility,,,,,,,,,浪漫農場設施(大於1G),
log,1,mabi,2019-12-01,,,,,,all,mabitwmabinogi,assetrank,,extract,mabitwmabinogi,assetrank,,regdate,regdate,0,1,,,,每日帳號資產排名(大於100M),
log,1,mabi,2019-12-01,,,,,,all,mabitwmabinogi,auction,,extract,mabitwmabinogi,auction,,updatetime,updatetime,0,1,,,,拍賣場(auctionstate=65794為喊價)(大於1G),
log,1,mabi,2019-12-01,,,,,,all,mabitwmabinogi,cumlevelrank,,extract,mabitwmabinogi,cumlevelrank,,regdate,regdate,0,1,,,,每日累積等級前三十排名(大於100M),
log,1,mabi,2019-12-01,,,,,,all,mabitwmabinogi,equipcollectitemlarge,,extract,mabitwmabinogi,equipcollectitemlarge,,update_time,update_time,0,1,,,,尚未確定(大於1G),
log,1,mabi,2019-12-01,,,,,,all,mabitwmabinogi,item_history01,,extract,mabitwmabinogi,item_history01,,deletetime,deletetime,0,1,,,,已刪除道具01?(大於10G),
log,1,mabi,2019-12-01,,,,,,all,mabitwmabinogi,item_history02,,extract,mabitwmabinogi,item_history02,,deletetime,deletetime,0,1,,,,已刪除道具01?(大於1G),
log,1,mabi,2019-12-01,,,,,,all,mabitwmabinogi,levelrank,,extract,mabitwmabinogi,levelrank,,regdate,regdate,0,1,,,,每日當前等級前三十排名(大於100M),
log,1,mabi,2019-12-01,,,,,,all,mabitwmabinogi,mailboxitem,,extract,mabitwmabinogi,mailboxitem,,update_time,update_time,0,1,,,,信件贈予道具(大於100M),
log,1,mabi,2019-12-01,,,,,,all,mabitwmabinogi,mailboxreceive,,extract,mabitwmabinogi,mailboxreceive,,senddate,senddate,0,1,,,,信件資訊(大於100M),
log,1,mabi,2019-12-01,,,,,,all,mabitwmabinogi,playtimerank,,extract,mabitwmabinogi,playtimerank,,regdate,regdate,0,1,,,,每日playtime前三十排名(大於100M),
