type,layers,gamename,startdate,enddate,parenthivedb,parentdbname,parenttablename,parentcolumnname,orihivedb,oridbname,oritablename,oricolumnname,hivedb,dbname,tablename,columnname,logstartdate,logenddate,dtbeforeday,dtafterday,logfilename,log,sql,memo,memo2
all,1,tdn,2020-01-16,,,,,,all,dnmembership,ablecroniclecharacters,,extract,dnmembership,ablecroniclecharacters,,,,,,,,,__(無說明)(小於1M),
all,1,tdn,2020-01-16,,,,,,all,dnmembership,accountauthenticationdelqueue,,extract,dnmembership,accountauthenticationdelqueue,,,,,,,,,帳號截除認證順序(小於1M),
all,1,tdn,2020-01-16,,,,,,all,dnmembership,accountconnectnoticequeue,,extract,dnmembership,accountconnectnoticequeue,,,,,,,,,__(無說明)(大於1M),
all,1,tdn,2020-01-16,,,,,,all,dnmembership,accounteffects,,extract,dnmembership,accounteffects,,,,,,,,,帳號單位套用效果(小於1M),
all,1,tdn,2020-01-16,,,,,,all,dnmembership,accountlocklogs,,extract,dnmembership,accountlocklogs,,,,,,,,,帳號鎖定Log(無資料),
all,1,tdn,2020-01-16,,,,,,all,dnmembership,accountperiodicreset,,extract,dnmembership,accountperiodicreset,,,,,,,,,__(無說明)(大於1M),
all,1,tdn,2020-01-16,,,,,,all,dnmembership,banofsale,,extract,dnmembership,banofsale,,,,,,,,,禁止販售商品(小於1M),
all,1,tdn,2020-01-16,,,,,,all,dnmembership,blockedipexceptions,,extract,dnmembership,blockedipexceptions,,,,,,,,,封鎖例外代替IP(無資料),
all,1,tdn,2020-01-16,,,,,,all,dnmembership,blockedips,,extract,dnmembership,blockedips,,,,,,,,,封鎖代替IP(小於1M),
all,1,tdn,2020-01-16,,,,,,all,dnmembership,canceledrestraints,,extract,dnmembership,canceledrestraints,,,,,,,,,最小制裁(小於1M),
all,1,tdn,2020-01-16,,,,,,all,dnmembership,characterdeleterevivelogs,,extract,dnmembership,characterdeleterevivelogs,,,,,,,,,角色刪除/復活Log(大於1M),
all,1,tdn,2020-01-16,,,,,,all,dnmembership,characternamechangelogs,,extract,dnmembership,characternamechangelogs,,,,,,,,,角色名字變更履歷(小於1M),
all,1,tdn,2020-01-16,,,,,,all,dnmembership,characterslotcounts,,extract,dnmembership,characterslotcounts,,,,,,,,,生成數角色最大數(擴充欄位)(小於1M),
all,1,tdn,2020-01-16,,,,,,all,dnmembership,characterstarteritems,,extract,dnmembership,characterstarteritems,,,,,,,,,__(無說明)(無資料),
all,1,tdn,2020-01-16,,,,,,all,dnmembership,clientipconnectcounts,,extract,dnmembership,clientipconnectcounts,,,,,,,,,連線的IP類別數(小於1M),
all,1,tdn,2020-01-16,,,,,,all,dnmembership,codekinds,,extract,dnmembership,codekinds,,,,,,,,,號碼種類定義(無資料),
all,1,tdn,2020-01-16,,,,,,all,dnmembership,codes,,extract,dnmembership,codes,,,,,,,,,特定號碼種類的所屬號碼定義(無資料),
all,1,tdn,2020-01-16,,,,,,all,dnmembership,couponinproducts,,extract,dnmembership,couponinproducts,,,,,,,,,序號商品資訊(小於1M),
all,1,tdn,2020-01-16,,,,,,all,dnmembership,coupons,,extract,dnmembership,coupons,,,,,,,,,序號(小於1M),
all,1,tdn,2020-01-16,,,,,,all,dnmembership,databaseversion,,extract,dnmembership,databaseversion,,,,,,,,,__(未在列表)(小於1M),
all,1,tdn,2020-01-16,,,,,,all,dnmembership,deletedcharacters,,extract,dnmembership,deletedcharacters,,,,,,,,,刪除角色(大於1M),
all,1,tdn,2020-01-16,,,,,,all,dnmembership,dnauth,,extract,dnmembership,dnauth,,,,,,,,,帳號連線溝通(小於1M),
all,1,tdn,2020-01-16,,,,,,all,dnmembership,dneventdetails,,extract,dnmembership,dneventdetails,,,,,,,,,活動詳細(小於1M),
all,1,tdn,2020-01-16,,,,,,all,dnmembership,dnevents,,extract,dnmembership,dnevents,,,,,,,,,活動(小於1M),
all,1,tdn,2020-01-16,,,,,,all,dnmembership,dneventschedules,,extract,dnmembership,dneventschedules,,,,,,,,,活動日程(小於1M),
all,1,tdn,2020-01-16,,,,,,all,dnmembership,dnmarbleeventrewardhistory,,extract,dnmembership,dnmarbleeventrewardhistory,,,,,,,,,活動獎勵履歷(小於1M),
all,1,tdn,2020-01-16,,,,,,all,dnmembership,employees,,extract,dnmembership,employees,,,,,,,,,職員(無資料),
all,1,tdn,2020-01-16,,,,,,all,dnmembership,errorlogs,,extract,dnmembership,errorlogs,,,,,,,,,錯誤LOG(大於1M),
all,1,tdn,2020-01-16,,,,,,all,dnmembership,eventconditionforpetal,,extract,dnmembership,eventconditionforpetal,,,,,,,,,__(無說明)(無資料),
all,1,tdn,2020-01-16,,,,,,all,dnmembership,eventpetalforcbtusers,,extract,dnmembership,eventpetalforcbtusers,,,,,,,,,連線龍點活動(無資料),
all,1,tdn,2020-01-16,,,,,,all,dnmembership,eventpopupconfig,,extract,dnmembership,eventpopupconfig,,,,,,,,,活動設定(小於1M),
all,1,tdn,2020-01-16,,,,,,all,dnmembership,eventrewarditems,,extract,dnmembership,eventrewarditems,,,,,,,,,__(無說明)(大於1M),
all,1,tdn,2020-01-16,,,,,,all,dnmembership,eventrewardreceivers,,extract,dnmembership,eventrewardreceivers,,,,,,,,,__(無說明)(大於1M),
all,1,tdn,2020-01-16,,,,,,all,dnmembership,eventrewardtargets,,extract,dnmembership,eventrewardtargets,,,,,,,,,__(無說明)(大於1M),
all,1,tdn,2020-01-16,,,,,,all,dnmembership,eventscheduledetailforpetal,,extract,dnmembership,eventscheduledetailforpetal,,,,,,,,,活動龍點發放結果(無資料),
all,1,tdn,2020-01-16,,,,,,all,dnmembership,eventscheduleforpetal,,extract,dnmembership,eventscheduleforpetal,,,,,,,,,龍點發放活動(無資料),
all,1,tdn,2020-01-16,,,,,,all,dnmembership,eventseasonfordarkcharacters,,extract,dnmembership,eventseasonfordarkcharacters,,,,,,,,,__(無說明)(小於1M),
all,1,tdn,2020-01-16,,,,,,all,dnmembership,eventshopactivation,,extract,dnmembership,eventshopactivation,,,,,,,,,__(無說明)(小於1M),
all,1,tdn,2020-01-16,,,,,,all,dnmembership,eventshoppackageitems,,extract,dnmembership,eventshoppackageitems,,,,,,,,,__(無說明)(小於1M),
all,1,tdn,2020-01-16,,,,,,all,dnmembership,eventshoppackages,,extract,dnmembership,eventshoppackages,,,,,,,,,__(無說明)(小於1M),
all,1,tdn,2020-01-16,,,,,,all,dnmembership,forbiddencharacternames,,extract,dnmembership,forbiddencharacternames,,,,,,,,,角色名字使用(無資料),
all,1,tdn,2020-01-16,,,,,,all,dnmembership,forbiddenchatwords,,extract,dnmembership,forbiddenchatwords,,,,,,,,,__(未在列表)(無資料),
all,1,tdn,2020-01-16,,,,,,all,dnmembership,gdpr,,extract,dnmembership,gdpr,,,,,,,,,__(無說明)(無資料),
all,1,tdn,2020-01-16,,,,,,all,dnmembership,geoips,,extract,dnmembership,geoips,,,,,,,,,__(類別代替IP)(無資料),
all,1,tdn,2020-01-16,,,,,,all,dnmembership,giftsendschedule,,extract,dnmembership,giftsendschedule,,,,,,,,,禮物排層(小於1M),
all,1,tdn,2020-01-16,,,,,,all,dnmembership,giftsendschedulereceive,,extract,dnmembership,giftsendschedulereceive,,,,,,,,,禮物收件(小於1M),
all,1,tdn,2020-01-16,,,,,,all,dnmembership,giftsendscheduletarget,,extract,dnmembership,giftsendscheduletarget,,,,,,,,,禮物接收對象(小於1M),
all,1,tdn,2020-01-16,,,,,,all,dnmembership,gmaccountaccessips,,extract,dnmembership,gmaccountaccessips,,,,,,,,,__(尚未處理)(無資料),
all,1,tdn,2020-01-16,,,,,,all,dnmembership,guildnames,,extract,dnmembership,guildnames,,,,,,,,,公會名字(無資料),
all,1,tdn,2020-01-16,,,,,,all,dnmembership,herolevels,,extract,dnmembership,herolevels,,,,,,,,,英雄等級(小於1M),
all,1,tdn,2020-01-16,,,,,,all,dnmembership,introducers,,extract,dnmembership,introducers,,,,,,,,,__(無說明)(無資料),
all,1,tdn,2020-01-16,,,,,,all,dnmembership,jumpingcharacters,,extract,dnmembership,jumpingcharacters,,,,,,,,,__(無說明)(無資料),
all,1,tdn,2020-01-16,,,,,,all,dnmembership,leavepreventionconninfo,,extract,dnmembership,leavepreventionconninfo,,,,,,,,,帳號類別連線概要資訊(小於1M),
all,1,tdn,2020-01-16,,,,,,all,dnmembership,leavepreventionloginterm,,extract,dnmembership,leavepreventionloginterm,,,,,,,,,__(帳號類別連線資訊)(大於1M),
all,1,tdn,2020-01-16,,,,,,all,dnmembership,limitedproducts,,extract,dnmembership,limitedproducts,,,,,,,,,__(無說明)(無資料),
all,1,tdn,2020-01-16,,,,,,all,dnmembership,maintenanceflag,,extract,dnmembership,maintenanceflag,,,,,,,,,__(無說明)(小於1M),
all,1,tdn,2020-01-16,,,,,,all,dnmembership,mobileauthentication,,extract,dnmembership,mobileauthentication,,,,,,,,,__(無說明)(小於1M),
all,1,tdn,2020-01-16,,,,,,all,dnmembership,mobilenotice,,extract,dnmembership,mobilenotice,,,,,,,,,公告(無資料),
all,1,tdn,2020-01-16,,,,,,all,dnmembership,partitionmergeaccounts,,extract,dnmembership,partitionmergeaccounts,,,,,,,,,__(無說明)(無資料),
all,1,tdn,2020-01-16,,,,,,all,dnmembership,pcroomips,,extract,dnmembership,pcroomips,,,,,,,,,網咖IP(無資料),
all,1,tdn,2020-01-16,,,,,,all,dnmembership,petalincome,,extract,dnmembership,petalincome,,,,,,,,,龍點收入(大於1M),
all,1,tdn,2020-01-16,,,,,,all,dnmembership,petaloutgo,,extract,dnmembership,petaloutgo,,,,,,,,,龍點支出(大於1M),
all,1,tdn,2020-01-16,,,,,,all,dnmembership,releasedips,,extract,dnmembership,releasedips,,,,,,,,,__(無說明)(小於1M),
all,1,tdn,2020-01-16,,,,,,all,dnmembership,reservedcharacternames,,extract,dnmembership,reservedcharacternames,,,,,,,,,特定帳號裡使用數角色名字(無資料),
all,1,tdn,2020-01-16,,,,,,all,dnmembership,reservedkeys,,extract,dnmembership,reservedkeys,,,,,,,,,遊戲伺服器使用(小於1M),
all,1,tdn,2020-01-16,,,,,,all,dnmembership,restraints,,extract,dnmembership,restraints,,,,,,,,,登入帳號角色制裁(大於1M),
all,1,tdn,2020-01-16,,,,,,all,dnmembership,returnjumpingcharacters,,extract,dnmembership,returnjumpingcharacters,,,,,,,,,__(無說明)(無資料),
all,1,tdn,2020-01-16,,,,,,all,dnmembership,seafishingentryaccounts,,extract,dnmembership,seafishingentryaccounts,,,,,,,,,海釣帳號入場資訊季類別帳號(小於1M),
all,1,tdn,2020-01-16,,,,,,all,dnmembership,secondauthlogs,,extract,dnmembership,secondauthlogs,,,,,,,,,2次認證使用解除Log(大於1M),
all,1,tdn,2020-01-16,,,,,,all,dnmembership,secondauthlogschangetracking,,extract,dnmembership,secondauthlogschangetracking,,,,,,,,,DailySnapshot版本結果紀錄(小於1M),
all,1,tdn,2020-01-16,,,,,,all,dnmembership,secondpassphrases,,extract,dnmembership,secondpassphrases,,,,,,,,,__(無說明)(無資料),
all,1,tdn,2020-01-16,,,,,,all,dnmembership,simpleconfigvalues,,extract,dnmembership,simpleconfigvalues,,,,,,,,,伺服器設定值(小於1M),
all,1,tdn,2020-01-16,,,,,,all,dnmembership,tableauditlogs,,extract,dnmembership,tableauditlogs,,,,,,,,,變更明細(無資料),
all,1,tdn,2020-01-16,,,,,,all,dnmembership,tally,,extract,dnmembership,tally,,,,,,,,,__(無說明)(小於1M),
all,1,tdn,2020-01-16,,,,,,all,dnmembership,testaccounts,,extract,dnmembership,testaccounts,,,,,,,,,測試帳號(小於1M),
all,1,tdn,2020-01-16,,,,,,all,dnmembership,transferaccounts,,extract,dnmembership,transferaccounts,,,,,,,,,移轉申請帳號(小於1M),
all,1,tdn,2020-01-16,,,,,,all,dnmembership,transferconfirmedaccounts,,extract,dnmembership,transferconfirmedaccounts,,,,,,,,,移轉同意的帳號(無資料),
all,1,tdn,2020-01-16,,,,,,all,dnmembership,twnhk,,extract,dnmembership,twnhk,,,,,,,,,__(未在列表)(小於1M),
all,1,tdn,2020-01-16,,,,,,all,dnmembership,warpcharacters,,extract,dnmembership,warpcharacters,,,,,,,,,__(無說明)(無資料),
all,1,tdn,2020-01-16,,,,,,all,dnmembership,webgachacontrol,,extract,dnmembership,webgachacontrol,,,,,,,,,__(無說明)(小於1M),
all,1,tdn,2020-01-16,,,,,,all,dnmembership,worldconfig,,extract,dnmembership,worldconfig,,,,,,,,,世界設定(無資料),
grammar,2,tdn,2020-01-16,,extract,init,onliontimebyaccount,accountid,all,dnmembership,accounts,accountid,extract,dnmembership,accounts_bylogin,,,,,,,,,登入帳號(大於100M),
grammar,2,tdn,2020-01-16,,extract,dnworld,characters,accountid,all,dnmembership,accounts,accountid,extract,dnmembership,accounts,,,,,,,,,登入帳號(大於100M),
grammar,2,tdn,2020-01-16,,extract,dnworld,characters,accountid,all,dnmembership,characters,accountid,extract,dnmembership,characters,,,,,,,,,龍之谷角色(大於100M),
grammar,3,tdn,2020-01-16,,extract,dnmembership,characters,characterid,all,dnmembership,purchaseorders,characterid,extract,dnmembership,purchaseorders,,,,,,,,,道具購入訂購(大於100M),
grammar,4,tdn,2020-01-16,,extract,dnmembership,purchaseorders,purchaseorderid,all,dnmembership,purchaseorderdetails,purchaseorderid,extract,dnmembership,purchaseorderdetails,,,,,,,,,購入訂購詳細(大於100M),
grammar,4,tdn,2020-01-16,,extract,dnmembership,purchaseorders,purchaseorderid,all,dnmembership,vippointlogs,purchaseorderid,extract,dnmembership,vippointlogs,,,,,,,,,基本VIP點數獲得Log(大於1M),
grammar,5,tdn,2020-01-16,,extract,dnmembership,purchaseorderdetails,purchaseorderdetailid,all,dnmembership,selecteditems,purchaseorderdetailid,extract,dnmembership,selecteditems,,,,,,,,,購入訂購詳細(大於100M),
log,1,tdn,2020-01-16,,,,,,all,dnmembership,cashincome,,extract,dnmembership,cashincome,,incomedate,incomedate,0,1,,,,商城收入(大於1M),
log,1,tdn,2020-01-16,,,,,,all,dnmembership,cashoutgo,,extract,dnmembership,cashoutgo,,outgodate,outgodate,0,1,,,,商城支出(大於1M),
log,1,tdn,2020-01-16,,,,,,all,dnmembership,cucount,,extract,dnmembership,cucount,,snapshotdate,snapshotdate,0,1,,,,同時連線人數(小於1M),
log,1,tdn,2020-01-16,,,,,,all,dnmembership,eventrewards,,extract,dnmembership,eventrewards,,reservesenddate,reservesenddate,0,1,,,,特殊保管箱(大於100M),
