type,layers,gamename,startdate,enddate,parenthivedb,parentdbname,parenttablename,parentcolumnname,orihivedb,oridbname,oritablename,oricolumnname,hivedb,dbname,tablename,columnname,logstartdate,logenddate,logfilename,log,sql,memo,memo2
all,1,tdn,2020-01-16,,,,,,all,DNStaging,AchieveMissionsBuffer,,extract,DNStaging,AchieveMissionsBuffer,,,,,,,達成成就同步作業Table,
all,1,tdn,2020-01-16,,,,,,all,DNStaging,AppellationsBuffer,,extract,DNStaging,AppellationsBuffer,,,,,,,稱號同步作業Table,
all,1,tdn,2020-01-16,,,,,,all,DNStaging,CharactersBuffer,,extract,DNStaging,CharactersBuffer,,,,,,,ETL用為了儲存為了儲存角色資訊,
all,1,tdn,2020-01-16,,,,,,all,DNStaging,CodeKinds,,extract,DNStaging,CodeKinds,,,,,,,號碼種類定義,
all,1,tdn,2020-01-16,,,,,,all,DNStaging,Codes,,extract,DNStaging,Codes,,,,,,,特定號碼種類裡的所屬個別號碼定義,
all,1,tdn,2020-01-16,,,,,,all,DNStaging,DailyCharacterStatus,,extract,DNStaging,DailyCharacterStatus,,,,,,,每日角色狀態,
all,1,tdn,2020-01-16,,,,,,all,DNStaging,DailyETLJobHistory,,extract,DNStaging,DailyETLJobHistory,,,,,,,SSIS-DailyETLJob時間紀錄,
all,1,tdn,2020-01-16,,,,,,all,DNStaging,DailyMarketPrices,,extract,DNStaging,DailyMarketPrices,,,,,,,以日計算交易所時勢,
all,1,tdn,2020-01-16,,,,,,all,DNStaging,DailyPVPLadderKillDeathByJob,,extract,DNStaging,DailyPVPLadderKillDeathByJob,,,,,,,PVP天梯裡相對職業類別殺人,
all,1,tdn,2020-01-16,,,,,,all,DNStaging,DailyPVPLadderScores,,extract,DNStaging,DailyPVPLadderScores,,,,,,,每日PVP天梯戰績,
all,1,tdn,2020-01-16,,,,,,all,DNStaging,DailyPVPLadderScoresByJob,,extract,DNStaging,DailyPVPLadderScoresByJob,,,,,,,__(無說明),
all,1,tdn,2020-01-16,,,,,,all,DNStaging,DailySnapshotErrorLog,,extract,DNStaging,DailySnapshotErrorLog,,,,,,,SSIS-DailySnapShot錯誤Log,
all,1,tdn,2020-01-16,,,,,,all,DNStaging,DailySnapshotHistory,,extract,DNStaging,DailySnapshotHistory,,,,,,,SSIS-DailySnapShot時間紀錄,
all,1,tdn,2020-01-16,,,,,,all,DNStaging,DailyUVAccounts,,extract,DNStaging,DailyUVAccounts,,,,,,,日UV,
all,1,tdn,2020-01-16,,,,,,all,DNStaging,DarkLairRank,,extract,DNStaging,DarkLairRank,,,,,,,暗黑空間累積排行,
all,1,tdn,2020-01-16,,,,,,all,DNStaging,DatabaseVersion,,extract,DNStaging,DatabaseVersion,,,,,,,__(位在列表),
all,1,tdn,2020-01-16,,,,,,all,DNStaging,DimAccounts,,extract,DNStaging,DimAccounts,,,,,,,登入帳號,
all,1,tdn,2020-01-16,,,,,,all,DNStaging,DimAppellations,,extract,DNStaging,DimAppellations,,,,,,,稱號,
all,1,tdn,2020-01-16,,,,,,all,DNStaging,DimCharacterAbilities,,extract,DNStaging,DimCharacterAbilities,,,,,,,角色能力值,
all,1,tdn,2020-01-16,,,,,,all,DNStaging,DimCharacters,,extract,DNStaging,DimCharacters,,,,,,,角色,
all,1,tdn,2020-01-16,,,,,,all,DNStaging,DimItems,,extract,DNStaging,DimItems,,,,,,,道具,
all,1,tdn,2020-01-16,,,,,,all,DNStaging,DimJobs,,extract,DNStaging,DimJobs,,,,,,,角色職業,
all,1,tdn,2020-01-16,,,,,,all,DNStaging,DimMaps,,extract,DNStaging,DimMaps,,,,,,,地圖,
all,1,tdn,2020-01-16,,,,,,all,DNStaging,DimMissions,,extract,DNStaging,DimMissions,,,,,,,成就,
all,1,tdn,2020-01-16,,,,,,all,DNStaging,DimProducts,,extract,DNStaging,DimProducts,,,,,,,商品,
all,1,tdn,2020-01-16,,,,,,all,DNStaging,DimQuests,,extract,DNStaging,DimQuests,,,,,,,任務,
all,1,tdn,2020-01-16,,,,,,all,DNStaging,DimRequestBoards,,extract,DNStaging,DimRequestBoards,,,,,,,委託告示板,
all,1,tdn,2020-01-16,,,,,,all,DNStaging,DimSkills,,extract,DNStaging,DimSkills,,,,,,,技能,
all,1,tdn,2020-01-16,,,,,,all,DNStaging,DimStages,,extract,DNStaging,DimStages,,,,,,,關卡,
all,1,tdn,2020-01-16,,,,,,all,DNStaging,DimWorlds,,extract,DNStaging,DimWorlds,,,,,,,世界伺服器,
all,1,tdn,2020-01-16,,,,,,all,DNStaging,ETLDataSources,,extract,DNStaging,ETLDataSources,,,,,,,ETL對象資料正本,
all,1,tdn,2020-01-16,,,,,,all,DNStaging,ETLLogs,,extract,DNStaging,ETLLogs,,,,,,,ETL,
all,1,tdn,2020-01-16,,,,,,all,DNStaging,ETLTransferLogs,,extract,DNStaging,ETLTransferLogs,,,,,,,__(無說明),
all,1,tdn,2020-01-16,,,,,,all,DNStaging,ErrorLogs,,extract,DNStaging,ErrorLogs,,,,,,,依據SP的TRYCATCH區域裡抓到的錯誤追蹤,
all,1,tdn,2020-01-16,,,,,,all,DNStaging,EventResults,,extract,DNStaging,EventResults,,,,,,,活動第一輪中獎者與最終中獎者,
all,1,tdn,2020-01-16,,,,,,all,DNStaging,Events,,extract,DNStaging,Events,,,,,,,活動,
all,1,tdn,2020-01-16,,,,,,all,DNStaging,FairyLevelLogs,,extract,DNStaging,FairyLevelLogs,,,,,,,__(無說明),
all,1,tdn,2020-01-16,,,,,,all,DNStaging,FatigueLogs,,extract,DNStaging,FatigueLogs,,,,,,,疲勞值,
all,1,tdn,2020-01-16,,,,,,all,DNStaging,FriendsBuffer,,extract,DNStaging,FriendsBuffer,,,,,,,朋友同步作業Table,
all,1,tdn,2020-01-16,,,,,,all,DNStaging,GameMoneyTrade,,extract,DNStaging,GameMoneyTrade,,,,,,,C2C,
all,1,tdn,2020-01-16,,,,,,all,DNStaging,IndexUsages,,extract,DNStaging,IndexUsages,,,,,,,資料庫索引使用,
all,1,tdn,2020-01-16,,,,,,all,DNStaging,ItemCountMonitoring,,extract,DNStaging,ItemCountMonitoring,,,,,,,道具數量監看,
all,1,tdn,2020-01-16,,,,,,all,DNStaging,ItemCountMonitoringTarget,,extract,DNStaging,ItemCountMonitoringTarget,,,,,,,道具數量監看對象,
all,1,tdn,2020-01-16,,,,,,all,DNStaging,ItemCountMonitoringTotal,,extract,DNStaging,ItemCountMonitoringTotal,,,,,,,道具數量監看合計,
all,1,tdn,2020-01-16,,,,,,all,DNStaging,ItemListForCount,,extract,DNStaging,ItemListForCount,,,,,,,合計對象道具清單,
all,1,tdn,2020-01-16,,,,,,all,DNStaging,LogLifespan,,extract,DNStaging,LogLifespan,,,,,,,定義LogTable的保存期間,
all,1,tdn,2020-01-16,,,,,,all,DNStaging,MirroredCharacters,,extract,DNStaging,MirroredCharacters,,,,,,,角色屬性,
all,1,tdn,2020-01-16,,,,,,all,DNStaging,Mon_GameMoney1,,extract,DNStaging,Mon_GameMoney1,,,,,,,遊戲金錢監看-1회10金幣以上交換,
all,1,tdn,2020-01-16,,,,,,all,DNStaging,Mon_GameMoney2,,extract,DNStaging,Mon_GameMoney2,,,,,,,遊戲金錢監看-2회50金幣以上交換,
all,1,tdn,2020-01-16,,,,,,all,DNStaging,Mon_GameMoney3,,extract,DNStaging,Mon_GameMoney3,,,,,,,遊戲金錢監看-CoinChangeCode類別,
all,1,tdn,2020-01-16,,,,,,all,DNStaging,MonthlyRank_NestClearTime,,extract,DNStaging,MonthlyRank_NestClearTime,,,,,,,每月巢穴通關時間排名,
all,1,tdn,2020-01-16,,,,,,all,DNStaging,MonthlyRank_PVPKillDeath,,extract,DNStaging,MonthlyRank_PVPKillDeath,,,,,,,每月PVP排名,
all,1,tdn,2020-01-16,,,,,,all,DNStaging,MonthlyRank_StageClearTime,,extract,DNStaging,MonthlyRank_StageClearTime,,,,,,,每月關卡通關時間排名,
all,1,tdn,2020-01-16,,,,,,all,DNStaging,MonthlyUVAccounts,,extract,DNStaging,MonthlyUVAccounts,,,,,,,UV,
all,1,tdn,2020-01-16,,,,,,all,DNStaging,PastMonthlyRank_NestClearTime,,extract,DNStaging,PastMonthlyRank_NestClearTime,,logdate,logdate,[:DataName]_[:DateNoLine],,,上個月單位巢穴通關時間排名,
all,1,tdn,2020-01-16,,,,,,all,DNStaging,PastMonthlyRank_PVPKillDeath,,extract,DNStaging,PastMonthlyRank_PVPKillDeath,,,,,,,上個月單位PVP排名,
all,1,tdn,2020-01-16,,,,,,all,DNStaging,PastMonthlyRank_StageClearTime,,extract,DNStaging,PastMonthlyRank_StageClearTime,,,,,,,上個月單位關卡通關時間排名,
all,1,tdn,2020-01-16,,,,,,all,DNStaging,PastWeeklyRank_NestClearTime,,extract,DNStaging,PastWeeklyRank_NestClearTime,,,,,,,上週單位巢穴通關時間排名,
all,1,tdn,2020-01-16,,,,,,all,DNStaging,PastWeeklyRank_PVPKillDeath,,extract,DNStaging,PastWeeklyRank_PVPKillDeath,,,,,,,上週單位PVP排名,
all,1,tdn,2020-01-16,,,,,,all,DNStaging,PastWeeklyRank_StageClearTime,,extract,DNStaging,PastWeeklyRank_StageClearTime,,,,,,,上週單位關卡通關時間排名,
all,1,tdn,2020-01-16,,,,,,all,DNStaging,PetalIncome,,extract,DNStaging,PetalIncome,,,,,,,龍點收入,
all,1,tdn,2020-01-16,,,,,,all,DNStaging,PetalOutgo,,extract,DNStaging,PetalOutgo,,,,,,,龍點支出,
all,1,tdn,2020-01-16,,,,,,all,DNStaging,PointRanking,,extract,DNStaging,PointRanking,,,,,,,點數排行,
all,1,tdn,2020-01-16,,,,,,all,DNStaging,ProcedureExecStats,,extract,DNStaging,ProcedureExecStats,,,,,,,__(無說明),
all,1,tdn,2020-01-16,,,,,,all,DNStaging,PurchaseOrderDetails,,extract,DNStaging,PurchaseOrderDetails,,,,,,,購入訂購詳細,
all,1,tdn,2020-01-16,,,,,,all,DNStaging,PurchaseOrders,,extract,DNStaging,PurchaseOrders,,,,,,,道具購入訂購,
all,1,tdn,2020-01-16,,,,,,all,DNStaging,Rank_MissionScore,,extract,DNStaging,Rank_MissionScore,,,,,,,成就分數排名,
all,1,tdn,2020-01-16,,,,,,all,DNStaging,SS_AchieveMissionCounts,,extract,DNStaging,SS_AchieveMissionCounts,,,,,,,角色類別達成成就合計,
all,1,tdn,2020-01-16,,,,,,all,DNStaging,SS_AchieveMissions,,extract,DNStaging,SS_AchieveMissions,,,,,,,達成的成就,
all,1,tdn,2020-01-16,,,,,,all,DNStaging,SS_AppellationCounts,,extract,DNStaging,SS_AppellationCounts,,,,,,,角色類別稱號合計,
all,1,tdn,2020-01-16,,,,,,all,DNStaging,SS_Appellations,,extract,DNStaging,SS_Appellations,,,,,,,稱號,
all,1,tdn,2020-01-16,,,,,,all,DNStaging,SS_Friends,,extract,DNStaging,SS_Friends,,,,,,,朋友,
all,1,tdn,2020-01-16,,,,,,all,DNStaging,SS_GuildMembers,,extract,DNStaging,SS_GuildMembers,,,,,,,公會組成人員,
all,1,tdn,2020-01-16,,,,,,all,DNStaging,SS_Guilds,,extract,DNStaging,SS_Guilds,,,,,,,公會經驗值,
all,1,tdn,2020-01-16,,,,,,all,DNStaging,SS_PVPScores,,extract,DNStaging,SS_PVPScores,,,,,,,PVP成績,
all,1,tdn,2020-01-16,,,,,,all,DNStaging,SS_RestraintedAccounts,,extract,DNStaging,SS_RestraintedAccounts,,,,,,,制裁帳號截圖,
all,1,tdn,2020-01-16,,,,,,all,DNStaging,ST_ActiveGameMoney,,extract,DNStaging,ST_ActiveGameMoney,,,,,,,活躍類別角色的持有遊戲金錢合計,
all,1,tdn,2020-01-16,,,,,,all,DNStaging,ST_ActiveGameMoneyByCharacterLevel,,extract,DNStaging,ST_ActiveGameMoneyByCharacterLevel,,,,,,,7日內連線角色持有的遊戲金錢&角色等級類別合計,
all,1,tdn,2020-01-16,,,,,,all,DNStaging,ST_ChannelPartnerDailyDashboard,,extract,DNStaging,ST_ChannelPartnerDailyDashboard,,,,,,,以日計算頻道類別指標合計,
all,1,tdn,2020-01-16,,,,,,all,DNStaging,ST_DailyC2CByCharacter,,extract,DNStaging,ST_DailyC2CByCharacter,,,,,,,角色類別C2C每日賣出,
all,1,tdn,2020-01-16,,,,,,all,DNStaging,ST_DailyCharacterSurvival,,extract,DNStaging,ST_DailyCharacterSurvival,,,,,,,"最近6個月的角色以日計算等級類別職業類別殘存率(RU,UV,連續再訪問)",
all,1,tdn,2020-01-16,,,,,,all,DNStaging,ST_DailyCoinUse,,extract,DNStaging,ST_DailyCoinUse,,,,,,,以日計算硬幣使用合計,
all,1,tdn,2020-01-16,,,,,,all,DNStaging,ST_DailyDashboard,,extract,DNStaging,ST_DailyDashboard,,,,,,,每日儀表板,
all,1,tdn,2020-01-16,,,,,,all,DNStaging,ST_DailyDomant,,extract,DNStaging,ST_DailyDomant,,,,,,,以日計算休眠回流玩家合計,
all,1,tdn,2020-01-16,,,,,,all,DNStaging,ST_DailyGameMoney,,extract,DNStaging,ST_DailyGameMoney,,,,,,,每日流通(遊戲金錢)合計,
all,1,tdn,2020-01-16,,,,,,all,DNStaging,ST_DailyItemCount,,extract,DNStaging,ST_DailyItemCount,,,,,,,以日計算道具獲得/消耗/合計,
all,1,tdn,2020-01-16,,,,,,all,DNStaging,ST_DailyLevelSurvival,,extract,DNStaging,ST_DailyLevelSurvival,,,,,,,"最近6개每月的以日計算等級類別殘存率(RU,UV,連續再訪問)",
all,1,tdn,2020-01-16,,,,,,all,DNStaging,ST_DailyMapStay,,extract,DNStaging,ST_DailyMapStay,,,,,,,以日計算地圖進行時間合計,
all,1,tdn,2020-01-16,,,,,,all,DNStaging,ST_DailyMapVisit,,extract,DNStaging,ST_DailyMapVisit,,,,,,,每日地圖訪問,
all,1,tdn,2020-01-16,,,,,,all,DNStaging,ST_DailyMaxCU,,extract,DNStaging,ST_DailyMaxCU,,,,,,,1日內最高同時連線,
all,1,tdn,2020-01-16,,,,,,all,DNStaging,ST_DailyNestClear,,extract,DNStaging,ST_DailyNestClear,,,,,,,__(無說明),
all,1,tdn,2020-01-16,,,,,,all,DNStaging,ST_DailyNewbieAfterMonthCharacterLevel,,extract,DNStaging,ST_DailyNewbieAfterMonthCharacterLevel,,,,,,,__(無說明),
all,1,tdn,2020-01-16,,,,,,all,DNStaging,ST_DailyPVP,,extract,DNStaging,ST_DailyPVP,,,,,,,以日計算PVP合計,
all,1,tdn,2020-01-16,,,,,,all,DNStaging,ST_DailyPVPLadder2,,extract,DNStaging,ST_DailyPVPLadder2,,,,,,,以日計算PVP天梯合計,
all,1,tdn,2020-01-16,,,,,,all,DNStaging,ST_DailySalesAmountRange,,extract,DNStaging,ST_DailySalesAmountRange,,,,,,,每日賣出額範圍類別合計,
all,1,tdn,2020-01-16,,,,,,all,DNStaging,ST_DailySalesByCharacter,,extract,DNStaging,ST_DailySalesByCharacter,,,,,,,角色類別每日賣出,
all,1,tdn,2020-01-16,,,,,,all,DNStaging,ST_DailySalesByCharacterProduct,,extract,DNStaging,ST_DailySalesByCharacterProduct,,,,,,,角色類別商品類別每日賣出,
all,1,tdn,2020-01-16,,,,,,all,DNStaging,ST_DailySalesByProduct,,extract,DNStaging,ST_DailySalesByProduct,,,,,,,商品類別每日賣出,
all,1,tdn,2020-01-16,,,,,,all,DNStaging,ST_DailyStageClear,,extract,DNStaging,ST_DailyStageClear,,,,,,,每日關卡通關,
all,1,tdn,2020-01-16,,,,,,all,DNStaging,ST_DailyStageEnd,,extract,DNStaging,ST_DailyStageEnd,,,,,,,以日計算關卡通關合計,
all,1,tdn,2020-01-16,,,,,,all,DNStaging,ST_DailyTeacher1,,extract,DNStaging,ST_DailyTeacher1,,,,,,,以日計算師傅合計1,
all,1,tdn,2020-01-16,,,,,,all,DNStaging,ST_DailyTeacher2,,extract,DNStaging,ST_DailyTeacher2,,,,,,,以日計算師傅合計2,
all,1,tdn,2020-01-16,,,,,,all,DNStaging,ST_DailyVisit,,extract,DNStaging,ST_DailyVisit,,,,,,,每日訪問者統計,
all,1,tdn,2020-01-16,,,,,,all,DNStaging,ST_HourlyMaxCU,,extract,DNStaging,ST_HourlyMaxCU,,,,,,,時間類別最高同時連線,
all,1,tdn,2020-01-16,,,,,,all,DNStaging,ST_ItemSales,,extract,DNStaging,ST_ItemSales,,,,,,,商店透過NPC道具賣出合計,
all,1,tdn,2020-01-16,,,,,,all,DNStaging,ST_JobAndLevelType1,,extract,DNStaging,ST_JobAndLevelType1,,,,,,,"全部角色的職業,等級統計1",
all,1,tdn,2020-01-16,,,,,,all,DNStaging,ST_JobAndLevelType2,,extract,DNStaging,ST_JobAndLevelType2,,,,,,,"全部角色的職業,等級統計2",
all,1,tdn,2020-01-16,,,,,,all,DNStaging,ST_JobAndLevelType3,,extract,DNStaging,ST_JobAndLevelType3,,,,,,,"全部角色的職業,等級統計3",
all,1,tdn,2020-01-16,,,,,,all,DNStaging,ST_JobAndLevelType4,,extract,DNStaging,ST_JobAndLevelType4,,,,,,,"全部角色的職業,等級統計4",
all,1,tdn,2020-01-16,,,,,,all,DNStaging,ST_JobAndLevelType5,,extract,DNStaging,ST_JobAndLevelType5,,,,,,,"全部角色的職業,等級統計5",
all,1,tdn,2020-01-16,,,,,,all,DNStaging,ST_JobAndLevelType6,,extract,DNStaging,ST_JobAndLevelType6,,,,,,,"全部角色的職業,等級統計6",
all,1,tdn,2020-01-16,,,,,,all,DNStaging,ST_MonthlyC2CByCharacter,,extract,DNStaging,ST_MonthlyC2CByCharacter,,,,,,,角色類別C2C每月賣出,
all,1,tdn,2020-01-16,,,,,,all,DNStaging,ST_MonthlyDonate,,extract,DNStaging,ST_MonthlyDonate,,,,,,,每個月捐贈合計,
all,1,tdn,2020-01-16,,,,,,all,DNStaging,ST_MonthlySalesAmountRange,,extract,DNStaging,ST_MonthlySalesAmountRange,,,,,,,每個月賣出額範圍類別合計,
all,1,tdn,2020-01-16,,,,,,all,DNStaging,ST_MonthlySalesByCharacter,,extract,DNStaging,ST_MonthlySalesByCharacter,,,,,,,角色類別每個月賣出,
all,1,tdn,2020-01-16,,,,,,all,DNStaging,ST_MonthlySalesByCharacterProduct,,extract,DNStaging,ST_MonthlySalesByCharacterProduct,,,,,,,角色類別商品類別월賣出,
all,1,tdn,2020-01-16,,,,,,all,DNStaging,ST_MonthlySalesByProduct,,extract,DNStaging,ST_MonthlySalesByProduct,,,,,,,商品類別每個月賣出,
all,1,tdn,2020-01-16,,,,,,all,DNStaging,ST_MonthlyUV,,extract,DNStaging,ST_MonthlyUV,,,,,,,每月UV合計,
all,1,tdn,2020-01-16,,,,,,all,DNStaging,ST_PlayingPlayingValue,,extract,DNStaging,ST_PlayingPlayingValue,,,,,,,PPV,
all,1,tdn,2020-01-16,,,,,,all,DNStaging,ST_SurvivalRate,,extract,DNStaging,ST_SurvivalRate,,,,,,,週間/每月帳號的,
all,1,tdn,2020-01-16,,,,,,all,DNStaging,ST_WeeklyNewUV,,extract,DNStaging,ST_WeeklyNewUV,,,,,,,週間新UV合計,
all,1,tdn,2020-01-16,,,,,,all,DNStaging,ST_WeeklyRevisit,,extract,DNStaging,ST_WeeklyRevisit,,,,,,,週間再訪問,
all,1,tdn,2020-01-16,,,,,,all,DNStaging,ST_WeeklyStageEnd,,extract,DNStaging,ST_WeeklyStageEnd,,,,,,,週間關卡通關合計,
all,1,tdn,2020-01-16,,,,,,all,DNStaging,ST_WeeklyUV,,extract,DNStaging,ST_WeeklyUV,,,,,,,週間UV合計,
all,1,tdn,2020-01-16,,,,,,all,DNStaging,SalesAmountRanges,,extract,DNStaging,SalesAmountRanges,,,,,,,Code定義,
all,1,tdn,2020-01-16,,,,,,all,DNStaging,SecondAuthLogsBuffer,,extract,DNStaging,SecondAuthLogsBuffer,,,,,,,2次認證使用解除同步作業,
all,1,tdn,2020-01-16,,,,,,all,DNStaging,SelectedItems,,extract,DNStaging,SelectedItems,,,,,,,選擇的道具,
all,1,tdn,2020-01-16,,,,,,all,DNStaging,SlideWindowConfig,,extract,DNStaging,SlideWindowConfig,,,,,,,跑馬燈視窗處理設定,
all,1,tdn,2020-01-16,,,,,,all,DNStaging,TableAuditLogs,,extract,DNStaging,TableAuditLogs,,,,,,,"因為UPDATE,DELETE變更Table明細",
all,1,tdn,2020-01-16,,,,,,all,DNStaging,TableCapacity,,extract,DNStaging,TableCapacity,,,,,,,DBTable容量,
all,1,tdn,2020-01-16,,,,,,all,DNStaging,Tally,,extract,DNStaging,Tally,,,,,,,"IF_Split,IF_NSplitUDF裡參考Table",
all,1,tdn,2020-01-16,,,,,,all,DNStaging,TempAccounts,,extract,DNStaging,TempAccounts,,,,,,,移轉玩家帳號名稱變更作業,
all,1,tdn,2020-01-16,,,,,,all,DNStaging,TempCharacters1,,extract,DNStaging,TempCharacters1,,,,,,,角色,
all,1,tdn,2020-01-16,,,,,,all,DNStaging,TempCharacters2,,extract,DNStaging,TempCharacters2,,,,,,,角色狀態,
all,1,tdn,2020-01-16,,,,,,all,DNStaging,TempDeletedCharacters,,extract,DNStaging,TempDeletedCharacters,,,,,,,刪除角色,
all,1,tdn,2020-01-16,,,,,,all,DNStaging,TempSecondAuthStatus,,extract,DNStaging,TempSecondAuthStatus,,,,,,,2次認證設定狀態,
all,1,tdn,2020-01-16,,,,,,all,DNStaging,UnearnedRevenue,,extract,DNStaging,UnearnedRevenue,,,,,,,賣出重置,
all,1,tdn,2020-01-16,,,,,,all,DNStaging,WeeklyDarkLairRank,,extract,DNStaging,WeeklyDarkLairRank,,,,,,,週間暗黑空間排行,
all,1,tdn,2020-01-16,,,,,,all,DNStaging,WeeklyRank_NestClearTime,,extract,DNStaging,WeeklyRank_NestClearTime,,,,,,,週間巢穴通關時間排名,
all,1,tdn,2020-01-16,,,,,,all,DNStaging,WeeklyRank_PVPKillDeath,,extract,DNStaging,WeeklyRank_PVPKillDeath,,,,,,,週間PVP排名,
all,1,tdn,2020-01-16,,,,,,all,DNStaging,WeeklyRank_StageClearTime,,extract,DNStaging,WeeklyRank_StageClearTime,,,,,,,週間關卡通關時間排名,
all,1,tdn,2020-01-16,,,,,,all,DNStaging,WeeklyUVAccounts,,extract,DNStaging,WeeklyUVAccounts,,,,,,,UV,
all,1,tdn,2020-01-16,,,,,,all,DNStaging,WorldPointRanking,,extract,DNStaging,WorldPointRanking,,,,,,,總和點數排行,
all,1,tdn,2020-01-16,,,,,,all,DNStaging,tempLeavePreventionConnInfo,,extract,DNStaging,tempLeavePreventionConnInfo,,,,,,,__(無說明),
logfile,1,tdn,2020-01-16,,,,,,all,DNStaging,AccountLoginLogs,,extract,DNStaging,AccountLoginLogs,,,,[:DataName]_[:DateNoLine],,,帳號登入Log,
logfile,1,tdn,2020-01-16,,,,,,all,DNStaging,AccountLogoutLogs,,extract,DNStaging,AccountLogoutLogs,,,,[:DataName]_[:DateNoLine],,,帳號登出Log,
logfile,1,tdn,2020-01-16,,,,,,all,DNStaging,BoardGamesLogs,,extract,DNStaging,BoardGamesLogs,,,,[:DataName]_[:DateNoLine],,,__(無說明),
logfile,1,tdn,2020-01-16,,,,,,all,DNStaging,CUCountLogs,,extract,DNStaging,CUCountLogs,,,,[:DataName]_[:DateNoLine],,,同時連線人數,
logfile,1,tdn,2020-01-16,,,,,,all,DNStaging,CardCollectionLogs,,extract,DNStaging,CardCollectionLogs,,,,[:DataName]_[:DateNoLine],,,卡片收集登錄/刪除,
logfile,1,tdn,2020-01-16,,,,,,all,DNStaging,CardCollectionStageScoreLogs,,extract,DNStaging,CardCollectionStageScoreLogs,,,,[:DataName]_[:DateNoLine],,,怪物關卡得分,
logfile,1,tdn,2020-01-16,,,,,,all,DNStaging,CardCollectionSynthesisLogs,,extract,DNStaging,CardCollectionSynthesisLogs,,,,[:DataName]_[:DateNoLine],,,收集強化or合成,
logfile,1,tdn,2020-01-16,,,,,,all,DNStaging,CashRebirthCoinLogs,,extract,DNStaging,CashRebirthCoinLogs,,,,[:DataName]_[:DateNoLine],,,商城復活硬幣,
logfile,1,tdn,2020-01-16,,,,,,all,DNStaging,CharacterActionLogs,,extract,DNStaging,CharacterActionLogs,,,,[:DataName]_[:DateNoLine],,,角色動作,
logfile,1,tdn,2020-01-16,,,,,,all,DNStaging,CharacterAwakenForceLevelLogs,,extract,DNStaging,CharacterAwakenForceLevelLogs,,,,[:DataName]_[:DateNoLine],,,__(無說明),
logfile,1,tdn,2020-01-16,,,,,,all,DNStaging,CharacterLevelLogs,,extract,DNStaging,CharacterLevelLogs,,,,[:DataName]_[:DateNoLine],,,角色等級,
logfile,1,tdn,2020-01-16,,,,,,all,DNStaging,CharacterLoginLogs,,extract,DNStaging,CharacterLoginLogs,,,,[:DataName]_[:DateNoLine],,,角色單位的登入,
logfile,1,tdn,2020-01-16,,,,,,all,DNStaging,CharacterLogoutLogs,,extract,DNStaging,CharacterLogoutLogs,,,,[:DataName]_[:DateNoLine],,,角色單位的登出,
logfile,1,tdn,2020-01-16,,,,,,all,DNStaging,CharacterResetPositionLogs,,extract,DNStaging,CharacterResetPositionLogs,,,,[:DataName]_[:DateNoLine],,,角色離開座標,
logfile,1,tdn,2020-01-16,,,,,,all,DNStaging,CoinLogs,,extract,DNStaging,CoinLogs,,,,[:DataName]_[:DateNoLine],,,硬幣,
logfile,1,tdn,2020-01-16,,,,,,all,DNStaging,CollectionAlbumPieceLogs,,extract,DNStaging,CollectionAlbumPieceLogs,,,,[:DataName]_[:DateNoLine],,,收集活動,
logfile,1,tdn,2020-01-16,,,,,,all,DNStaging,DarkLairLogs,,extract,DNStaging,DarkLairLogs,,,,[:DataName]_[:DateNoLine],,,暗黑空間,
logfile,1,tdn,2020-01-16,,,,,,all,DNStaging,FieldAttachmentDeleteLogs,,extract,DNStaging,FieldAttachmentDeleteLogs,,,,[:DataName]_[:DateNoLine],,,農場添加道具刪除,
logfile,1,tdn,2020-01-16,,,,,,all,DNStaging,FieldDeleteLogs,,extract,DNStaging,FieldDeleteLogs,,,,[:DataName]_[:DateNoLine],,,農場添加道具刪除,
logfile,1,tdn,2020-01-16,,,,,,all,DNStaging,FieldLogs,,extract,DNStaging,FieldLogs,,,,[:DataName]_[:DateNoLine],,,農地,
logfile,1,tdn,2020-01-16,,,,,,all,DNStaging,GuildLotationMissionLogs,,extract,DNStaging,GuildLotationMissionLogs,,,,[:DataName]_[:DateNoLine],,,__(無說明),
logfile,1,tdn,2020-01-16,,,,,,all,DNStaging,GuildPointLogs,,extract,DNStaging,GuildPointLogs,,,,[:DataName]_[:DateNoLine],,,__(無說明),
logfile,1,tdn,2020-01-16,,,,,,all,DNStaging,HeroLevelLogs,,extract,DNStaging,HeroLevelLogs,,,,[:DataName]_[:DateNoLine],,,英雄等級,
logfile,1,tdn,2020-01-16,,,,,,all,DNStaging,HeroStageClearLogs,,extract,DNStaging,HeroStageClearLogs,,,,[:DataName]_[:DateNoLine],,,英雄殿堂通關,
logfile,1,tdn,2020-01-16,,,,,,all,DNStaging,HiddenCashShopLogs,,extract,DNStaging,HiddenCashShopLogs,,,,[:DataName]_[:DateNoLine],,,隱藏商城,
logfile,1,tdn,2020-01-16,,,,,,all,DNStaging,ItemAttributeLogs,,extract,DNStaging,ItemAttributeLogs,,,,[:DataName]_[:DateNoLine],,,道具屬性變更,
logfile,1,tdn,2020-01-16,,,,,,all,DNStaging,ItemLogs,,extract,DNStaging,ItemLogs,,,,[:DataName]_[:DateNoLine],,,道具,
logfile,1,tdn,2020-01-16,,,,,,all,DNStaging,JobChangeLogs,,extract,DNStaging,JobChangeLogs,,,,[:DataName]_[:DateNoLine],,,角色轉職,
logfile,1,tdn,2020-01-16,,,,,,all,DNStaging,LikeLogs,,extract,DNStaging,LikeLogs,,,,[:DataName]_[:DateNoLine],,,__(無說明),
logfile,1,tdn,2020-01-16,,,,,,all,DNStaging,MailLogs,,extract,DNStaging,MailLogs,,,,[:DataName]_[:DateNoLine],,,信件,
logfile,1,tdn,2020-01-16,,,,,,all,DNStaging,MapStayLogs,,extract,DNStaging,MapStayLogs,,,,[:DataName]_[:DateNoLine],,,地圖滯留,
logfile,1,tdn,2020-01-16,,,,,,all,DNStaging,MissionAchieveLogs,,extract,DNStaging,MissionAchieveLogs,,,,[:DataName]_[:DateNoLine],,,成就達成,
logfile,1,tdn,2020-01-16,,,,,,all,DNStaging,MobileAuthenticationLogs,,extract,DNStaging,MobileAuthenticationLogs,,,,[:DataName]_[:DateNoLine],,,__(無說明),
logfile,1,tdn,2020-01-16,,,,,,all,DNStaging,NestDeathLogs,,extract,DNStaging,NestDeathLogs,,,,[:DataName]_[:DateNoLine],,,巢穴死亡,
logfile,1,tdn,2020-01-16,,,,,,all,DNStaging,NestGateClearLogs,,extract,DNStaging,NestGateClearLogs,,,,[:DataName]_[:DateNoLine],,,巢穴關卡通關,
logfile,1,tdn,2020-01-16,,,,,,all,DNStaging,PCRoomCharacterLoginLogs,,extract,DNStaging,PCRoomCharacterLoginLogs,,,,[:DataName]_[:DateNoLine],,,網咖登入,
logfile,1,tdn,2020-01-16,,,,,,all,DNStaging,PCRoomCharacterLogoutLogs,,extract,DNStaging,PCRoomCharacterLogoutLogs,,,,[:DataName]_[:DateNoLine],,,網咖登出,
logfile,1,tdn,2020-01-16,,,,,,all,DNStaging,PVPEndLogs,,extract,DNStaging,PVPEndLogs,,,,[:DataName]_[:DateNoLine],,,PVP結束,
logfile,1,tdn,2020-01-16,,,,,,all,DNStaging,PVPLadderSingleModeLogs,,extract,DNStaging,PVPLadderSingleModeLogs,,,,[:DataName]_[:DateNoLine],,,__(無說明),
logfile,1,tdn,2020-01-16,,,,,,all,DNStaging,PVPLogs,,extract,DNStaging,PVPLogs,,,,[:DataName]_[:DateNoLine],,,PVP開始ID,
logfile,1,tdn,2020-01-16,,,,,,all,DNStaging,PartyLogs,,extract,DNStaging,PartyLogs,,,,[:DataName]_[:DateNoLine],,,組隊,
logfile,1,tdn,2020-01-16,,,,,,all,DNStaging,PartyRebirthLogs,,extract,DNStaging,PartyRebirthLogs,,,,[:DataName]_[:DateNoLine],,,__(無說明),
logfile,1,tdn,2020-01-16,,,,,,all,DNStaging,PetSkillLogs,,extract,DNStaging,PetSkillLogs,,,,[:DataName]_[:DateNoLine],,,__(無說明),
logfile,1,tdn,2020-01-16,,,,,,all,DNStaging,PointLogs,,extract,DNStaging,PointLogs,,,,[:DataName]_[:DateNoLine],,,點數,
logfile,1,tdn,2020-01-16,,,,,,all,DNStaging,PotenBonusLogs,,extract,DNStaging,PotenBonusLogs,,,,[:DataName]_[:DateNoLine],,,__(無說明),
logfile,1,tdn,2020-01-16,,,,,,all,DNStaging,PromiseLogs,,extract,DNStaging,PromiseLogs,,,,[:DataName]_[:DateNoLine],,,__(尚未處理),
logfile,1,tdn,2020-01-16,,,,,,all,DNStaging,QuestCompleteLogs,,extract,DNStaging,QuestCompleteLogs,,,,[:DataName]_[:DateNoLine],,,任務結束,
logfile,1,tdn,2020-01-16,,,,,,all,DNStaging,RepetitionQuestCompleteLogs,,extract,DNStaging,RepetitionQuestCompleteLogs,,,,[:DataName]_[:DateNoLine],,,反覆任務結束,
logfile,1,tdn,2020-01-16,,,,,,all,DNStaging,RequestBoardLogs,,extract,DNStaging,RequestBoardLogs,,,,[:DataName]_[:DateNoLine],,,__(無說明),
logfile,1,tdn,2020-01-16,,,,,,all,DNStaging,SeaFishingScoreLogs,,extract,DNStaging,SeaFishingScoreLogs,,,,[:DataName]_[:DateNoLine],,,海釣魚獲得,
logfile,1,tdn,2020-01-16,,,,,,all,DNStaging,SkillLogs,,extract,DNStaging,SkillLogs,,,,[:DataName]_[:DateNoLine],,,技能,
logfile,1,tdn,2020-01-16,,,,,,all,DNStaging,SkillPointLogs,,extract,DNStaging,SkillPointLogs,,,,[:DataName]_[:DateNoLine],,,技能點數,
logfile,1,tdn,2020-01-16,,,,,,all,DNStaging,StageDamageLogs,,extract,DNStaging,StageDamageLogs,,,,[:DataName]_[:DateNoLine],,,__(無說明),
logfile,1,tdn,2020-01-16,,,,,,all,DNStaging,StageEndLogs,,extract,DNStaging,StageEndLogs,,,,[:DataName]_[:DateNoLine],,,關卡結束,
logfile,1,tdn,2020-01-16,,,,,,all,DNStaging,StageLogs,,extract,DNStaging,StageLogs,,,,[:DataName]_[:DateNoLine],,,關卡開始ID,
logfile,1,tdn,2020-01-16,,,,,,all,DNStaging,StageRewardLogs,,extract,DNStaging,StageRewardLogs,,,,[:DataName]_[:DateNoLine],,,關卡獎勵,
logfile,1,tdn,2020-01-16,,,,,,all,DNStaging,TeacherAndPupilLogs,,extract,DNStaging,TeacherAndPupilLogs,,,,[:DataName]_[:DateNoLine],,,刪除,
logfile,1,tdn,2020-01-16,,,,,,all,DNStaging,TradeRegisterLogs,,extract,DNStaging,TradeRegisterLogs,,,,[:DataName]_[:DateNoLine],,,交易所登錄,
logfile,1,tdn,2020-01-16,,,,,,all,DNStaging,TradeSuccessLogs,,extract,DNStaging,TradeSuccessLogs,,,,[:DataName]_[:DateNoLine],,,交易成功,
