type,layers,gamename,startdate,enddate,parenthivedb,parentdbname,parenttablename,parentcolumnname,orihivedb,oridbname,oritablename,oricolumnname,hivedb,dbname,tablename,columnname,logstartdate,logenddate,dtbeforeday,dtafterday,logfilename,log,sql,memo,memo2
all,1,tdn,2020-01-16,,,,,,all,dnworld,abusemonitor,,extract,dnworld,abusemonitor,,,,,,,,,伺服器裡角色類別感應濫用的計數Table,
all,1,tdn,2020-01-16,,,,,,all,dnworld,abusemonitorrestraintconstants,,extract,dnworld,abusemonitorrestraintconstants,,,,,,,,,濫用判斷基準值定義(1M以下),
all,1,tdn,2020-01-16,,,,,,all,dnworld,abusereporthistory,,extract,dnworld,abusereporthistory,,,,,,,,,濫用申告履歷(無資料),
all,1,tdn,2020-01-16,,,,,,all,dnworld,alteiaguildrank,,extract,dnworld,alteiaguildrank,,,,,,,,,阿堤依亞大陸活動公會排行(1M以下),
all,1,tdn,2020-01-16,,,,,,all,dnworld,alteiaschedules,,extract,dnworld,alteiaschedules,,,,,,,,,阿堤依亞活動日程(1M以下),
all,1,tdn,2020-01-16,,,,,,all,dnworld,alteiasendtickets,,extract,dnworld,alteiasendtickets,,,,,,,,,阿堤依亞大陸活動寄件履歷(1M以下),
all,1,tdn,2020-01-16,,,,,,all,dnworld,appellationrewardcompleteforaccount,,extract,dnworld,appellationrewardcompleteforaccount,,,,,,,,,稱號個數獎勵(帳號單位)(1M以下),
all,1,tdn,2020-01-16,,,,,,all,dnworld,appellationrewardcompleteforcharacter,,extract,dnworld,appellationrewardcompleteforcharacter,,,,,,,,,稱號收集獎勵(角色單位)(1M以下),
all,1,tdn,2020-01-16,,,,,,all,dnworld,attachitemsformailschedule,,extract,dnworld,attachitemsformailschedule,,,,,,,,,預約信件附件道具,
all,1,tdn,2020-01-16,,,,,,all,dnworld,attachpetequipmentsformailschedule,,extract,dnworld,attachpetequipmentsformailschedule,,,,,,,,,行程表信件裡要附件的寵物道具資訊(無資料),
all,1,tdn,2020-01-16,,,,,,all,dnworld,auctionbidding,,extract,dnworld,auctionbidding,,,,,,,,,競標投標資訊(無資料),
all,1,tdn,2020-01-16,,,,,,all,dnworld,auctioncancelreason,,extract,dnworld,auctioncancelreason,,,,,,,,,競標取消事由(無資料),
all,1,tdn,2020-01-16,,,,,,all,dnworld,auctionitems,,extract,dnworld,auctionitems,,,,,,,,,競標裡登錄的道具(無資料),
all,1,tdn,2020-01-16,,,,,,all,dnworld,auctionitemshistory,,extract,dnworld,auctionitemshistory,,,,,,,,,競標道具登錄與回收紀錄(無資料),
all,1,tdn,2020-01-16,,,,,,all,dnworld,auctions,,extract,dnworld,auctions,,,,,,,,,道具競標(無資料),
all,1,tdn,2020-01-16,,,,,,all,dnworld,autotrade,,extract,dnworld,autotrade,,,,,,,,,自動交易(無資料),
all,1,tdn,2020-01-16,,,,,,all,dnworld,autotraderesults,,extract,dnworld,autotraderesults,,,,,,,,,自動交易結果(無資料),
all,1,tdn,2020-01-16,,,,,,all,dnworld,bingogetnumbers,,extract,dnworld,bingogetnumbers,,,,,,,,,賓果獲得號碼,
all,1,tdn,2020-01-16,,,,,,all,dnworld,bingorewardhistory,,extract,dnworld,bingorewardhistory,,,,,,,,,賓果獎勵履歷,
all,1,tdn,2020-01-16,,,,,,all,dnworld,bingosetnumbers,,extract,dnworld,bingosetnumbers,,,,,,,,,賓果組合號碼,
all,1,tdn,2020-01-16,,,,,,all,dnworld,bingowinnumbers,,extract,dnworld,bingowinnumbers,,,,,,,,,賓果中獎號碼,
all,1,tdn,2020-01-16,,,,,,all,dnworld,blockeddngirls,,extract,dnworld,blockeddngirls,,,,,,,,,被封鎖龍之谷女孩(代言)(無資料),
all,1,tdn,2020-01-16,,,,,,all,dnworld,boardgames,,extract,dnworld,boardgames,,,,,,,,,__(無說明)(1M以下),
all,1,tdn,2020-01-16,,,,,,all,dnworld,canceledguildwarfinalresults,,extract,dnworld,canceledguildwarfinalresults,,,,,,,,,公會戰決賽結果(無資料),
all,1,tdn,2020-01-16,,,,,,all,dnworld,cardcollectionstagemembers,,extract,dnworld,cardcollectionstagemembers,,,,,,,,,卡片收集關卡(無資料),
all,1,tdn,2020-01-16,,,,,,all,dnworld,cardcollectionstageranking,,extract,dnworld,cardcollectionstageranking,,,,,,,,,卡片收集關卡(無資料),
all,1,tdn,2020-01-16,,,,,,all,dnworld,cardcollectionstagerewards,,extract,dnworld,cardcollectionstagerewards,,,,,,,,,怪物關卡排行獎勵對象(無資料),
all,1,tdn,2020-01-16,,,,,,all,dnworld,cardcollectionstagescores,,extract,dnworld,cardcollectionstagescores,,,,,,,,,怪物關卡進行紀錄(無資料),
all,1,tdn,2020-01-16,,,,,,all,dnworld,cashrebirthcoins,,extract,dnworld,cashrebirthcoins,,,,,,,,,商城復活硬幣,
all,1,tdn,2020-01-16,,,,,,all,dnworld,challengedarklairrewardcharacters,,extract,dnworld,challengedarklairrewardcharacters,,,,,,,,,挑戰型暗黑空間每個月獎勵角色(1M以下),
all,1,tdn,2020-01-16,,,,,,all,dnworld,channeltalkmembers,,extract,dnworld,channeltalkmembers,,,,,,,,,頻道對話成員(1M以下),
all,1,tdn,2020-01-16,,,,,,all,dnworld,channeltalks,,extract,dnworld,channeltalks,,,,,,,,,頻道對話(1M以下),
all,1,tdn,2020-01-16,,,,,,all,dnworld,chaosgaugeitems,,extract,dnworld,chaosgaugeitems,,,,,,,,,渾沌格線值道具(1M以下),
all,1,tdn,2020-01-16,,,,,,all,dnworld,characterawakenforcelevel,,extract,dnworld,characterawakenforcelevel,,,,,,,,,__(無說明)(1M以下),
all,1,tdn,2020-01-16,,,,,,all,dnworld,characterstarteritems,,extract,dnworld,characterstarteritems,,,,,,,,,角色開始道具(無資料),
all,1,tdn,2020-01-16,,,,,,all,dnworld,characterstatranking,,extract,dnworld,characterstatranking,,,,,,,,,角色狀態排行(1M以下),
all,1,tdn,2020-01-16,,,,,,all,dnworld,checksumplaintexts,,extract,dnworld,checksumplaintexts,,,,,,,,,檢驗總和確認(無資料),
all,1,tdn,2020-01-16,,,,,,all,dnworld,codekinds,,extract,dnworld,codekinds,,,,,,,,,號碼種類定義(無資料),
all,1,tdn,2020-01-16,,,,,,all,dnworld,codes,,extract,dnworld,codes,,,,,,,,,特定號碼種類裡的所屬個別號碼定義(無資料),
all,1,tdn,2020-01-16,,,,,,all,dnworld,collectionalbumcomplete,,extract,dnworld,collectionalbumcomplete,,,,,,,,,完成的Album上儲存(1M以下),
all,1,tdn,2020-01-16,,,,,,all,dnworld,collectionalbumpiecestorage,,extract,dnworld,collectionalbumpiecestorage,,,,,,,,,為了專輯製作保存繳交的碎片數,
all,1,tdn,2020-01-16,,,,,,all,dnworld,completechallenges,,extract,dnworld,completechallenges,,,,,,,,,完成的挑戰結果(1M以下),
all,1,tdn,2020-01-16,,,,,,all,dnworld,completeeventquest,,extract,dnworld,completeeventquest,,,,,,,,,活動任務結束明細(無資料),
all,1,tdn,2020-01-16,,,,,,all,dnworld,costumesetcollectionrewards,,extract,dnworld,costumesetcollectionrewards,,,,,,,,,時裝套裝收集獎勵(1M以下),
all,1,tdn,2020-01-16,,,,,,all,dnworld,costumesetcollections,,extract,dnworld,costumesetcollections,,,,,,,,,時裝套裝收集(1M以下),
all,1,tdn,2020-01-16,,,,,,all,dnworld,dailydonation,,extract,dnworld,dailydonation,,,,,,,,,每日捐贈(1M以下),
all,1,tdn,2020-01-16,,,,,,all,dnworld,dailyitemtraderecord,,extract,dnworld,dailyitemtraderecord,,,,,,,,,每日商店道具購入紀錄(1M以下),
all,1,tdn,2020-01-16,,,,,,all,dnworld,dailylikes,,extract,dnworld,dailylikes,,,,,,,,,每一日讚履歷,
all,1,tdn,2020-01-16,,,,,,all,dnworld,dailyworlditemtraderecord,,extract,dnworld,dailyworlditemtraderecord,,,,,,,,,每日商店道具購入紀錄(1M以下),
all,1,tdn,2020-01-16,,,,,,all,dnworld,darklairpartymembers,,extract,dnworld,darklairpartymembers,,,,,,,,,暗黑空間組隊組成人員(無資料),
all,1,tdn,2020-01-16,,,,,,all,dnworld,darklairpersonalbest,,extract,dnworld,darklairpersonalbest,,,,,,,,,暗黑空間-個人最好(無資料),
all,1,tdn,2020-01-16,,,,,,all,dnworld,darklairranking,,extract,dnworld,darklairranking,,,,,,,,,暗黑空間排行(無資料),
all,1,tdn,2020-01-16,,,,,,all,dnworld,databaseversion,,extract,dnworld,databaseversion,,,,,,,,,__(未在列表)(1M以下),
all,1,tdn,2020-01-16,,,,,,all,dnworld,dngirlintimacy,,extract,dnworld,dngirlintimacy,,,,,,,,,龍之谷女孩(代言)親密度(無資料),
all,1,tdn,2020-01-16,,,,,,all,dnworld,dngirlrankingresults,,extract,dnworld,dngirlrankingresults,,,,,,,,,龍之谷女孩(代言)上季排行(無資料),
all,1,tdn,2020-01-16,,,,,,all,dnworld,dngirlrewardresults,,extract,dnworld,dngirlrewardresults,,,,,,,,,龍之谷女孩(代言)獎勵發放明細(無資料),
all,1,tdn,2020-01-16,,,,,,all,dnworld,dngirlseasonschedules,,extract,dnworld,dngirlseasonschedules,,,,,,,,,龍之谷女孩(代言)季日程(無資料),
all,1,tdn,2020-01-16,,,,,,all,dnworld,dungeonclear,,extract,dnworld,dungeonclear,,,,,,,,,副本通關狀態(無資料),
all,1,tdn,2020-01-16,,,,,,all,dnworld,dwcchannels,,extract,dnworld,dwcchannels,,,,,,,,,DWC頻道設定(1M以下),
all,1,tdn,2020-01-16,,,,,,all,dnworld,dwcpersonalplayhistory,,extract,dnworld,dwcpersonalplayhistory,,,,,,,,,DWC個人戰績(無資料),
all,1,tdn,2020-01-16,,,,,,all,dnworld,dwcranking,,extract,dnworld,dwcranking,,,,,,,,,__(未在列表)(無資料),
all,1,tdn,2020-01-16,,,,,,all,dnworld,dwcrankingtotalcount,,extract,dnworld,dwcrankingtotalcount,,,,,,,,,DWC排行總隊伍數(1M以下),
all,1,tdn,2020-01-16,,,,,,all,dnworld,dwcteamhistory,,extract,dnworld,dwcteamhistory,,,,,,,,,DWC隊伍履歷(1M以下),
all,1,tdn,2020-01-16,,,,,,all,dnworld,dwcteammembers,,extract,dnworld,dwcteammembers,,,,,,,,,DWC隊伍成員(1M以下),
all,1,tdn,2020-01-16,,,,,,all,dnworld,dwcteampointplayhistory,,extract,dnworld,dwcteampointplayhistory,,,,,,,,,DWC隊伍點數歷程(無資料),
all,1,tdn,2020-01-16,,,,,,all,dnworld,dwcteams,,extract,dnworld,dwcteams,,,,,,,,,DWC隊伍(1M以下),
all,1,tdn,2020-01-16,,,,,,all,dnworld,eventfatiguefordormantcharacter,,extract,dnworld,eventfatiguefordormantcharacter,,,,,,,,,__(無說明)(無資料),
all,1,tdn,2020-01-16,,,,,,all,dnworld,eventfatigueschedule,,extract,dnworld,eventfatigueschedule,,,,,,,,,__(無說明)(無資料),
all,1,tdn,2020-01-16,,,,,,all,dnworld,eventgroups,,extract,dnworld,eventgroups,,,,,,,,,活動群組(無資料),
all,1,tdn,2020-01-16,,,,,,all,dnworld,eventraids,,extract,dnworld,eventraids,,,,,,,,,__(無說明)(無資料),
all,1,tdn,2020-01-16,,,,,,all,dnworld,eventraidschedules,,extract,dnworld,eventraidschedules,,,,,,,,,__(無說明)(無資料),
all,1,tdn,2020-01-16,,,,,,all,dnworld,eventstatus,,extract,dnworld,eventstatus,,,,,,,,,活動(無資料),
all,1,tdn,2020-01-16,,,,,,all,dnworld,expitems,,extract,dnworld,expitems,,,,,,,,,__(無說明)(無資料),
all,1,tdn,2020-01-16,,,,,,all,dnworld,extraequippoints,,extract,dnworld,extraequippoints,,,,,,,,,追加穿戴點數(無資料),
all,1,tdn,2020-01-16,,,,,,all,dnworld,fairies,,extract,dnworld,fairies,,,,,,,,,成長型精靈,
all,1,tdn,2020-01-16,,,,,,all,dnworld,farminspect,,extract,dnworld,farminspect,,,,,,,,,農場維護開始時間(無資料),
all,1,tdn,2020-01-16,,,,,,all,dnworld,farms,,extract,dnworld,farms,,,,,,,,,農場,
all,1,tdn,2020-01-16,,,,,,all,dnworld,fieldattachments,,extract,dnworld,fieldattachments,,,,,,,,,農地與農作物裡附加的道具(無資料),
all,1,tdn,2020-01-16,,,,,,all,dnworld,fieldforcharacterattachments,,extract,dnworld,fieldforcharacterattachments,,,,,,,,,個人農場添加道具(1M以下),
all,1,tdn,2020-01-16,,,,,,all,dnworld,fields,,extract,dnworld,fields,,,,,,,,,農地(無資料),
all,1,tdn,2020-01-16,,,,,,all,dnworld,fieldsforcharacter,,extract,dnworld,fieldsforcharacter,,,,,,,,,個人農場(1M以下),
all,1,tdn,2020-01-16,,,,,,all,dnworld,gambleids,,extract,dnworld,gambleids,,,,,,,,,Gamble開始Table(無資料),
all,1,tdn,2020-01-16,,,,,,all,dnworld,gambleparticipantes,,extract,dnworld,gambleparticipantes,,,,,,,,,Gamble參與者(無資料),
all,1,tdn,2020-01-16,,,,,,all,dnworld,gamemoneytrade,,extract,dnworld,gamemoneytrade,,,,,,,,,C2C(無資料),
all,1,tdn,2020-01-16,,,,,,all,dnworld,giveneventfatigue,,extract,dnworld,giveneventfatigue,,,,,,,,,__(無說明)(無資料),
all,1,tdn,2020-01-16,,,,,,all,dnworld,globalevententrycount,,extract,dnworld,globalevententrycount,,,,,,,,,全球活動(世界單位活動)的角色類別招募件數(1M以下),
all,1,tdn,2020-01-16,,,,,,all,dnworld,growsupportsachievecount,,extract,dnworld,growsupportsachievecount,,,,,,,,,初學者指南進行狀況(無資料),
all,1,tdn,2020-01-16,,,,,,all,dnworld,guildagit,,extract,dnworld,guildagit,,,,,,,,,公會基地現況,
all,1,tdn,2020-01-16,,,,,,all,dnworld,guildbuffs,,extract,dnworld,guildbuffs,,,,,,,,,公會優惠,
all,1,tdn,2020-01-16,,,,,,all,dnworld,guildcontents,,extract,dnworld,guildcontents,,,,,,,,,公會內容,
all,1,tdn,2020-01-16,,,,,,all,dnworld,guilddepothistory,,extract,dnworld,guilddepothistory,,,,,,,,,公會倉庫使用履歷,
all,1,tdn,2020-01-16,,,,,,all,dnworld,guilddepothistorybak,,extract,dnworld,guilddepothistorybak,,,,,,,,,公會倉庫使用履歷備份,
all,1,tdn,2020-01-16,,,,,,all,dnworld,guilddepots,,extract,dnworld,guilddepots,,,,,,,,,公會倉庫,
all,1,tdn,2020-01-16,,,,,,all,dnworld,guilddepotslots,,extract,dnworld,guilddepotslots,,,,,,,,,公會倉庫裡각道具的位置資訊,
all,1,tdn,2020-01-16,,,,,,all,dnworld,guildhistory,,extract,dnworld,guildhistory,,,,,,,,,公會履歷,
all,1,tdn,2020-01-16,,,,,,all,dnworld,guildhistorybak,,extract,dnworld,guildhistorybak,,,,,,,,,公會歷程備份,
all,1,tdn,2020-01-16,,,,,,all,dnworld,guildjoinboard,,extract,dnworld,guildjoinboard,,,,,,,,,__(無說明),
all,1,tdn,2020-01-16,,,,,,all,dnworld,guildjoincharacters,,extract,dnworld,guildjoincharacters,,,,,,,,,公會加入申請角色,
all,1,tdn,2020-01-16,,,,,,all,dnworld,guildmemberroles,,extract,dnworld,guildmemberroles,,,,,,,,,公會成員職等定義,
all,1,tdn,2020-01-16,,,,,,all,dnworld,guildmembers,,extract,dnworld,guildmembers,,,,,,,,,公會組成人員,
all,1,tdn,2020-01-16,,,,,,all,dnworld,guildmissiondetails,,extract,dnworld,guildmissiondetails,,,,,,,,,公會任務資訊,
all,1,tdn,2020-01-16,,,,,,all,dnworld,guildnestclear,,extract,dnworld,guildnestclear,,,,,,,,,公會巢穴通關,
all,1,tdn,2020-01-16,,,,,,all,dnworld,guildnestpastranking,,extract,dnworld,guildnestpastranking,,,,,,,,,公會巢穴排行,
all,1,tdn,2020-01-16,,,,,,all,dnworld,guildnestranking,,extract,dnworld,guildnestranking,,,,,,,,,公會巢穴排行,
all,1,tdn,2020-01-16,,,,,,all,dnworld,guildnestrankinghistory,,extract,dnworld,guildnestrankinghistory,,,,,,,,,公會巢穴排行歷史紀錄,
all,1,tdn,2020-01-16,,,,,,all,dnworld,guildnestrankingrewardcompletes,,extract,dnworld,guildnestrankingrewardcompletes,,,,,,,,,排行獎勵發放結束,
all,1,tdn,2020-01-16,,,,,,all,dnworld,guildrecruitmentoptions,,extract,dnworld,guildrecruitmentoptions,,,,,,,,,公會募集,
all,1,tdn,2020-01-16,,,,,,all,dnworld,guildrecruitments,,extract,dnworld,guildrecruitments,,,,,,,,,公會募集,
all,1,tdn,2020-01-16,,,,,,all,dnworld,guildrewards,,extract,dnworld,guildrewards,,,,,,,,,公會獎勵購買明細,
all,1,tdn,2020-01-16,,,,,,all,dnworld,guilds,,extract,dnworld,guilds,,,,,,,,,公會,
all,1,tdn,2020-01-16,,,,,,all,dnworld,guildsteleaccelerations,,extract,dnworld,guildsteleaccelerations,,,,,,,,,公會石板促進,
all,1,tdn,2020-01-16,,,,,,all,dnworld,guildsteles,,extract,dnworld,guildsteles,,,,,,,,,公會石板,
all,1,tdn,2020-01-16,,,,,,all,dnworld,guildwarfinalresults,,extract,dnworld,guildwarfinalresults,,,,,,,,,公會戰決賽結果,
all,1,tdn,2020-01-16,,,,,,all,dnworld,guildwarfinalschedule,,extract,dnworld,guildwarfinalschedule,,,,,,,,,公會戰決賽日程,
all,1,tdn,2020-01-16,,,,,,all,dnworld,guildwaritemtraderecord,,extract,dnworld,guildwaritemtraderecord,,,,,,,,,公會戰慶典點數道具購買明細,
all,1,tdn,2020-01-16,,,,,,all,dnworld,guildwaropeningpointdailytotal,,extract,dnworld,guildwaropeningpointdailytotal,,,,,,,,,公會戰預賽點數日期類別合計,
all,1,tdn,2020-01-16,,,,,,all,dnworld,guildwaropeningpointguildrunningtotal,,extract,dnworld,guildwaropeningpointguildrunningtotal,,,,,,,,,公會戰預賽分數中間合計,
all,1,tdn,2020-01-16,,,,,,all,dnworld,guildwaropeningpointguildtotal,,extract,dnworld,guildwaropeningpointguildtotal,,,,,,,,,公會戰預賽點數公會合計,
all,1,tdn,2020-01-16,,,,,,all,dnworld,guildwaropeningpointrecord,,extract,dnworld,guildwaropeningpointrecord,,,,,,,,,公會戰預賽點數紀錄,
all,1,tdn,2020-01-16,,,,,,all,dnworld,guildwaropeningpointrecordbackup,,extract,dnworld,guildwaropeningpointrecordbackup,,,,,,,,,公會戰預賽點數紀錄備份(只有服務初期暫時維持後預計刪除),
all,1,tdn,2020-01-16,,,,,,all,dnworld,guildwaropeningpointtotal,,extract,dnworld,guildwaropeningpointtotal,,,,,,,,,公會戰預賽點數合計,
all,1,tdn,2020-01-16,,,,,,all,dnworld,guildwarpopularityvote,,extract,dnworld,guildwarpopularityvote,,,,,,,,,公會戰人氣投票,
all,1,tdn,2020-01-16,,,,,,all,dnworld,guildwarrewardforcharacter,,extract,dnworld,guildwarrewardforcharacter,,,,,,,,,公會戰個人獎勵發放確認,
all,1,tdn,2020-01-16,,,,,,all,dnworld,guildwarrewardforguild,,extract,dnworld,guildwarrewardforguild,,,,,,,,,公會戰公會獎勵發放確認,
all,1,tdn,2020-01-16,,,,,,all,dnworld,guildwarschedule,,extract,dnworld,guildwarschedule,,,,,,,,,公會戰全部日程,
all,1,tdn,2020-01-16,,,,,,all,dnworld,herolevels,,extract,dnworld,herolevels,,,,,,,,,__(無說明)(無資料),
all,1,tdn,2020-01-16,,,,,,all,dnworld,herostageclearranking,,extract,dnworld,herostageclearranking,,,,,,,,,英雄的戰場排行(1M以下),
all,1,tdn,2020-01-16,,,,,,all,dnworld,hiddencharacters,,extract,dnworld,hiddencharacters,,,,,,,,,隱藏角色(無資料),
all,1,tdn,2020-01-16,,,,,,all,dnworld,itemcopycheck,,extract,dnworld,itemcopycheck,,,,,,,,,道具濫用監視(1M以下),
all,1,tdn,2020-01-16,,,,,,all,dnworld,itemcountmonitoringtargetbuffer,,extract,dnworld,itemcountmonitoringtargetbuffer,,,,,,,,,道具數量監看對象(1M以下),
all,1,tdn,2020-01-16,,,,,,all,dnworld,itemgachalimitcount,,extract,dnworld,itemgachalimitcount,,,,,,,,,秘寶道具獲得數量限制(1M以下),
all,1,tdn,2020-01-16,,,,,,all,dnworld,itemlistforcount,,extract,dnworld,itemlistforcount,,,,,,,,,合計對象道具清單(1M以下),
all,1,tdn,2020-01-16,,,,,,all,dnworld,itemtraderecord,,extract,dnworld,itemtraderecord,,,,,,,,,道具購入紀錄(1M以下),
all,1,tdn,2020-01-16,,,,,,all,dnworld,jobreserve,,extract,dnworld,jobreserve,,,,,,,,,預約作業(1M以下),
all,1,tdn,2020-01-16,,,,,,all,dnworld,limbosteps,,extract,dnworld,limbosteps,,,,,,,,,__(未在列表)(1M以下),
all,1,tdn,2020-01-16,,,,,,all,dnworld,lockeditems,,extract,dnworld,lockeditems,,,,,,,,,__(未在列表)(1M以下),
all,1,tdn,2020-01-16,,,,,,all,dnworld,mailschedules,,extract,dnworld,mailschedules,,,,,,,,,預約信件,
all,1,tdn,2020-01-16,,,,,,all,dnworld,mailschedulestarget,,extract,dnworld,mailschedulestarget,,,,,,,,,預約信件對象,
all,1,tdn,2020-01-16,,,,,,all,dnworld,marketprices,,extract,dnworld,marketprices,,,,,,,,,交易所時勢,
all,1,tdn,2020-01-16,,,,,,all,dnworld,mgr_dataflow,,extract,dnworld,mgr_dataflow,,,,,,,,,__(未在列表)(1M以下),
all,1,tdn,2020-01-16,,,,,,all,dnworld,mgr_duplicatedguildname,,extract,dnworld,mgr_duplicatedguildname,,,,,,,,,__(未在列表)(1M以下),
all,1,tdn,2020-01-16,,,,,,all,dnworld,mgr_duplicateditemserials,,extract,dnworld,mgr_duplicateditemserials,,,,,,,,,__(未在列表)(無資料),
all,1,tdn,2020-01-16,,,,,,all,dnworld,mgr_foreignkeys,,extract,dnworld,mgr_foreignkeys,,,,,,,,,__(未在列表)(1M以下),
all,1,tdn,2020-01-16,,,,,,all,dnworld,mgr_identity,,extract,dnworld,mgr_identity,,,,,,,,,__(未在列表)(1M以下),
all,1,tdn,2020-01-16,,,,,,all,dnworld,mgr_indexes,,extract,dnworld,mgr_indexes,,,,,,,,,__(未在列表)(1M以下),
all,1,tdn,2020-01-16,,,,,,all,dnworld,mgr_itemserialcolumns,,extract,dnworld,mgr_itemserialcolumns,,,,,,,,,__(未在列表)(1M以下),
all,1,tdn,2020-01-16,,,,,,all,dnworld,mgr_sourcedb,,extract,dnworld,mgr_sourcedb,,,,,,,,,__(未在列表)(1M以下),
all,1,tdn,2020-01-16,,,,,,all,dnworld,missionboxdetails,,extract,dnworld,missionboxdetails,,,,,,,,,任務箱子詳細資料,
all,1,tdn,2020-01-16,,,,,,all,dnworld,nestgatestartids,,extract,dnworld,nestgatestartids,,,,,,,,,巢穴關卡門開始ID_NestDeathLogs,
all,1,tdn,2020-01-16,,,,,,all,dnworld,nestphaserewards,,extract,dnworld,nestphaserewards,,,,,,,,,巢穴中間獎勵發放次數,
all,1,tdn,2020-01-16,,,,,,all,dnworld,notifiers,,extract,dnworld,notifiers,,,,,,,,,提示,
all,1,tdn,2020-01-16,,,,,,all,dnworld,npclocation,,extract,dnworld,npclocation,,,,,,,,,__(未在列表)(無資料),
all,1,tdn,2020-01-16,,,,,,all,dnworld,parties,,extract,dnworld,parties,,,,,,,,,__(未在列表)(1M以下),
all,1,tdn,2020-01-16,,,,,,all,dnworld,partyjoins,,extract,dnworld,partyjoins,,,,,,,,,__(未在列表)(1M以下),
all,1,tdn,2020-01-16,,,,,,all,dnworld,pastdwcranking,,extract,dnworld,pastdwcranking,,,,,,,,,DWC排行(1M以下),
all,1,tdn,2020-01-16,,,,,,all,dnworld,pastdwcteammembers,,extract,dnworld,pastdwcteammembers,,,,,,,,,__(未在列表)(1M以下),
all,1,tdn,2020-01-16,,,,,,all,dnworld,pastdwcteampointplayhistory,,extract,dnworld,pastdwcteampointplayhistory,,,,,,,,,__(未在列表)(1M以下),
all,1,tdn,2020-01-16,,,,,,all,dnworld,pastdwcteams,,extract,dnworld,pastdwcteams,,,,,,,,,__(未在列表)(1M以下),
all,1,tdn,2020-01-16,,,,,,all,dnworld,periodicquestinitializedates,,extract,dnworld,periodicquestinitializedates,,,,,,,,,__(未在列表)(無資料),
all,1,tdn,2020-01-16,,,,,,all,dnworld,periodicquests,,extract,dnworld,periodicquests,,,,,,,,,__(未在列表)(無資料),
all,1,tdn,2020-01-16,,,,,,all,dnworld,periodicreset,,extract,dnworld,periodicreset,,,,,,,,,__(需要詢問)(100M以上),
all,1,tdn,2020-01-16,,,,,,all,dnworld,petspeechbubbles,,extract,dnworld,petspeechbubbles,,,,,,,,,__(未在列表)(1M以下),
all,1,tdn,2020-01-16,,,,,,all,dnworld,pickuppoints,,extract,dnworld,pickuppoints,,,,,,,,,__(未在列表)(1M以下),
all,1,tdn,2020-01-16,,,,,,all,dnworld,playalteia,,extract,dnworld,playalteia,,,,,,,,,__(未在列表)(1M以下),
all,1,tdn,2020-01-16,,,,,,all,dnworld,pointinitprocesslist,,extract,dnworld,pointinitprocesslist,,,,,,,,,__(未在列表)(1M以下),
all,1,tdn,2020-01-16,,,,,,all,dnworld,points,,extract,dnworld,points,,,,,,,,,__(未在列表)(1M以下),
all,1,tdn,2020-01-16,,,,,,all,dnworld,potenbonus,,extract,dnworld,potenbonus,,,,,,,,,__(未在列表)(1M以下),
all,1,tdn,2020-01-16,,,,,,all,dnworld,potentialboxstat,,extract,dnworld,potentialboxstat,,,,,,,,,__(未在列表)(無資料),
all,1,tdn,2020-01-16,,,,,,all,dnworld,presetskills,,extract,dnworld,presetskills,,,,,,,,,__(需要詢問)(1M以上),
all,1,tdn,2020-01-16,,,,,,all,dnworld,privatechannelmembers,,extract,dnworld,privatechannelmembers,,,,,,,,,__(未在列表)(1M以下),
all,1,tdn,2020-01-16,,,,,,all,dnworld,privatechannels,,extract,dnworld,privatechannels,,,,,,,,,__(未在列表)(1M以下),
all,1,tdn,2020-01-16,,,,,,all,dnworld,profilerresult,,extract,dnworld,profilerresult,,,,,,,,,__(未在列表)(無資料),
all,1,tdn,2020-01-16,,,,,,all,dnworld,profilertraceinfo,,extract,dnworld,profilertraceinfo,,,,,,,,,__(未在列表)(無資料),
all,1,tdn,2020-01-16,,,,,,all,dnworld,profiles,,extract,dnworld,profiles,,,,,,,,,__(未在列表)(1M以下),
all,1,tdn,2020-01-16,,,,,,all,dnworld,promise,,extract,dnworld,promise,,,,,,,,,__(未在列表)(1M以下),
all,1,tdn,2020-01-16,,,,,,all,dnworld,promiseceremony,,extract,dnworld,promiseceremony,,,,,,,,,__(未在列表)(1M以下),
all,1,tdn,2020-01-16,,,,,,all,dnworld,promiseceremonyguests,,extract,dnworld,promiseceremonyguests,,,,,,,,,__(未在列表)(1M以下),
all,1,tdn,2020-01-16,,,,,,all,dnworld,promisequest,,extract,dnworld,promisequest,,,,,,,,,__(未在列表)(1M以下),
all,1,tdn,2020-01-16,,,,,,all,dnworld,pupilcharacters,,extract,dnworld,pupilcharacters,,,,,,,,,__(未在列表)(1M以下),
all,1,tdn,2020-01-16,,,,,,all,dnworld,pushqueue,,extract,dnworld,pushqueue,,,,,,,,,__(未在列表)(1M以下),
all,1,tdn,2020-01-16,,,,,,all,dnworld,pvepastranking,,extract,dnworld,pvepastranking,,,,,,,,,__(未在列表),
all,1,tdn,2020-01-16,,,,,,all,dnworld,pveranking,,extract,dnworld,pveranking,,,,,,,,,__(未在列表),
all,1,tdn,2020-01-16,,,,,,all,dnworld,pverankingcount,,extract,dnworld,pverankingcount,,,,,,,,,__(未在列表),
all,1,tdn,2020-01-16,,,,,,all,dnworld,pverankinghistory,,extract,dnworld,pverankinghistory,,,,,,,,,__(未在列表),
all,1,tdn,2020-01-16,,,,,,all,dnworld,pverankingstageclear,,extract,dnworld,pverankingstageclear,,,,,,,,,__(未在列表),
all,1,tdn,2020-01-16,,,,,,all,dnworld,pvpcharacterclassscores,,extract,dnworld,pvpcharacterclassscores,,,,,,,,,__(未在列表),
all,1,tdn,2020-01-16,,,,,,all,dnworld,pvpghoulscores,,extract,dnworld,pvpghoulscores,,,,,,,,,__(未在列表),
all,1,tdn,2020-01-16,,,,,,all,dnworld,pvpladderkilldeathbyjob,,extract,dnworld,pvpladderkilldeathbyjob,,,,,,,,,__(未在列表),
all,1,tdn,2020-01-16,,,,,,all,dnworld,pvpladderkilldeathbyjobpast,,extract,dnworld,pvpladderkilldeathbyjobpast,,,,,,,,,__(未在列表),
all,1,tdn,2020-01-16,,,,,,all,dnworld,pvpladderpointpast,,extract,dnworld,pvpladderpointpast,,,,,,,,,__(未在列表),
all,1,tdn,2020-01-16,,,,,,all,dnworld,pvpladderranking,,extract,dnworld,pvpladderranking,,,,,,,,,__(未在列表),
all,1,tdn,2020-01-16,,,,,,all,dnworld,pvpladderrankingcount,,extract,dnworld,pvpladderrankingcount,,,,,,,,,__(未在列表),
all,1,tdn,2020-01-16,,,,,,all,dnworld,pvpladderrankinghistory,,extract,dnworld,pvpladderrankinghistory,,,,,,,,,__(未在列表),
all,1,tdn,2020-01-16,,,,,,all,dnworld,pvpladderrankpastranking,,extract,dnworld,pvpladderrankpastranking,,,,,,,,,__(未在列表),
all,1,tdn,2020-01-16,,,,,,all,dnworld,pvpladderrankranking,,extract,dnworld,pvpladderrankranking,,,,,,,,,__(未在列表),
all,1,tdn,2020-01-16,,,,,,all,dnworld,pvpladderrankrankingcount,,extract,dnworld,pvpladderrankrankingcount,,,,,,,,,__(未在列表),
all,1,tdn,2020-01-16,,,,,,all,dnworld,pvpladderrankschedules,,extract,dnworld,pvpladderrankschedules,,,,,,,,,__(未在列表),
all,1,tdn,2020-01-16,,,,,,all,dnworld,pvpladderrankstatus,,extract,dnworld,pvpladderrankstatus,,,,,,,,,__(未在列表),
all,1,tdn,2020-01-16,,,,,,all,dnworld,pvpladderranktierformula,,extract,dnworld,pvpladderranktierformula,,,,,,,,,__(未在列表),
all,1,tdn,2020-01-16,,,,,,all,dnworld,pvpladderscores,,extract,dnworld,pvpladderscores,,,,,,,,,__(未在列表),
all,1,tdn,2020-01-16,,,,,,all,dnworld,pvpladderscoresbyjob,,extract,dnworld,pvpladderscoresbyjob,,,,,,,,,__(未在列表),
all,1,tdn,2020-01-16,,,,,,all,dnworld,pvpladderscoresbyjobpast,,extract,dnworld,pvpladderscoresbyjobpast,,,,,,,,,__(未在列表),
all,1,tdn,2020-01-16,,,,,,all,dnworld,pvpladderscorespast,,extract,dnworld,pvpladderscorespast,,,,,,,,,__(未在列表),
all,1,tdn,2020-01-16,,,,,,all,dnworld,pvprankcriteria,,extract,dnworld,pvprankcriteria,,,,,,,,,__(未在列表),
all,1,tdn,2020-01-16,,,,,,all,dnworld,pvpranking,,extract,dnworld,pvpranking,,,,,,,,,__(未在列表),
all,1,tdn,2020-01-16,,,,,,all,dnworld,pvprankingcount,,extract,dnworld,pvprankingcount,,,,,,,,,__(未在列表),
all,1,tdn,2020-01-16,,,,,,all,dnworld,pvpscores,,extract,dnworld,pvpscores,,,,,,,,,__(未在列表),
all,1,tdn,2020-01-16,,,,,,all,dnworld,pvpstartids,,extract,dnworld,pvpstartids,,,,,,,,,__(未在列表),
all,1,tdn,2020-01-16,,,,,,all,dnworld,pvpteambattlescores,,extract,dnworld,pvpteambattlescores,,,,,,,,,__(未在列表),
all,1,tdn,2020-01-16,,,,,,all,dnworld,pvptopranker,,extract,dnworld,pvptopranker,,,,,,,,,__(未在列表),
all,1,tdn,2020-01-16,,,,,,all,dnworld,pvptournamentids,,extract,dnworld,pvptournamentids,,,,,,,,,__(未在列表),
all,1,tdn,2020-01-16,,,,,,all,dnworld,pvptournamentresults,,extract,dnworld,pvptournamentresults,,,,,,,,,__(未在列表),
all,1,tdn,2020-01-16,,,,,,all,dnworld,quests,,extract,dnworld,quests,,,,,,,,,__(需要詢問)(100M以上),
all,1,tdn,2020-01-16,,,,,,all,dnworld,quickslots,,extract,dnworld,quickslots,,,,,,,,,__(需要詢問)(100M以上),
all,1,tdn,2020-01-16,,,,,,all,dnworld,rankingtotalcompletetime,,extract,dnworld,rankingtotalcompletetime,,,,,,,,,__(未在列表)(1M以下),
all,1,tdn,2020-01-16,,,,,,all,dnworld,records,,extract,dnworld,records,,,,,,,,,__(需要詢問)(1M以上),
all,1,tdn,2020-01-16,,,,,,all,dnworld,repurchaseitem,,extract,dnworld,repurchaseitem,,,,,,,,,__(未在列表)(1M以下),
all,1,tdn,2020-01-16,,,,,,all,dnworld,requestboardlimits,,extract,dnworld,requestboardlimits,,,,,,,,,__(未在列表)(無資料),
all,1,tdn,2020-01-16,,,,,,all,dnworld,requestboardmapid,,extract,dnworld,requestboardmapid,,,,,,,,,__(未在列表)(1M以下),
all,1,tdn,2020-01-16,,,,,,all,dnworld,requestboards,,extract,dnworld,requestboards,,,,,,,,,__(需要詢問)(1M以上),
all,1,tdn,2020-01-16,,,,,,all,dnworld,reservedguildnames,,extract,dnworld,reservedguildnames,,,,,,,,,__(未在列表)(無資料),
all,1,tdn,2020-01-16,,,,,,all,dnworld,rewardalteiaranker,,extract,dnworld,rewardalteiaranker,,,,,,,,,__(未在列表)(1M以下),
all,1,tdn,2020-01-16,,,,,,all,dnworld,seafishingranking,,extract,dnworld,seafishingranking,,,,,,,,,__(未在列表)(1M以下),
all,1,tdn,2020-01-16,,,,,,all,dnworld,seafishingrankingschedules,,extract,dnworld,seafishingrankingschedules,,,,,,,,,__(未在列表)(1M以下),
all,1,tdn,2020-01-16,,,,,,all,dnworld,seafishingrewards,,extract,dnworld,seafishingrewards,,,,,,,,,__(未在列表)(1M以下),
all,1,tdn,2020-01-16,,,,,,all,dnworld,seafishingscores,,extract,dnworld,seafishingscores,,,,,,,,,__(未在列表)(1M以下),
all,1,tdn,2020-01-16,,,,,,all,dnworld,sealboxdetails,,extract,dnworld,sealboxdetails,,,,,,,,,__(未在列表)(1M以下),
all,1,tdn,2020-01-16,,,,,,all,dnworld,sealboxeventdetails,,extract,dnworld,sealboxeventdetails,,,,,,,,,__(未在列表)(1M以下),
all,1,tdn,2020-01-16,,,,,,all,dnworld,sendedmails,,extract,dnworld,sendedmails,,,,,,,,,__(感覺是郵件類),
all,1,tdn,2020-01-16,,,,,,all,dnworld,serversendmails,,extract,dnworld,serversendmails,,,,,,,,,__(感覺是郵件類),
all,1,tdn,2020-01-16,,,,,,all,dnworld,skiploggingitems,,extract,dnworld,skiploggingitems,,,,,,,,,__(未在列表)(1M以下),
all,1,tdn,2020-01-16,,,,,,all,dnworld,sndaeventitemhistory,,extract,dnworld,sndaeventitemhistory,,,,,,,,,__(未在列表)(無資料),
all,1,tdn,2020-01-16,,,,,,all,dnworld,st_dailyitemcount1,,extract,dnworld,st_dailyitemcount1,,,,,,,,,__(未在列表)(1M以下),
all,1,tdn,2020-01-16,,,,,,all,dnworld,st_dailyitemcount2,,extract,dnworld,st_dailyitemcount2,,,,,,,,,__(未在列表)(1M以下),
all,1,tdn,2020-01-16,,,,,,all,dnworld,stageclearbest,,extract,dnworld,stageclearbest,,,,,,,,,__(未在列表)(1M以下),
all,1,tdn,2020-01-16,,,,,,all,dnworld,stageclearmonthlybest,,extract,dnworld,stageclearmonthlybest,,,,,,,,,__(未在列表)(1M以下),
all,1,tdn,2020-01-16,,,,,,all,dnworld,stageclearpersonalbest,,extract,dnworld,stageclearpersonalbest,,,,,,,,,__(需要詢問)(100M以上),
all,1,tdn,2020-01-16,,,,,,all,dnworld,stagestartids,,extract,dnworld,stagestartids,,,,,,,,,__副本進行紀錄_StageEndLogs,
all,1,tdn,2020-01-16,,,,,,all,dnworld,tally,,extract,dnworld,tally,,,,,,,,,__(未在列表)(1M以下),
all,1,tdn,2020-01-16,,,,,,all,dnworld,teachercharacters,,extract,dnworld,teachercharacters,,,,,,,,,__(需要詢問)(1M以上),
all,1,tdn,2020-01-16,,,,,,all,dnworld,teachersandpupils,,extract,dnworld,teachersandpupils,,,,,,,,,__(需要詢問)(1M以上),
all,1,tdn,2020-01-16,,,,,,all,dnworld,totalpvproommembers,,extract,dnworld,totalpvproommembers,,,,,,,,,__(未在列表),
all,1,tdn,2020-01-16,,,,,,all,dnworld,totalpvprooms,,extract,dnworld,totalpvprooms,,,,,,,,,__(未在列表)(無資料),
all,1,tdn,2020-01-16,,,,,,all,dnworld,totalrewards,,extract,dnworld,totalrewards,,,,,,,,,__(未在列表)(1M以下),
all,1,tdn,2020-01-16,,,,,,all,dnworld,trade,,extract,dnworld,trade,,,,,,,,,__(需要詢問)(1M以上),
all,1,tdn,2020-01-16,,,,,,all,dnworld,tradeitems,,extract,dnworld,tradeitems,,,,,,,,,__(未在列表)(1M以下),
all,1,tdn,2020-01-16,,,,,,all,dnworld,vippointhistory,,extract,dnworld,vippointhistory,,,,,,,,,__(未在列表)(無資料),
all,1,tdn,2020-01-16,,,,,,all,dnworld,weeklyexpensivetradeitems,,extract,dnworld,weeklyexpensivetradeitems,,,,,,,,,__(未在列表)(1M以下),
all,1,tdn,2020-01-16,,,,,,all,dnworld,weeklyguildcontributionpoint,,extract,dnworld,weeklyguildcontributionpoint,,,,,,,,,__(未在列表)(1M以下),
all,1,tdn,2020-01-16,,,,,,all,dnworld,weeklyguildcontributionpointhistory,,extract,dnworld,weeklyguildcontributionpointhistory,,,,,,,,,__(未在需要詢問列表)(1M以上),
all,1,tdn,2020-01-16,,,,,,all,dnworld,weeklyitemtraderecord,,extract,dnworld,weeklyitemtraderecord,,,,,,,,,__(需要詢問)(1M以上),
all,1,tdn,2020-01-16,,,,,,all,dnworld,weeklylikes,,extract,dnworld,weeklylikes,,,,,,,,,__(未在列表)(1M以下),
all,1,tdn,2020-01-16,,,,,,all,dnworld,weeklypartyrewards,,extract,dnworld,weeklypartyrewards,,,,,,,,,__(未在列表)(1M以下),
all,1,tdn,2020-01-16,,,,,,all,dnworld,weeklyworlditemtraderecord,,extract,dnworld,weeklyworlditemtraderecord,,,,,,,,,__(未在列表)(1M以下),
all,1,tdn,2020-01-16,,,,,,all,dnworld,wishauctions,,extract,dnworld,wishauctions,,,,,,,,,__(未在列表)(無資料),
all,1,tdn,2020-01-16,,,,,,all,dnworld,wishitems,,extract,dnworld,wishitems,,,,,,,,,__(未在列表)(1M以下),
all,1,tdn,2020-01-16,,,,,,all,dnworld,wishlist,,extract,dnworld,wishlist,,,,,,,,,__(未在列表)(1M以下),
all,1,tdn,2020-01-16,,,,,,all,dnworld,wishproducts,,extract,dnworld,wishproducts,,,,,,,,,__(未在列表)(1M以下),
all,1,tdn,2020-01-16,,,,,,all,dnworld,worldalteiatickets,,extract,dnworld,worldalteiatickets,,,,,,,,,__(未在列表)(1M以下),
all,1,tdn,2020-01-16,,,,,,all,dnworld,worldcoverage,,extract,dnworld,worldcoverage,,,,,,,,,__(未在列表)(1M以下),
all,1,tdn,2020-01-16,,,,,,all,dnworld,worlddepots,,extract,dnworld,worlddepots,,,,,,,,,__(需要詢問)(1M以上),
all,1,tdn,2020-01-16,,,,,,all,dnworld,worldeventquestcounter,,extract,dnworld,worldeventquestcounter,,,,,,,,,__(未在列表)(無資料),
all,1,tdn,2020-01-16,,,,,,all,dnworld,worlditemtradeinitializerecords,,extract,dnworld,worlditemtradeinitializerecords,,,,,,,,,__(未在列表)(1M以下),
all,1,tdn,2020-01-16,,,,,,all,dnworld,worldplayalteia,,extract,dnworld,worldplayalteia,,,,,,,,,__(未在列表)(1M以下),
all,1,tdn,2020-01-16,,,,,,all,dnworld,worldpoints,,extract,dnworld,worldpoints,,,,,,,,,__(需要詢問)(1M以上),
all,1,tdn,2020-01-16,,,,,,all,dnworld,worldweeklylimbosteprewards,,extract,dnworld,worldweeklylimbosteprewards,,,,,,,,,__(未在列表)(1M以下),
grammar,2,tdn,2020-01-16,,extract,init,onliontime,characterid,all,dnworld,achievemissions,characterid,extract,dnworld,achievemissions,,,,,,,,,角色任務,
grammar,2,tdn,2020-01-16,,extract,init,onliontime,characterid,all,dnworld,achievemissionscorerewards,characterid,extract,dnworld,achievemissionscorerewards,,,,,,,,,任務獎勵發放,
grammar,2,tdn,2020-01-16,,extract,init,onliontime,characterid,all,dnworld,appellations,characterid,extract,dnworld,appellations,,,,,,,,,角色稱號,
grammar,2,tdn,2020-01-16,,extract,init,onliontimebyaccount,accountid,all,dnworld,appellationsforaccount,accountid,extract,dnworld,appellationsforaccount,,,,,,,,,帳號稱號,
grammar,2,tdn,2020-01-16,,extract,init,onliontime,characterid,all,dnworld,assignmissiondetails,characterid,extract,dnworld,assignmissiondetails,,,,,,,,,個人任務詳細,
grammar,2,tdn,2020-01-16,,extract,init,onliontimebyaccount,accountid,all,dnworld,assignmissiondetailsforworld,accountid,extract,dnworld,assignmissiondetailsforworld,,,,,,,,,帳號世界每日、週間、月份任務細項,
grammar,2,tdn,2020-01-16,,extract,init,onliontime,characterid,all,dnworld,assignmissions,characterid,extract,dnworld,assignmissions,,,,,,,,,角色每日、週間、月份任務,
grammar,2,tdn,2020-01-16,,extract,init,onliontimebyaccount,accountid,all,dnworld,assignmissionsforworld,accountid,extract,dnworld,assignmissionsforworld,,,,,,,,,帳號世界每日、週間、月份任務,
grammar,2,tdn,2020-01-16,,extract,init,onliontime,characterid,all,dnworld,assignquests,characterid,extract,dnworld,assignquests,,,,,,,,,角色不定週期任務,
grammar,2,tdn,2020-01-16,,extract,init,onliontime,characterid,all,dnworld,bestfriends,characterid,extract,dnworld,bestfriends,,,,,,,,,好友(1M以下),
grammar,2,tdn,2020-01-16,,extract,init,onliontime,characterid,all,dnworld,blockedcharacters,blockedcharacterid,extract,dnworld,blockedcharacters,,,,,,,,,角色封鎖,
grammar,2,tdn,2020-01-16,,extract,init,onliontime,characterid,all,dnworld,cardcollections,characterid,extract,dnworld,cardcollections,,,,,,,,,收集系統(最初傭兵&怪物圖鑑),
grammar,2,tdn,2020-01-16,,extract,init,onliontime,characterid,all,dnworld,characterabilities,characterid,extract,dnworld,characterabilities,,,,,,,,,角色能力值,
grammar,2,tdn,2020-01-16,,extract,init,onliontime,characterid,all,dnworld,characters,characterid,extract,dnworld,characters,,,,,,,,,角色資料,
grammar,2,tdn,2020-01-16,,extract,init,onliontime,characterid,all,dnworld,characterstatus,characterid,extract,dnworld,characterstatus,,,,,,,,,角色狀態,
grammar,2,tdn,2020-01-16,,extract,init,onliontime,characterid,all,dnworld,completequests,characterid,extract,dnworld,completequests,,,,,,,,,結束任務,
grammar,2,tdn,2020-01-16,,extract,init,onliontime,characterid,all,dnworld,connectdurations,characterid,extract,dnworld,connectdurations,,,,,,,,,角色類別連線維持時間,
grammar,2,tdn,2020-01-16,,extract,init,onliontime,characterid,all,dnworld,effectitems,characterid,extract,dnworld,effectitems,,,,,,,,,角色持有的效果道具,
grammar,2,tdn,2020-01-16,,extract,init,onliontime,characterid,all,dnworld,equipmentattributes,characterid,extract,dnworld,equipmentattributes,,,,,,,,,裝備追加屬性,
grammar,2,tdn,2020-01-16,,extract,init,onliontime,characterid,all,dnworld,eventstageclearcount,characterid,extract,dnworld,eventstageclearcount,,,,,,,,,活動關卡通關計算,
grammar,2,tdn,2020-01-16,,extract,init,onliontime,characterid,all,dnworld,featmissions,characterid,extract,dnworld,featmissions,,,,,,,,,偉業任務,
grammar,2,tdn,2020-01-16,,extract,init,onliontime,characterid,all,dnworld,friendgroups,characterid,extract,dnworld,friendgroups,,,,,,,,,朋友群組,
grammar,2,tdn,2020-01-16,,extract,init,onliontime,characterid,all,dnworld,friendrequestflags,characterid,extract,dnworld,friendrequestflags,,,,,,,,,朋友邀請狀況(可以看封鎖狀況)__,
grammar,2,tdn,2020-01-16,,extract,init,onliontime,characterid,all,dnworld,friends,characterid,extract,dnworld,friends,,,,,,,,,朋友,
grammar,2,tdn,2020-01-16,,extract,init,onliontime,characterid,all,dnworld,growsupports,characterid,extract,dnworld,growsupports,,,,,,,,,初學者指南,
grammar,2,tdn,2020-01-16,,extract,init,onliontime,characterid,all,dnworld,herostageclearrewards,characterid,extract,dnworld,herostageclearrewards,,,,,,,,,英雄的戰場獎勵,
grammar,2,tdn,2020-01-16,,extract,init,onliontime,characterid,all,dnworld,herostageclearscores,characterid,extract,dnworld,herostageclearscores,,,,,,,,,英雄的戰場分數,
grammar,2,tdn,2020-01-16,,extract,init,onliontime,characterid,all,dnworld,itemlocationindexes,ownercharacterid,extract,dnworld,itemlocationindexes,,,,,,,,,道具欄位,
grammar,2,tdn,2020-01-16,,extract,init,onliontime,characterid,all,dnworld,mails,receivercharacterid,extract,dnworld,mails,,,,,,,,,信件,
grammar,2,tdn,2020-01-16,,extract,init,onliontime,characterid,all,dnworld,manufactureskillrecipes,characterid,extract,dnworld,manufactureskillrecipes,,,,,,,,,製作技能食譜,
grammar,2,tdn,2020-01-16,,extract,init,onliontime,characterid,all,dnworld,materializeditems,ownercharacterid,extract,dnworld,materializeditems,,,,,,,,,道具紀錄,
grammar,2,tdn,2020-01-16,,extract,init,onliontime,characterid,all,dnworld,maximumlevelfarmingguidemissions,characterid,extract,dnworld,maximumlevelfarmingguidemissions,,,,,,,,,最高等級農場指南任務達成資訊,
grammar,2,tdn,2020-01-16,,extract,init,onliontime,characterid,all,dnworld,mercenarymissiondetails,characterid,extract,dnworld,mercenarymissiondetails,,,,,,,,,傭兵任務細項,
grammar,2,tdn,2020-01-16,,extract,init,onliontime,characterid,all,dnworld,mercenarymissions,characterid,extract,dnworld,mercenarymissions,,,,,,,,,傭兵任務,
grammar,2,tdn,2020-01-16,,extract,init,onliontime,characterid,all,dnworld,missionbinaries,characterid,extract,dnworld,missionbinaries,,,,,,,,,任務二進制文件,
grammar,2,tdn,2020-01-16,,extract,dnworld,partyjoins,characterid,all,dnworld,nestclear,characterid,extract,dnworld,nestclear,,,,,,,,,週間巢穴通關,
grammar,2,tdn,2020-01-16,,extract,init,onliontime,characterid,all,dnworld,npcfavor,characterid,extract,dnworld,npcfavor,,,,,,,,,NPC對角色的點數好的/壞的,
grammar,2,tdn,2020-01-16,,extract,dnworld,partyjoins,partyid,all,dnworld,partystartids,partyid,extract,dnworld,partystartids,,,,,,,,,組隊相關,
grammar,2,tdn,2020-01-16,,extract,init,onliontime,characterid,all,dnworld,secondaryskills,characterid,extract,dnworld,secondaryskills,,,,,,,,,__(輔助技能),
grammar,2,tdn,2020-01-16,,extract,init,onliontime,characterid,all,dnworld,skillpresets,characterid,extract,dnworld,skillpresets,,,,,,,,,__(技能相關),
grammar,2,tdn,2020-01-16,,extract,init,onliontime,characterid,all,dnworld,skills,characterid,extract,dnworld,skills,,,,,,,,,角色技能狀況,
grammar,2,tdn,2020-01-16,,extract,init,onliontime,characterid,all,dnworld,unifiedlevelskills,characterid,extract,dnworld,unifiedlevelskills,,,,,,,,,__(技能相關),
grammar,3,tdn,2020-01-16,,extract,dnworld,materializeditems,itemserial,all,dnworld,dragonjewels,itemserial,extract,dnworld,dragonjewels,,,,,,,,,龍玉道具,
grammar,3,tdn,2020-01-16,,extract,dnworld,materializeditems,itemserial,all,dnworld,imprintings,parentitemserial,extract,dnworld,imprintings,,,,,,,,,道具刻印,
grammar,3,tdn,2020-01-16,,extract,dnworld,mails,mailid,all,dnworld,mailattachitems,mailid,extract,dnworld,mailattachitems,,,,,,,,,信件附件,
grammar,3,tdn,2020-01-16,,extract,dnworld,materializeditems,itemserial,all,dnworld,petequipments,petitemserial,extract,dnworld,petequipments,,,,,,,,,寵物道具,
log,1,tdn,2020-01-16,,,,,,all,dnworld,abuselogs,,extract,dnworld,abuselogs,,logdate,logdate,0,1,,,,濫用Log,
log,1,tdn,2020-01-16,,,,,,all,dnworld,errorlogs,,extract,dnworld,errorlogs,,occurreddate,occurreddate,0,1,,,,__(未在列表)(無資料),
log,1,tdn,2020-01-16,,,,,,all,dnworld,guildwarfinalresultlogs,,extract,dnworld,guildwarfinalresultlogs,,pvpstartdate,pvpstartdate,0,1,,,,公會戰決賽大戰Log,
log,1,tdn,2020-01-16,,,,,,all,dnworld,hacklogs,,extract,dnworld,hacklogs,,logdate,logdate,0,1,,,,__(未在列表),
log,1,tdn,2020-01-16,,,,,,all,dnworld,itemlifespanextendlogs,,extract,dnworld,itemlifespanextendlogs,,logdate,logdate,0,1,,,,__(未在列表),
log,1,tdn,2020-01-16,,,,,,all,dnworld,jobchangelogs,,extract,dnworld,jobchangelogs,,logdate,logdate,0,1,,,,排除DNStaging有,
log,1,tdn,2020-01-16,,,,,,all,dnworld,jobcodechangelogs,,extract,dnworld,jobcodechangelogs,,changedate,changedate,0,1,,,,職業變更Log,
log,1,tdn,2020-01-16,,,,,,all,dnworld,jobmanagerlogs,,extract,dnworld,jobmanagerlogs,,logdate,logdate,0,1,,,,__(未在列表),
log,1,tdn,2020-01-16,,,,,,all,dnworld,periodicresetinitializedlogs,,extract,dnworld,periodicresetinitializedlogs,,initializedlogdate,initializedlogdate,0,1,,,,__(未在列表),
log,1,tdn,2020-01-16,,,,,,all,dnworld,pvpladdercucountlogs,,extract,dnworld,pvpladdercucountlogs,,basisdate,basisdate,0,1,,,,__(未在列表),
log,1,tdn,2020-01-16,,,,,,all,dnworld,tableauditlogs,,extract,dnworld,tableauditlogs,,occurreddate,occurreddate,0,1,,,,__(未在列表),
